{"type":"FeatureCollection","columns":{},"version":1788406591655295,"id":"WCMC/WDPA/current/polygons","properties":{"system:time_start":1788220800000,"system:time_end":1790812800000,"system:asset_size":2187958243},"features":[{"type":"Feature","geometry":{"type":"Polygon","coordinates":[[[-75.23392,-11.27336],[-74.95586,-11.42712],[-74.95414,-11.42151],[-74.95378,-11.4212],[-74.95337,-11.42078],[-74.95196,-11.4187],[-74.94719,-11.41224],[-74.9459,-11.40939],[-74.94576,-11.40752],[-74.94517,-11.40587],[-74.94573,-11.40384],[-74.94537,-11.40174],[-74.9434,-11.39797],[-74.94254,-11.39711],[-74.94256,-11.39633],[-74.94033,-11.38988],[-74.93813,-11.38617],[-74.9393,-11.38232],[-74.93629,-11.3772],[-74.93584,-11.37347],[-74.93475,-11.37201],[-74.93676,-11.36897],[-74.9367,-11.36107],[-74.93615,-11.35968],[-74.93646,-11.35553],[-74.93624,-11.35302],[-74.93538,-11.3519],[-74.93659,-11.349],[-74.93726,-11.34683],[-74.93907,-11.34361],[-74.93856,-11.34229],[-74.93922,-11.34146],[-74.93934,-11.33931],[-74.94033,-11.33751],[-74.94108,-11.33069],[-74.94197,-11.32784],[-74.94177,-11.32408],[-74.94006,-11.32023],[-74.94044,-11.31693],[-74.93911,-11.31533],[-74.93779,-11.31265],[-74.93603,-11.31116],[-74.93385,-11.30573],[-74.93437,-11.30376],[-74.93276,-11.30065],[-74.93056,-11.30016],[-74.92899,-11.29886],[-74.9271,-11.29806],[-74.92663,-11.29584],[-74.92771,-11.29405],[-74.92634,-11.29232],[-74.92708,-11.28922],[-74.92661,-11.28765],[-74.92712,-11.28584],[-74.92152,-11.27988],[-74.91624,-11.27585],[-74.90626,-11.27326],[-74.90509,-11.27178],[-74.90112,-11.27087],[-74.8979,-11.27162],[-74.89229,-11.27093],[-74.89108,-11.2675],[-74.89311,-11.26368],[-75.17142,-11.13174],[-75.23392,-11.27336]]]},"id":"00320000000000000d45","properties":{"DESIG":"Bosque de Protección","IUCN_CAT":"VI","NAME":"Pui Pui","STATUS":"Designated"}},{"type":"Feature","geometry":{"type":"GeometryCollection","geometries":[{"type":"LineString","coordinates":[[-75.00976,-10.34787],[-75.00922,-10.34776]]},{"type":"Polygon","coordinates":[[[-75.24504,-10.52527],[-75.24326,-10.5306],[-75.2417,-10.53434],[-75.24031,-10.53608],[-75.23749,-10.53717],[-75.22821,-10.53089],[-75.2276,-10.52987],[-75.22602,-10.53252],[-75.22444,-10.53257],[-75.22428,-10.53988],[-75.22231,-10.54358],[-75.21957,-10.54681],[-75.21678,-10.5475],[-75.21512,-10.55147],[-75.21205,-10.55281],[-75.21237,-10.55631],[-75.21563,-10.55943],[-75.2145,-10.56541],[-75.20908,-10.56964],[-75.20332,-10.57187],[-75.20001,-10.57363],[-75.19527,-10.5746],[-75.19144,-10.57728],[-75.18868,-10.57601],[-75.18633,-10.57792],[-75.18491,-10.57618],[-75.18418,-10.57455],[-75.18024,-10.57489],[-75.17771,-10.57224],[-75.17637,-10.57255],[-75.1744,-10.57131],[-75.17127,-10.5723],[-75.16907,-10.57238],[-75.16752,-10.57556],[-75.16566,-10.57707],[-75.17079,-10.55472],[-75.16325,-10.52648],[-75.15974,-10.52746],[-75.15231,-10.52778],[-75.15011,-10.52733],[-75.14767,-10.52766],[-75.14362,-10.52625],[-75.13938,-10.52689],[-75.13713,-10.526],[-75.13833,-10.53062],[-75.1403,-10.53202],[-75.14113,-10.53603],[-75.1346,-10.54521],[-75.13555,-10.54801],[-75.13703,-10.54934],[-75.13533,-10.55076],[-75.13604,-10.55673],[-75.13423,-10.55945],[-75.1345,-10.56125],[-75.13619,-10.56238],[-75.13649,-10.56451],[-75.13755,-10.5661],[-75.13792,-10.568],[-75.13974,-10.56992],[-75.13898,-10.57474],[-75.13692,-10.57644],[-75.13449,-10.58278],[-75.12912,-10.5865],[-75.12844,-10.58727],[-75.10403,-10.58703],[-75.10388,-10.58425],[-75.10518,-10.58304],[-75.1018,-10.57853],[-75.10076,-10.57699],[-75.09865,-10.57699],[-75.09774,-10.57422],[-75.09435,-10.57342],[-75.09249,-10.57077],[-75.09095,-10.56906],[-75.09133,-10.56583],[-75.08897,-10.56452],[-75.08781,-10.56025],[-75.08526,-10.55809],[-75.08428,-10.55459],[-75.07499,-10.55854],[-75.07036,-10.55847],[-75.07252,-10.56475],[-75.06653,-10.56756],[-75.06021,-10.56403],[-75.05674,-10.5628],[-75.05328,-10.56133],[-75.05057,-10.56534],[-75.0493,-10.57058],[-75.04649,-10.57269],[-75.04049,-10.57546],[-75.03769,-10.57733],[-75.03363,-10.57776],[-75.02797,-10.58392],[-75.03255,-10.61799],[-75.03427,-10.6222],[-75.03588,-10.62493],[-75.0351,-10.63201],[-75.0277,-10.64113],[-75.02788,-10.64724],[-75.02537,-10.65276],[-75.02408,-10.65866],[-75.02127,-10.66164],[-75.02054,-10.66481],[-75.01749,-10.66776],[-75.01641,-10.67192],[-75.01089,-10.67666],[-75.00995,-10.67867],[-75.00901,-10.69466],[-75.0062,-10.69955],[-75.00591,-10.7028],[-75.00717,-10.70988],[-75.00591,-10.71639],[-75.0034,-10.72252],[-74.9965,-10.72474],[-74.99102,-10.73009],[-74.9896,-10.73206],[-74.98633,-10.73541],[-74.98812,-10.74436],[-74.98262,-10.74988],[-74.98038,-10.74725],[-74.97372,-10.74423],[-74.96127,-10.73885],[-74.95881,-10.73779],[-74.95816,-10.73456],[-74.95677,-10.73202],[-74.95253,-10.73672],[-74.94965,-10.7409],[-74.94385,-10.74227],[-74.93991,-10.74732],[-74.93851,-10.74935],[-74.93314,-10.75008],[-74.93073,-10.75012],[-74.93015,-10.75201],[-74.92911,-10.75423],[-74.9277,-10.75435],[-74.92439,-10.75155],[-74.92163,-10.75275],[-74.9195,-10.7549],[-74.91734,-10.75423],[-74.91453,-10.7483],[-74.91235,-10.7491],[-74.90673,-10.75431],[-74.90232,-10.75825],[-74.902,-10.7608],[-74.89912,-10.76266],[-74.8952,-10.7672],[-74.89643,-10.76876],[-74.89413,-10.77433],[-74.89079,-10.76964],[-74.88428,-10.77],[-74.88163,-10.76339],[-74.87919,-10.76367],[-74.87508,-10.76382],[-74.87017,-10.76262],[-74.86607,-10.76011],[-74.86729,-10.75266],[-74.87162,-10.74784],[-74.87178,-10.74515],[-74.87012,-10.73962],[-74.87241,-10.73531],[-74.87603,-10.73057],[-74.87876,-10.72778],[-74.8799,-10.72573],[-74.88065,-10.72438],[-74.88218,-10.71774],[-74.88886,-10.71007],[-74.88397,-10.7042],[-74.88082,-10.70345],[-74.87715,-10.70521],[-74.87225,-10.70889],[-74.87042,-10.71195],[-74.86576,-10.71419],[-74.86158,-10.7188],[-74.85875,-10.72298],[-74.85639,-10.72744],[-74.85123,-10.73224],[-74.8473,-10.74172],[-74.84584,-10.74671],[-74.84265,-10.75286],[-74.84123,-10.75747],[-74.84041,-10.76133],[-74.83984,-10.7643],[-74.83691,-10.76742],[-74.83614,-10.77188],[-74.83423,-10.77364],[-74.83185,-10.77845],[-74.83062,-10.78127],[-74.82793,-10.78366],[-74.82338,-10.79199],[-74.81834,-10.79829],[-74.81677,-10.80141],[-74.81173,-10.80864],[-74.81008,-10.81108],[-74.80776,-10.81356],[-74.80624,-10.81546],[-74.80521,-10.81745],[-74.80076,-10.8223],[-74.79764,-10.82351],[-74.79497,-10.82928],[-74.79176,-10.83164],[-74.787,-10.82919],[-74.78345,-10.82788],[-74.78153,-10.8261],[-74.77681,-10.82645],[-74.77327,-10.82788],[-74.76856,-10.83044],[-74.76686,-10.82967],[-74.76478,-10.82721],[-74.7591,-10.82561],[-74.75234,-10.8289],[-74.74891,-10.83097],[-74.74563,-10.83189],[-74.74242,-10.83464],[-74.73967,-10.83634],[-74.73612,-10.8332],[-74.73358,-10.83356],[-74.73094,-10.83611],[-74.72778,-10.84184],[-74.7236,-10.84593],[-74.72165,-10.84826],[-74.71488,-10.85296],[-74.70794,-10.8578],[-74.70513,-10.86748],[-74.70228,-10.86888],[-74.70054,-10.87222],[-74.70133,-10.87638],[-74.69656,-10.8828],[-74.69394,-10.88583],[-74.68843,-10.88676],[-74.68652,-10.88666],[-74.68209,-10.88898],[-74.67959,-10.88726],[-74.67809,-10.88216],[-74.67952,-10.87952],[-74.67843,-10.87866],[-74.67341,-10.8777],[-74.67223,-10.87569],[-74.66766,-10.87405],[-74.6648,-10.87284],[-74.65785,-10.87391],[-74.6524,-10.86874],[-74.64712,-10.86735],[-74.63782,-10.86835],[-74.63556,-10.86626],[-74.63707,-10.85148],[-74.63848,-10.84871],[-74.63927,-10.84393],[-74.64145,-10.84245],[-74.64308,-10.84147],[-74.64136,-10.83803],[-74.63959,-10.83607],[-74.64145,-10.82846],[-74.64126,-10.81325],[-74.64253,-10.81045],[-74.65296,-10.80477],[-74.66011,-10.79795],[-74.66425,-10.79408],[-74.66461,-10.79243],[-74.66078,-10.78352],[-74.65523,-10.77878],[-74.65487,-10.77627],[-74.65621,-10.77103],[-74.65572,-10.76918],[-74.65216,-10.76649],[-74.65168,-10.76443],[-74.65386,-10.7611],[-74.65301,-10.75769],[-74.65602,-10.75508],[-74.65973,-10.7458],[-74.66474,-10.74069],[-74.6683,-10.73932],[-74.6706,-10.73693],[-74.67067,-10.73204],[-74.67319,-10.72831],[-74.67358,-10.72456],[-74.67243,-10.7163],[-74.67065,-10.70598],[-74.67036,-10.70425],[-74.67235,-10.70096],[-74.6755,-10.69928],[-74.6765,-10.69613],[-74.67749,-10.69582],[-74.67428,-10.69057],[-74.67467,-10.68742],[-74.67055,-10.68492],[-74.66753,-10.68398],[-74.66717,-10.68121],[-74.66949,-10.678],[-74.67169,-10.6745],[-74.6714,-10.67116],[-74.68053,-10.66637],[-74.68443,-10.65524],[-74.68701,-10.65297],[-74.68333,-10.65123],[-74.67978,-10.64649],[-74.68018,-10.64009],[-74.68173,-10.62381],[-74.67872,-10.61565],[-74.67645,-10.6136],[-74.67597,-10.61193],[-74.67757,-10.60238],[-74.67618,-10.59931],[-74.67434,-10.59759],[-74.67472,-10.59491],[-74.67645,-10.59423],[-74.68035,-10.5941],[-74.68306,-10.59255],[-74.6847,-10.58868],[-74.68408,-10.58472],[-74.68684,-10.58379],[-74.68964,-10.58086],[-74.68794,-10.57713],[-74.68664,-10.57287],[-74.69066,-10.56991],[-74.69334,-10.56583],[-74.68801,-10.55753],[-74.68624,-10.55401],[-74.68482,-10.55272],[-74.6854,-10.55035],[-74.69136,-10.54881],[-74.69351,-10.54358],[-74.69243,-10.54164],[-74.69301,-10.53909],[-74.69082,-10.53662],[-74.6889,-10.52825],[-74.69079,-10.52695],[-74.6932,-10.5272],[-74.69569,-10.52861],[-74.70068,-10.52807],[-74.70793,-10.52957],[-74.71136,-10.52827],[-74.71461,-10.52649],[-74.72149,-10.52581],[-74.72404,-10.52478],[-74.72845,-10.52345],[-74.73062,-10.52344],[-74.73142,-10.52103],[-74.73485,-10.51933],[-74.74165,-10.51982],[-74.74426,-10.51859],[-74.74623,-10.51882],[-74.74732,-10.51788],[-74.75088,-10.51798],[-74.75316,-10.51872],[-74.75695,-10.52355],[-74.76107,-10.52625],[-74.76246,-10.52718],[-74.76337,-10.52713],[-74.76461,-10.52782],[-74.76675,-10.52655],[-74.76797,-10.52576],[-74.76865,-10.52593],[-74.77199,-10.52157],[-74.77388,-10.52086],[-74.77742,-10.51966],[-74.78427,-10.53643],[-74.78538,-10.53773],[-74.78411,-10.54166],[-74.78436,-10.55342],[-74.78638,-10.55485],[-74.78924,-10.55643],[-74.79416,-10.56412],[-74.79373,-10.5709],[-74.79406,-10.57755],[-74.79294,-10.5811],[-74.85311,-10.58294],[-74.87521,-10.57728],[-74.87429,-10.57857],[-74.87259,-10.57916],[-74.87243,-10.57982],[-74.87786,-10.58686],[-74.87815,-10.58837],[-74.87696,-10.59118],[-74.87911,-10.59645],[-74.8813,-10.59761],[-74.88229,-10.60066],[-74.88036,-10.60218],[-74.88076,-10.60379],[-74.87928,-10.60555],[-74.87724,-10.60532],[-74.8757,-10.60887],[-74.87903,-10.60985],[-74.87982,-10.61258],[-74.87748,-10.61372],[-74.87605,-10.61746],[-74.8773,-10.61842],[-74.87541,-10.61975],[-74.87326,-10.61944],[-74.87383,-10.62054],[-74.87645,-10.6214],[-74.87541,-10.62345],[-74.87361,-10.62498],[-74.87453,-10.6271],[-74.8735,-10.62864],[-74.87099,-10.62923],[-74.87088,-10.6341],[-74.86631,-10.63415],[-74.86754,-10.63776],[-74.86259,-10.64567],[-74.86059,-10.64509],[-74.85909,-10.64807],[-74.88361,-10.67632],[-74.89764,-10.69152],[-74.91857,-10.69308],[-74.92511,-10.69065],[-74.93248,-10.68608],[-74.93261,-10.68148],[-74.94023,-10.67466],[-74.9414,-10.66318],[-74.93826,-10.65915],[-74.94423,-10.65521],[-74.94412,-10.65243],[-74.94657,-10.65278],[-74.94389,-10.45167],[-74.95335,-10.45082],[-74.95553,-10.44634],[-74.96875,-10.43439],[-74.97963,-10.42829],[-74.98523,-10.40767],[-75.02483,-10.35496],[-75.02405,-10.35457],[-75.02236,-10.35562],[-75.02087,-10.35332],[-75.01979,-10.35368],[-75.01873,-10.35438],[-75.01556,-10.35067],[-75.01245,-10.34904],[-75.01055,-10.34801],[-75.00976,-10.34787],[-75.01758,-10.34587],[-75.01827,-10.33439],[-75.00542,-10.33439],[-75.0065,-10.31792],[-75.00557,-10.28989],[-75.00282,-10.29005],[-75.00204,-10.28952],[-75.00491,-10.28411],[-75.00845,-10.2803],[-75.00673,-10.27796],[-75.00618,-10.27574],[-75.00372,-10.27302],[-75.0052,-10.26998],[-75.02981,-10.24345],[-75.02981,-10.23749],[-75.03419,-10.22976],[-75.0446,-10.2232],[-75.10024,-10.13757],[-75.13693,-10.09206],[-75.16572,-9.97428],[-75.20245,-9.9384],[-75.21441,-9.92756],[-75.22947,-9.91779],[-75.24037,-9.91825],[-75.23167,-9.93811],[-75.22824,-9.9485],[-75.21766,-9.96537],[-75.20411,-9.96879],[-75.19416,-9.9825],[-75.19486,-10.03717],[-75.18906,-10.0466],[-75.18667,-10.04674],[-75.18364,-10.05816],[-75.17631,-10.05834],[-75.17359,-10.06459],[-75.16959,-10.08916],[-75.16355,-10.09485],[-75.16156,-10.11077],[-75.16259,-10.11564],[-75.16231,-10.11879],[-75.15587,-10.11419],[-75.12731,-10.16993],[-75.11484,-10.19936],[-75.1062,-10.22199],[-75.10511,-10.23096],[-75.10127,-10.24032],[-75.09197,-10.2441],[-75.06488,-10.28993],[-75.06772,-10.309],[-75.03623,-10.32327],[-75.05043,-10.3662],[-75.05283,-10.36787],[-75.0508,-10.38269],[-75.035,-10.41885],[-75.03338,-10.44223],[-75.01735,-10.44224],[-75.01736,-10.50103],[-75.03751,-10.51069],[-75.03642,-10.51343],[-75.07415,-10.50801],[-75.11088,-10.4911],[-75.11269,-10.48332],[-75.1101,-10.48072],[-75.11446,-10.47923],[-75.1166,-10.47673],[-75.12373,-10.47719],[-75.12746,-10.477],[-75.13139,-10.47493],[-75.13557,-10.47343],[-75.1409,-10.47066],[-75.15319,-10.46501],[-75.15558,-10.46487],[-75.15665,-10.46623],[-75.16229,-10.46456],[-75.16625,-10.46385],[-75.16965,-10.462],[-75.1719,-10.46034],[-75.18041,-10.46168],[-75.18494,-10.46393],[-75.19223,-10.46447],[-75.19546,-10.46248],[-75.1974,-10.46181],[-75.20374,-10.46337],[-75.20585,-10.46627],[-75.20818,-10.46767],[-75.20754,-10.47205],[-75.20933,-10.47503],[-75.20892,-10.47614],[-75.21127,-10.47721],[-75.21102,-10.48254],[-75.2146,-10.48718],[-75.21849,-10.49049],[-75.22307,-10.4917],[-75.22458,-10.49867],[-75.22631,-10.50247],[-75.22825,-10.50288],[-75.23362,-10.50101],[-75.23592,-10.5021],[-75.23708,-10.50621],[-75.23748,-10.5087],[-75.24416,-10.51679],[-75.24456,-10.51747],[-75.24371,-10.52191],[-75.24504,-10.52527]]]}]},"id":"00320000000000000d46","properties":{"DESIG":"Bosque de Protección","IUCN_CAT":"VI","NAME":"San Matias San Carlos","STATUS":"Designated"}},{"type":"Feature","geometry":{"type":"GeometryCollection","geometries":[{"type":"LineString","coordinates":[[-74.09059,-11.35759],[-74.09092,-11.35799]]},{"type":"Polygon","coordinates":[[[-74.09059,-11.35759],[-74.08864,-11.35734],[-74.08563,-11.35629],[-74.0814,-11.35659],[-74.0783,-11.35779],[-74.07131,-11.35206],[-74.06202,-11.35269],[-74.0597,-11.35321],[-74.05427,-11.35823],[-74.0501,-11.36774],[-74.04602,-11.37363],[-74.04575,-11.37704],[-74.04625,-11.37834],[-74.04388,-11.37888],[-74.04079,-11.38042],[-74.03626,-11.38249],[-74.03213,-11.38443],[-74.03078,-11.38886],[-74.02781,-11.39006],[-74.02694,-11.3931],[-74.01648,-11.4011],[-74.01305,-11.40488],[-74.01198,-11.41104],[-74.01178,-11.41577],[-74.00836,-11.42365],[-74.00674,-11.4292],[-74.00258,-11.43267],[-74.00226,-11.43573],[-73.99863,-11.43501],[-73.99774,-11.43094],[-73.99179,-11.43294],[-73.98992,-11.43457],[-73.98204,-11.43628],[-73.97818,-11.44108],[-73.9782,-11.44509],[-73.97392,-11.44825],[-73.97263,-11.45342],[-73.95741,-11.45008],[-73.95466,-11.45007],[-73.95196,-11.44911],[-73.95297,-11.45345],[-73.95464,-11.45556],[-73.95849,-11.46885],[-73.95919,-11.47347],[-73.95886,-11.47409],[-73.9542,-11.46938],[-73.95122,-11.46731],[-73.9439,-11.46684],[-73.94076,-11.46815],[-73.93971,-11.46933],[-73.93953,-11.47905],[-73.93924,-11.49553],[-73.94089,-11.50428],[-73.94202,-11.5118],[-73.94312,-11.51487],[-73.94191,-11.51617],[-73.93633,-11.51536],[-73.93482,-11.51562],[-73.93288,-11.51273],[-73.93059,-11.51055],[-73.92671,-11.5098],[-73.92552,-11.50744],[-73.92326,-11.5001],[-73.92043,-11.50044],[-73.91768,-11.50078],[-73.91573,-11.49972],[-73.91404,-11.50041],[-73.91121,-11.50041],[-73.9097,-11.5011],[-73.90942,-11.50363],[-73.91223,-11.50548],[-73.91241,-11.51012],[-73.91133,-11.51431],[-73.91167,-11.51702],[-73.90972,-11.51858],[-73.90988,-11.522],[-73.91256,-11.5262],[-73.91512,-11.52889],[-73.91042,-11.53119],[-73.9078,-11.52907],[-73.90327,-11.52967],[-73.8983,-11.53053],[-73.8909,-11.53456],[-73.88987,-11.53705],[-73.88958,-11.53834],[-73.88748,-11.53994],[-73.88329,-11.53992],[-73.88205,-11.54084],[-73.87635,-11.53923],[-73.87384,-11.53984],[-73.87444,-11.54634],[-73.87255,-11.54851],[-73.87169,-11.5514],[-73.87215,-11.55284],[-73.87027,-11.55383],[-73.86913,-11.55395],[-73.86912,-11.55729],[-73.86999,-11.56051],[-73.86935,-11.56262],[-73.86733,-11.5662],[-73.86831,-11.56904],[-73.87069,-11.57328],[-73.87181,-11.57587],[-73.86991,-11.57885],[-73.86714,-11.57789],[-73.86452,-11.57709],[-73.86188,-11.57721],[-73.85975,-11.57571],[-73.85422,-11.57668],[-73.85159,-11.57506],[-73.84971,-11.57332],[-73.8462,-11.5727],[-73.84376,-11.57484],[-73.84151,-11.57483],[-73.83818,-11.57488],[-73.83635,-11.57583],[-73.83466,-11.57576],[-73.82833,-11.57998],[-73.82626,-11.58201],[-73.82123,-11.58247],[-73.81885,-11.58503],[-73.81292,-11.58822],[-73.80857,-11.59073],[-73.80329,-11.59178],[-73.80085,-11.59103],[-73.79679,-11.59283],[-73.7953,-11.59572],[-73.79451,-11.59789],[-73.79606,-11.6083],[-73.79745,-11.61245],[-73.79885,-11.61468],[-73.79952,-11.61706],[-73.79756,-11.61798],[-73.79553,-11.61981],[-73.79357,-11.62213],[-73.788,-11.62426],[-73.78512,-11.62348],[-73.78478,-11.6272],[-73.78746,-11.63213],[-73.78785,-11.63684],[-73.79015,-11.64129],[-73.78966,-11.64588],[-73.78776,-11.64988],[-73.78746,-11.65588],[-73.78826,-11.65929],[-73.78731,-11.66743],[-73.78621,-11.67146],[-73.78835,-11.68015],[-73.78895,-11.68741],[-73.7894,-11.68965],[-73.78242,-11.68658],[-73.77814,-11.68826],[-73.7697,-11.69006],[-73.75876,-11.68639],[-73.75576,-11.68246],[-73.75363,-11.68144],[-73.7518,-11.67943],[-73.74698,-11.67683],[-73.74196,-11.67679],[-73.73691,-11.68043],[-73.7338,-11.68701],[-73.73307,-11.68836],[-73.72829,-11.69012],[-73.72667,-11.69278],[-73.72479,-11.69439],[-73.7355,-11.69938],[-73.73965,-11.70306],[-73.73973,-11.70538],[-73.7386,-11.70638],[-73.73212,-11.70529],[-73.72997,-11.71021],[-73.73105,-11.71604],[-73.7305,-11.71837],[-73.72811,-11.72321],[-73.72372,-11.72714],[-73.72162,-11.72927],[-73.7197,-11.73035],[-73.71641,-11.73284],[-73.71383,-11.73965],[-73.71018,-11.74053],[-73.7069,-11.74177],[-73.70344,-11.74194],[-73.69832,-11.74622],[-73.69612,-11.74962],[-73.69429,-11.75158],[-73.69283,-11.75158],[-73.68939,-11.74958],[-73.68701,-11.75155],[-73.68587,-11.76051],[-73.67622,-11.76685],[-73.67481,-11.77156],[-73.67539,-11.7745],[-73.6741,-11.77406],[-73.67298,-11.77257],[-73.6694,-11.77262],[-73.6659,-11.77087],[-73.66741,-11.77766],[-73.66657,-11.78133],[-73.66116,-11.78911],[-73.65944,-11.79176],[-73.65769,-11.79403],[-73.65723,-11.79528],[-73.65387,-11.79673],[-73.65066,-11.79599],[-73.64797,-11.79494],[-73.64401,-11.79522],[-73.64041,-11.79682],[-73.63308,-11.79665],[-73.62671,-11.80094],[-73.62077,-11.80761],[-73.62212,-11.81075],[-73.62694,-11.81479],[-73.63311,-11.82123],[-73.63627,-11.82324],[-73.63845,-11.83001],[-73.63977,-11.84342],[-73.63975,-11.84657],[-73.64263,-11.85189],[-73.64437,-11.85316],[-73.64508,-11.85807],[-73.64463,-11.85979],[-73.64548,-11.86452],[-73.64439,-11.8777],[-73.64444,-11.8825],[-73.64345,-11.89057],[-73.64567,-11.89856],[-73.64494,-11.90042],[-73.64696,-11.90401],[-73.65,-11.90675],[-73.65058,-11.90833],[-73.64925,-11.91234],[-73.65138,-11.91949],[-73.6532,-11.92203],[-73.65289,-11.92575],[-73.65824,-11.93424],[-73.65923,-11.93811],[-73.66408,-11.93809],[-73.66513,-11.93947],[-73.66592,-11.94326],[-73.66835,-11.94534],[-73.67318,-11.94928],[-73.67656,-11.95377],[-73.6801,-11.96459],[-73.6797,-11.96751],[-73.67787,-11.9693],[-73.67838,-11.97164],[-73.68125,-11.9736],[-73.68244,-11.9786],[-73.68447,-11.9797],[-73.686,-11.98398],[-73.68762,-11.98765],[-73.68527,-11.99104],[-73.68646,-11.99702],[-73.68597,-12.00108],[-73.68574,-12.00604],[-73.68201,-12.01416],[-73.67799,-12.01604],[-73.67714,-12.01862],[-73.67349,-12.01943],[-73.67213,-12.02204],[-73.66955,-12.02369],[-73.66501,-12.03326],[-73.66678,-12.04096],[-73.66834,-12.04555],[-73.67197,-12.05151],[-73.67409,-12.0533],[-73.67621,-12.05948],[-73.67514,-12.06138],[-73.67609,-12.06434],[-73.68524,-12.07157],[-73.68578,-12.07527],[-73.68868,-12.08418],[-73.69116,-12.09565],[-73.69273,-12.10079],[-73.69293,-12.10978],[-73.68767,-12.11273],[-73.6828,-12.12113],[-73.68293,-12.12768],[-73.68454,-12.13321],[-73.68418,-12.13609],[-73.68899,-12.14841],[-73.68766,-12.1527],[-73.68737,-12.15556],[-73.68634,-12.16018],[-73.68532,-12.16805],[-73.68902,-12.17544],[-73.68849,-12.17776],[-73.6897,-12.18766],[-73.68937,-12.19307],[-73.69407,-12.20477],[-73.69462,-12.21296],[-73.70144,-12.23015],[-73.70126,-12.23775],[-73.7054,-12.24186],[-73.70655,-12.24931],[-73.70481,-12.25609],[-73.69839,-12.26337],[-73.69718,-12.26775],[-73.69808,-12.26956],[-73.7001,-12.27361],[-73.69986,-12.27752],[-73.69103,-12.29111],[-73.68941,-12.29876],[-73.68418,-12.30361],[-73.68212,-12.30502],[-73.68175,-12.30736],[-73.67797,-12.31012],[-73.67607,-12.31404],[-73.67068,-12.31703],[-73.66971,-12.31877],[-73.66691,-12.32038],[-73.66469,-12.32186],[-73.65985,-12.32918],[-73.6613,-12.33353],[-73.65927,-12.34292],[-73.65772,-12.3469],[-73.65851,-12.34867],[-73.65702,-12.35211],[-73.66022,-12.35698],[-73.65905,-12.35939],[-73.65179,-12.36016],[-73.65069,-12.3642],[-73.64643,-12.36672],[-73.64483,-12.37209],[-73.6427,-12.37309],[-73.64004,-12.3722],[-73.6393,-12.37268],[-73.63672,-12.37884],[-73.6338,-12.37844],[-73.63011,-12.37478],[-73.6262,-12.3745],[-73.61988,-12.3757],[-73.61695,-12.37568],[-73.6075,-12.38005],[-73.60529,-12.38378],[-73.60266,-12.3853],[-73.59827,-12.3837],[-73.58989,-12.37464],[-73.58749,-12.36712],[-73.59006,-12.3609],[-73.58726,-12.35213],[-73.58745,-12.34418],[-73.58772,-12.34004],[-73.58768,-12.33125],[-73.58481,-12.32147],[-73.58469,-12.31232],[-73.58309,-12.30508],[-73.57771,-12.29036],[-73.57643,-12.28377],[-73.57452,-12.27659],[-73.5642,-12.27583],[-73.558,-12.27365],[-73.55676,-12.27237],[-73.55627,-12.26805],[-73.55442,-12.26533],[-73.54732,-12.26097],[-73.5338,-12.25888],[-73.5286,-12.25307],[-73.52085,-12.24917],[-73.51441,-12.24949],[-73.50894,-12.25181],[-73.50599,-12.25307],[-73.50193,-12.25256],[-73.50013,-12.25307],[-73.49254,-12.24995],[-73.49104,-12.24944],[-73.4852,-12.24562],[-73.47222,-12.23851],[-73.46867,-12.23638],[-73.45544,-12.23545],[-73.44837,-12.23675],[-73.43639,-12.23437],[-73.4297,-12.23555],[-73.42403,-12.22914],[-73.42145,-12.22091],[-73.41559,-12.21829],[-73.4054,-12.21565],[-73.39563,-12.21397],[-73.39253,-12.21215],[-73.39285,-12.20909],[-73.39688,-12.205],[-73.39624,-12.19981],[-73.3983,-12.18935],[-73.39778,-12.18631],[-73.38917,-12.17463],[-73.37822,-12.17368],[-73.36788,-12.16733],[-73.36637,-12.16589],[-73.36086,-12.16497],[-73.3596,-12.1627],[-73.35828,-12.16108],[-73.35514,-12.15993],[-73.35338,-12.16021],[-73.34908,-12.15882],[-73.3393,-12.15795],[-73.33653,-12.15621],[-73.33199,-12.15559],[-73.32628,-12.15692],[-73.32505,-12.15474],[-73.32336,-12.15449],[-73.32107,-12.15251],[-73.31336,-12.15005],[-73.31203,-12.14938],[-73.31095,-12.148],[-73.30641,-12.14697],[-73.30392,-12.14737],[-73.30488,-12.13992],[-73.30672,-12.13659],[-73.31073,-12.1334],[-73.31313,-12.1287],[-73.31563,-12.12669],[-73.31898,-12.12355],[-73.32151,-12.12038],[-73.32214,-12.11645],[-73.32667,-12.10434],[-73.33257,-12.10076],[-73.33356,-12.09711],[-73.33599,-12.09683],[-73.33816,-12.09743],[-73.33993,-12.09554],[-73.33859,-12.07845],[-73.33647,-12.06897],[-73.33425,-12.06409],[-73.32888,-12.05879],[-73.32726,-12.05587],[-73.32671,-12.05481],[-73.32981,-12.05052],[-73.32943,-12.04908],[-73.32292,-12.04363],[-73.31572,-12.03924],[-73.31374,-12.03739],[-73.31413,-12.03469],[-73.31653,-12.02993],[-73.31235,-12.02077],[-73.3133,-12.01753],[-73.31518,-12.01655],[-73.31829,-12.01657],[-73.32257,-12.01899],[-73.32691,-12.023],[-73.32737,-12.0253],[-73.33235,-12.02803],[-73.33647,-12.02838],[-73.34304,-12.02855],[-73.34568,-12.02822],[-73.35128,-12.02826],[-73.35467,-12.02716],[-73.35604,-12.02618],[-73.36046,-12.02525],[-73.36394,-12.0246],[-73.36828,-12.02024],[-73.36973,-12.01464],[-73.36765,-12.00342],[-73.36623,-11.99814],[-73.36722,-11.99637],[-73.36345,-11.98328],[-73.36103,-11.97962],[-73.35982,-11.97172],[-73.35788,-11.96183],[-73.35353,-11.95538],[-73.35138,-11.94778],[-73.34626,-11.94368],[-73.34589,-11.94256],[-73.33812,-11.94227],[-73.33801,-11.94017],[-73.34003,-11.93771],[-73.34056,-11.93377],[-73.34333,-11.93057],[-73.34985,-11.92067],[-73.35124,-11.91821],[-73.35375,-11.91872],[-73.35649,-11.91769],[-73.35862,-11.91644],[-73.36019,-11.91731],[-73.36152,-11.91569],[-73.36345,-11.91567],[-73.36438,-11.91379],[-73.36661,-11.91215],[-73.36692,-11.91055],[-73.36951,-11.91013],[-73.3707,-11.91052],[-73.37139,-11.90944],[-73.37314,-11.90856],[-73.37621,-11.90705],[-73.37804,-11.91022],[-73.38047,-11.90981],[-73.38084,-11.90892],[-73.38323,-11.90988],[-73.3851,-11.91182],[-73.38811,-11.91323],[-73.3907,-11.92117],[-73.39886,-11.91967],[-73.41127,-11.91527],[-73.41707,-11.9153],[-73.42098,-11.91563],[-73.42115,-11.91255],[-73.41901,-11.90497],[-73.41765,-11.89509],[-73.41708,-11.88536],[-73.4208,-11.87898],[-73.42317,-11.87467],[-73.42355,-11.86859],[-73.42604,-11.86591],[-73.42936,-11.86613],[-73.43313,-11.86711],[-73.43933,-11.86426],[-73.44254,-11.86107],[-73.44469,-11.85671],[-73.44741,-11.85408],[-73.45609,-11.8506],[-73.45699,-11.84896],[-73.46026,-11.8471],[-73.46079,-11.84525],[-73.46471,-11.84375],[-73.47239,-11.84308],[-73.47605,-11.84086],[-73.47993,-11.83549],[-73.48201,-11.83569],[-73.48616,-11.83719],[-73.48618,-11.83405],[-73.4854,-11.82842],[-73.4831,-11.82505],[-73.48076,-11.8191],[-73.47842,-11.81821],[-73.47408,-11.81235],[-73.47429,-11.80922],[-73.47447,-11.80516],[-73.47368,-11.80286],[-73.47412,-11.80081],[-73.47407,-11.79466],[-73.47002,-11.78827],[-73.46834,-11.78497],[-73.46797,-11.78387],[-73.47824,-11.78406],[-73.47922,-11.78174],[-73.48123,-11.77936],[-73.4813,-11.77567],[-73.48098,-11.77121],[-73.48173,-11.76833],[-73.48876,-11.7632],[-73.48941,-11.76075],[-73.49232,-11.76101],[-73.497,-11.76043],[-73.49982,-11.76036],[-73.50012,-11.75787],[-73.50374,-11.75435],[-73.50663,-11.75223],[-73.50858,-11.7461],[-73.5092,-11.74255],[-73.51474,-11.73786],[-73.5162,-11.73444],[-73.51825,-11.73173],[-73.51852,-11.72558],[-73.52275,-11.72052],[-73.52372,-11.71804],[-73.52649,-11.7164],[-73.53691,-11.71823],[-73.54052,-11.71778],[-73.54148,-11.71672],[-73.5391,-11.71222],[-73.53908,-11.70959],[-73.54279,-11.7077],[-73.54623,-11.70604],[-73.54594,-11.69867],[-73.54361,-11.69274],[-73.54136,-11.68233],[-73.53949,-11.68101],[-73.53804,-11.67909],[-73.53604,-11.67812],[-73.53467,-11.67417],[-73.53259,-11.67248],[-73.53264,-11.66595],[-73.53576,-11.66238],[-73.53776,-11.66096],[-73.54201,-11.65563],[-73.5461,-11.64984],[-73.54624,-11.64686],[-73.54898,-11.64573],[-73.55496,-11.63829],[-73.55561,-11.63045],[-73.55581,-11.62753],[-73.55297,-11.62357],[-73.55147,-11.62111],[-73.55371,-11.621],[-73.55547,-11.62137],[-73.56532,-11.61807],[-73.56812,-11.61503],[-73.57676,-11.61035],[-73.57836,-11.60695],[-73.57898,-11.60312],[-73.58035,-11.60037],[-73.58006,-11.59644],[-73.58049,-11.59323],[-73.58088,-11.58926],[-73.58192,-11.58598],[-73.58322,-11.58462],[-73.58306,-11.57988],[-73.57894,-11.57193],[-73.57989,-11.56905],[-73.5833,-11.56625],[-73.58818,-11.56655],[-73.59121,-11.56798],[-73.60275,-11.57015],[-73.6054,-11.5681],[-73.60828,-11.56779],[-73.61202,-11.56644],[-73.61587,-11.56435],[-73.61772,-11.55508],[-73.61895,-11.55251],[-73.61865,-11.54993],[-73.62078,-11.54725],[-73.62015,-11.54356],[-73.62053,-11.53626],[-73.61904,-11.53217],[-73.6172,-11.52895],[-73.61697,-11.5239],[-73.61612,-11.52208],[-73.62505,-11.50695],[-73.62762,-11.50362],[-73.62717,-11.49838],[-73.6281,-11.49587],[-73.62796,-11.49387],[-73.62977,-11.49188],[-73.63136,-11.4896],[-73.63467,-11.48776],[-73.63626,-11.48496],[-73.63957,-11.48313],[-73.63947,-11.48638],[-73.64096,-11.48868],[-73.64314,-11.4885],[-73.64897,-11.48604],[-73.65577,-11.48524],[-73.65656,-11.4838],[-73.65398,-11.4805],[-73.64899,-11.47854],[-73.65037,-11.47315],[-73.65533,-11.46087],[-73.65611,-11.45754],[-73.65869,-11.45692],[-73.66057,-11.45667],[-73.66101,-11.45285],[-73.65867,-11.44919],[-73.65426,-11.44546],[-73.65393,-11.44456],[-73.65075,-11.44329],[-73.65039,-11.44243],[-73.65631,-11.44257],[-73.65785,-11.44254],[-73.65993,-11.44262],[-73.66495,-11.43749],[-73.66735,-11.43592],[-73.67298,-11.43604],[-73.67555,-11.43644],[-73.68102,-11.43665],[-73.68902,-11.43335],[-73.69131,-11.4293],[-73.69133,-11.42651],[-73.69435,-11.42435],[-73.69491,-11.42205],[-73.69698,-11.42003],[-73.69902,-11.41682],[-73.69768,-11.41475],[-73.69605,-11.41189],[-73.69597,-11.41097],[-73.7034,-11.41465],[-73.70635,-11.4119],[-73.71076,-11.40978],[-73.71208,-11.40912],[-73.71261,-11.41232],[-73.71653,-11.41584],[-73.71738,-11.41745],[-73.72028,-11.4198],[-73.72298,-11.42454],[-73.72631,-11.42581],[-73.72849,-11.42719],[-73.72933,-11.42779],[-73.73097,-11.42756],[-73.73114,-11.43025],[-73.73442,-11.43039],[-73.73725,-11.43333],[-73.74036,-11.43419],[-73.74055,-11.43585],[-73.74352,-11.43606],[-73.74579,-11.43685],[-73.74764,-11.43895],[-73.75039,-11.43969],[-73.75178,-11.43794],[-73.75518,-11.43789],[-73.76313,-11.43308],[-73.76337,-11.42912],[-73.76632,-11.42699],[-73.76772,-11.42605],[-73.77124,-11.42516],[-73.77496,-11.4189],[-73.77485,-11.4168],[-73.77704,-11.41556],[-73.77941,-11.41311],[-73.78162,-11.40969],[-73.78169,-11.40427],[-73.78826,-11.40005],[-73.79117,-11.39923],[-73.79446,-11.39577],[-73.79872,-11.39202],[-73.80211,-11.39299],[-73.80799,-11.39284],[-73.81219,-11.38854],[-73.81694,-11.38462],[-73.81993,-11.37925],[-73.82436,-11.37861],[-73.8274,-11.37491],[-73.82975,-11.37196],[-73.83054,-11.3719],[-73.83101,-11.3737],[-73.83184,-11.37956],[-73.83316,-11.38154],[-73.83406,-11.38484],[-73.83256,-11.38845],[-73.82999,-11.39418],[-73.82816,-11.39537],[-73.82601,-11.39978],[-73.82649,-11.40133],[-73.82743,-11.40192],[-73.82993,-11.39844],[-73.83155,-11.39664],[-73.83501,-11.39695],[-73.83701,-11.39559],[-73.83956,-11.39625],[-73.84208,-11.40045],[-73.8501,-11.40281],[-73.85598,-11.39799],[-73.86029,-11.39699],[-73.86672,-11.39504],[-73.87036,-11.39524],[-73.8742,-11.38867],[-73.8772,-11.38529],[-73.87852,-11.38372],[-73.87836,-11.38031],[-73.88081,-11.38181],[-73.88353,-11.37926],[-73.88549,-11.36922],[-73.88823,-11.36546],[-73.88965,-11.36104],[-73.89118,-11.35488],[-73.89069,-11.35359],[-73.89413,-11.34976],[-73.89597,-11.3467],[-73.89839,-11.34824],[-73.90319,-11.34819],[-73.90584,-11.34534],[-73.90721,-11.34607],[-73.90985,-11.34822],[-73.92131,-11.34821],[-73.92325,-11.34654],[-73.92664,-11.34661],[-73.92738,-11.34494],[-73.92606,-11.34045],[-73.93218,-11.34167],[-73.93938,-11.34355],[-73.94163,-11.34128],[-73.94305,-11.3383],[-73.95244,-11.33714],[-73.95579,-11.33602],[-73.95891,-11.33619],[-73.96071,-11.33433],[-73.9617,-11.33269],[-73.96268,-11.33382],[-73.9661,-11.32935],[-73.96846,-11.32995],[-73.9699,-11.33212],[-73.97173,-11.33248],[-73.97331,-11.32979],[-73.9745,-11.32118],[-73.97232,-11.31539],[-73.97435,-11.31109],[-73.97547,-11.30468],[-73.97655,-11.30606],[-73.97751,-11.30923],[-73.98398,-11.31242],[-73.99094,-11.31436],[-73.99228,-11.31353],[-73.99482,-11.31479],[-73.9987,-11.31612],[-74.00104,-11.31748],[-74.00257,-11.31733],[-74.00542,-11.31825],[-74.01018,-11.31993],[-74.01295,-11.32116],[-74.0223,-11.31652],[-74.03657,-11.31079],[-74.03961,-11.31014],[-74.04344,-11.30989],[-74.04701,-11.30639],[-74.05018,-11.3051],[-74.05756,-11.30721],[-74.06862,-11.31258],[-74.07044,-11.31295],[-74.07204,-11.31558],[-74.07252,-11.3299],[-74.07025,-11.33849],[-74.07257,-11.34034],[-74.07925,-11.34028],[-74.0855,-11.34616],[-74.08606,-11.34954],[-74.09109,-11.35446],[-74.09059,-11.35759]]]}]},"id":"0032000000000000083e","properties":{"DESIG":"Parque Nacional","IUCN_CAT":"II","NAME":"Otishi","STATUS":"Designated"}},{"type":"Feature","geometry":{"type":"GeometryCollection","geometries":[{"type":"LineString","coordinates":[[-73.83147,-12.27863],[-73.83196,-12.27882]]},{"type":"LineString","coordinates":[[-73.62263,-12.5044],[-73.62317,-12.50476]]},{"type":"Polygon","coordinates":[[[-74.11804,-11.34158],[-74.12317,-11.34829],[-74.12179,-11.35135],[-74.11559,-11.35584],[-74.11379,-11.35792],[-74.11285,-11.36425],[-74.11055,-11.36842],[-74.10759,-11.37225],[-74.10738,-11.37568],[-74.10902,-11.37707],[-74.10566,-11.38219],[-74.10567,-11.38375],[-74.10138,-11.38619],[-74.0969,-11.39223],[-74.09569,-11.3998],[-74.09606,-11.40463],[-74.09507,-11.40816],[-74.08283,-11.40877],[-74.07697,-11.41],[-74.0749,-11.40971],[-74.06829,-11.415],[-74.06582,-11.4178],[-74.06129,-11.42082],[-74.0553,-11.42118],[-74.05501,-11.42194],[-74.04634,-11.42746],[-74.04373,-11.43348],[-74.03265,-11.44233],[-74.03136,-11.44538],[-74.03001,-11.44633],[-74.0226,-11.4773],[-74.023,-11.48136],[-74.02238,-11.48408],[-74.02401,-11.48536],[-74.02953,-11.48677],[-74.03049,-11.48852],[-74.02151,-11.49434],[-74.01804,-11.50315],[-74.02061,-11.51802],[-74.01956,-11.52084],[-73.98313,-11.58003],[-73.97405,-11.61733],[-73.9686,-11.61257],[-73.96813,-11.61062],[-73.96518,-11.60946],[-73.94599,-11.60575],[-73.94001,-11.60913],[-73.93844,-11.60461],[-73.93448,-11.60004],[-73.92605,-11.6033],[-73.90703,-11.60079],[-73.89425,-11.62553],[-73.90112,-11.64402],[-73.90332,-11.64567],[-73.90594,-11.65094],[-73.90907,-11.65329],[-73.90901,-11.65535],[-73.90966,-11.66484],[-73.90498,-11.66546],[-73.89938,-11.67055],[-73.89822,-11.67569],[-73.89701,-11.67721],[-73.89762,-11.68109],[-73.89601,-11.68322],[-73.89602,-11.68985],[-73.89579,-11.69169],[-73.89818,-11.69354],[-73.89723,-11.69632],[-73.89986,-11.69825],[-73.90145,-11.70523],[-73.90267,-11.70689],[-73.89646,-11.71056],[-73.89364,-11.71332],[-73.8867,-11.71798],[-73.88414,-11.72001],[-73.8797,-11.72229],[-73.87738,-11.72481],[-73.87447,-11.72741],[-73.87465,-11.73414],[-73.87213,-11.73821],[-73.87127,-11.73987],[-73.87345,-11.74862],[-73.87475,-11.75624],[-73.79501,-11.76946],[-73.78255,-11.78951],[-73.7752,-11.85434],[-73.76936,-11.85359],[-73.76729,-11.85334],[-73.7548,-11.85759],[-73.75088,-11.85763],[-73.74966,-11.85851],[-73.73755,-11.86075],[-73.71327,-11.8617],[-73.68899,-11.8639],[-73.68118,-11.8647],[-73.67143,-11.86719],[-73.67025,-11.86845],[-73.67035,-11.87073],[-73.67429,-11.87395],[-73.67629,-11.88017],[-73.68656,-11.88395],[-73.6906,-11.88535],[-73.6937,-11.88688],[-73.6949,-11.90808],[-73.69467,-11.91302],[-73.69699,-11.91744],[-73.6954,-11.92148],[-73.69402,-11.92143],[-73.69179,-11.93153],[-73.69662,-11.93576],[-73.69655,-11.93997],[-73.69793,-11.94194],[-73.70111,-11.93839],[-73.70194,-11.93611],[-73.70692,-11.93554],[-73.7095,-11.93313],[-73.71439,-11.93271],[-73.71969,-11.9315],[-73.72247,-11.93214],[-73.72524,-11.93054],[-73.72974,-11.9308],[-73.73412,-11.93015],[-73.73698,-11.93274],[-73.74147,-11.93219],[-73.74323,-11.9349],[-73.74732,-11.93249],[-73.74941,-11.93505],[-73.75771,-11.93652],[-73.76578,-11.94037],[-73.76508,-11.94246],[-73.76341,-11.9511],[-73.76472,-11.95905],[-73.76235,-11.96841],[-73.75944,-11.97836],[-73.75614,-11.98243],[-73.75301,-11.98263],[-73.74755,-11.98898],[-73.74277,-12.00611],[-73.74644,-12.00894],[-73.74967,-12.00808],[-73.75316,-12.00979],[-73.75927,-12.0111],[-73.76299,-12.0127],[-73.76502,-12.01433],[-73.76973,-12.01088],[-73.77191,-12.00577],[-73.77763,-12.00019],[-73.78312,-11.99358],[-73.78943,-11.98637],[-73.79403,-11.98035],[-73.79487,-11.97727],[-73.84727,-12.04214],[-73.84509,-12.04746],[-73.83936,-12.05424],[-73.82917,-12.05955],[-73.82739,-12.06353],[-73.82302,-12.0678],[-73.8227,-12.08221],[-73.82599,-12.08352],[-73.82782,-12.0856],[-73.82907,-12.09023],[-73.82519,-12.09087],[-73.81195,-12.10204],[-73.80647,-12.10836],[-73.80296,-12.11157],[-73.80085,-12.11653],[-73.79953,-12.11832],[-73.80041,-12.12011],[-73.80391,-12.12256],[-73.80979,-12.12356],[-73.81283,-12.12656],[-73.81457,-12.12954],[-73.81969,-12.13382],[-73.82139,-12.13408],[-73.82347,-12.1383],[-73.82411,-12.14206],[-73.82981,-12.14631],[-73.83048,-12.15268],[-73.82994,-12.15516],[-73.83156,-12.15744],[-73.83182,-12.15945],[-73.83994,-12.16683],[-73.84075,-12.16831],[-73.83666,-12.17283],[-73.83339,-12.1755],[-73.83064,-12.18082],[-73.8256,-12.18468],[-73.8177,-12.18879],[-73.81327,-12.19424],[-73.80457,-12.20272],[-73.79605,-12.20853],[-73.79452,-12.21053],[-73.79451,-12.21321],[-73.79585,-12.21639],[-73.80484,-12.2201],[-73.80967,-12.22253],[-73.81579,-12.22492],[-73.82127,-12.22616],[-73.8233,-12.22533],[-73.82626,-12.22677],[-73.83163,-12.22747],[-73.83872,-12.23489],[-73.84094,-12.23689],[-73.84333,-12.23936],[-73.83837,-12.24498],[-73.83189,-12.2498],[-73.82607,-12.25846],[-73.82471,-12.25979],[-73.82419,-12.26213],[-73.82145,-12.26562],[-73.82144,-12.26796],[-73.82313,-12.27014],[-73.82945,-12.27431],[-73.83147,-12.27863],[-73.82862,-12.27875],[-73.82513,-12.28033],[-73.82361,-12.2793],[-73.82137,-12.28135],[-73.81915,-12.27959],[-73.81621,-12.27983],[-73.81401,-12.27813],[-73.8104,-12.27764],[-73.81051,-12.27907],[-73.81112,-12.28149],[-73.80788,-12.28615],[-73.80048,-12.28895],[-73.79136,-12.29702],[-73.78567,-12.3021],[-73.7838,-12.30489],[-73.7786,-12.30883],[-73.77634,-12.30967],[-73.7682,-12.31807],[-73.7673,-12.32054],[-73.76397,-12.32264],[-73.75789,-12.32769],[-73.75064,-12.33129],[-73.74747,-12.33317],[-73.74407,-12.338],[-73.73953,-12.33964],[-73.73568,-12.33933],[-73.73021,-12.33989],[-73.72553,-12.34129],[-73.72242,-12.34164],[-73.71702,-12.3435],[-73.7115,-12.3487],[-73.70889,-12.35126],[-73.70967,-12.35239],[-73.71542,-12.35138],[-73.71728,-12.35227],[-73.71976,-12.35953],[-73.7258,-12.37024],[-73.72506,-12.37339],[-73.72328,-12.3767],[-73.72571,-12.38456],[-73.72461,-12.38757],[-73.72111,-12.38842],[-73.71875,-12.38983],[-73.71635,-12.38997],[-73.71218,-12.39193],[-73.7046,-12.39501],[-73.70264,-12.39672],[-73.69688,-12.39745],[-73.69441,-12.39828],[-73.68845,-12.39602],[-73.6857,-12.39797],[-73.6812,-12.40244],[-73.67809,-12.41145],[-73.68112,-12.41761],[-73.68147,-12.41949],[-73.68221,-12.42022],[-73.67964,-12.42138],[-73.67826,-12.42123],[-73.67438,-12.42205],[-73.67331,-12.4235],[-73.66669,-12.42706],[-73.66188,-12.42916],[-73.65736,-12.42932],[-73.65206,-12.43207],[-73.64901,-12.43394],[-73.64649,-12.43495],[-73.64493,-12.435],[-73.64174,-12.43971],[-73.63586,-12.44537],[-73.63176,-12.44736],[-73.62948,-12.45178],[-73.62881,-12.4532],[-73.62767,-12.45713],[-73.62541,-12.46077],[-73.62106,-12.46916],[-73.61778,-12.4754],[-73.61551,-12.48279],[-73.6171,-12.48565],[-73.61951,-12.48715],[-73.61945,-12.49392],[-73.62202,-12.4967],[-73.62057,-12.499],[-73.62202,-12.50379],[-73.62263,-12.5044],[-73.61369,-12.50634],[-73.60618,-12.50933],[-73.60442,-12.50055],[-73.60419,-12.49504],[-73.60214,-12.48934],[-73.59316,-12.4771],[-73.58915,-12.4743],[-73.57851,-12.47326],[-73.57278,-12.46825],[-73.56833,-12.46116],[-73.56311,-12.45674],[-73.5619,-12.45195],[-73.56149,-12.44217],[-73.56067,-12.43977],[-73.56587,-12.43522],[-73.56975,-12.43223],[-73.57659,-12.42824],[-73.58112,-12.42624],[-73.58265,-12.42314],[-73.58204,-12.41858],[-73.58329,-12.41035],[-73.58153,-12.40614],[-73.58539,-12.40118],[-73.59579,-12.39509],[-73.60209,-12.39169],[-73.60362,-12.38808],[-73.60266,-12.3853],[-73.6063,-12.38268],[-73.60787,-12.3795],[-73.61826,-12.37538],[-73.62289,-12.37558],[-73.62782,-12.37445],[-73.63113,-12.37539],[-73.63426,-12.37876],[-73.63672,-12.37884],[-73.6393,-12.37268],[-73.64004,-12.3722],[-73.64332,-12.37316],[-73.64531,-12.37122],[-73.64652,-12.36615],[-73.65069,-12.3642],[-73.65124,-12.36258],[-73.65179,-12.36016],[-73.65905,-12.35939],[-73.66022,-12.35698],[-73.65694,-12.35141],[-73.65851,-12.34867],[-73.65747,-12.34651],[-73.66055,-12.33893],[-73.66127,-12.33254],[-73.66001,-12.32872],[-73.66593,-12.32062],[-73.66764,-12.32033],[-73.66971,-12.31877],[-73.67253,-12.31563],[-73.67676,-12.31319],[-73.6784,-12.30955],[-73.682,-12.30682],[-73.68212,-12.30502],[-73.68881,-12.2998],[-73.69069,-12.29325],[-73.69256,-12.28807],[-73.69675,-12.28178],[-73.70036,-12.27639],[-73.69926,-12.27114],[-73.69739,-12.269],[-73.69733,-12.26556],[-73.70018,-12.26089],[-73.70481,-12.25609],[-73.70655,-12.24931],[-73.7054,-12.24186],[-73.70126,-12.23775],[-73.70105,-12.2283],[-73.69462,-12.21296],[-73.69345,-12.20323],[-73.68912,-12.19141],[-73.68956,-12.18576],[-73.68849,-12.17635],[-73.68886,-12.1746],[-73.68521,-12.16737],[-73.68634,-12.16018],[-73.68737,-12.15556],[-73.68877,-12.14908],[-73.68805,-12.14625],[-73.68492,-12.13835],[-73.68428,-12.13382],[-73.68408,-12.13084],[-73.68261,-12.12473],[-73.68351,-12.11943],[-73.68804,-12.11238],[-73.69316,-12.10928],[-73.69242,-12.09842],[-73.69062,-12.09357],[-73.68868,-12.08418],[-73.68543,-12.07392],[-73.6847,-12.0707],[-73.67609,-12.06434],[-73.67514,-12.06138],[-73.67621,-12.05891],[-73.67356,-12.05263],[-73.67,-12.04888],[-73.66763,-12.04403],[-73.66603,-12.03816],[-73.66583,-12.0355],[-73.66501,-12.03326],[-73.66955,-12.02369],[-73.67275,-12.02122],[-73.67349,-12.01943],[-73.67714,-12.01862],[-73.67832,-12.01572],[-73.68201,-12.01416],[-73.68623,-12.0038],[-73.68617,-11.99756],[-73.68636,-11.99466],[-73.68535,-11.99029],[-73.68762,-11.98765],[-73.686,-11.98398],[-73.684,-11.97907],[-73.68211,-11.97806],[-73.6808,-11.97294],[-73.67808,-11.97121],[-73.67787,-11.9693],[-73.68009,-11.96627],[-73.67917,-11.96272],[-73.67656,-11.95377],[-73.67054,-11.94666],[-73.66708,-11.94476],[-73.66546,-11.94177],[-73.66513,-11.93947],[-73.66408,-11.93809],[-73.65923,-11.93811],[-73.65665,-11.93136],[-73.65289,-11.92575],[-73.65277,-11.92146],[-73.6511,-11.9189],[-73.64925,-11.91119],[-73.65058,-11.90833],[-73.64827,-11.90502],[-73.64566,-11.90186],[-73.64516,-11.89978],[-73.64532,-11.89688],[-73.64325,-11.88894],[-73.64483,-11.87899],[-73.64487,-11.87025],[-73.64535,-11.86122],[-73.64463,-11.85979],[-73.64495,-11.85491],[-73.64365,-11.85233],[-73.64263,-11.85189],[-73.63975,-11.84657],[-73.63902,-11.83288],[-73.63627,-11.82324],[-73.63278,-11.82081],[-73.62513,-11.8127],[-73.62136,-11.80985],[-73.62077,-11.80761],[-73.62671,-11.80094],[-73.63308,-11.79665],[-73.64168,-11.79661],[-73.64543,-11.79486],[-73.64962,-11.79524],[-73.65244,-11.79673],[-73.65551,-11.79645],[-73.65723,-11.79528],[-73.65814,-11.79271],[-73.661,-11.79007],[-73.66116,-11.78911],[-73.6674,-11.77965],[-73.6669,-11.77442],[-73.6659,-11.77087],[-73.67134,-11.77292],[-73.67298,-11.77257],[-73.6741,-11.77406],[-73.67539,-11.7745],[-73.67512,-11.76929],[-73.67683,-11.76601],[-73.68587,-11.76051],[-73.68701,-11.75155],[-73.68939,-11.74958],[-73.69283,-11.75158],[-73.69429,-11.75158],[-73.69777,-11.74747],[-73.70069,-11.74382],[-73.70545,-11.74141],[-73.7069,-11.74177],[-73.71201,-11.73964],[-73.71383,-11.73965],[-73.71641,-11.73284],[-73.7208,-11.72963],[-73.72301,-11.72812],[-73.72427,-11.72606],[-73.72811,-11.72321],[-73.73105,-11.71604],[-73.72997,-11.71021],[-73.73212,-11.70529],[-73.7386,-11.70638],[-73.74002,-11.70442],[-73.73949,-11.70245],[-73.73275,-11.69779],[-73.72479,-11.69439],[-73.72791,-11.69146],[-73.72895,-11.68967],[-73.73307,-11.68836],[-73.73691,-11.68043],[-73.74256,-11.6765],[-73.74845,-11.67731],[-73.75302,-11.68034],[-73.75474,-11.68205],[-73.75657,-11.68296],[-73.75953,-11.68697],[-73.77059,-11.69015],[-73.77814,-11.68826],[-73.78305,-11.68658],[-73.7894,-11.68965],[-73.78825,-11.6808],[-73.78728,-11.67558],[-73.78621,-11.67056],[-73.78778,-11.66555],[-73.78791,-11.65669],[-73.78738,-11.65167],[-73.78877,-11.64729],[-73.79023,-11.64335],[-73.78909,-11.63828],[-73.78785,-11.63684],[-73.78746,-11.63213],[-73.78478,-11.6272],[-73.78512,-11.62348],[-73.788,-11.62426],[-73.79436,-11.6218],[-73.79658,-11.61894],[-73.79963,-11.61649],[-73.79791,-11.61285],[-73.79695,-11.61106],[-73.79535,-11.60484],[-73.79451,-11.59789],[-73.79582,-11.59378],[-73.79964,-11.5915],[-73.80189,-11.59136],[-73.80587,-11.59129],[-73.81052,-11.58978],[-73.82007,-11.58414],[-73.82123,-11.58247],[-73.82626,-11.58201],[-73.83161,-11.57758],[-73.83466,-11.57576],[-73.83739,-11.57565],[-73.83952,-11.57464],[-73.84151,-11.57483],[-73.84479,-11.57449],[-73.8462,-11.5727],[-73.85084,-11.57382],[-73.85271,-11.57618],[-73.8561,-11.57669],[-73.85975,-11.57571],[-73.86188,-11.57721],[-73.86678,-11.57735],[-73.86878,-11.57885],[-73.86991,-11.57885],[-73.87169,-11.57526],[-73.86831,-11.56904],[-73.86733,-11.5662],[-73.86998,-11.56175],[-73.86949,-11.55828],[-73.86875,-11.55618],[-73.86913,-11.55395],[-73.87139,-11.55361],[-73.87215,-11.55284],[-73.87153,-11.55086],[-73.87263,-11.54806],[-73.87472,-11.54591],[-73.87384,-11.53984],[-73.87635,-11.53923],[-73.88205,-11.54084],[-73.88516,-11.53959],[-73.88748,-11.53994],[-73.89006,-11.53746],[-73.88988,-11.536],[-73.89375,-11.53254],[-73.90185,-11.52956],[-73.90654,-11.52944],[-73.90842,-11.52932],[-73.91042,-11.53119],[-73.91512,-11.52889],[-73.91032,-11.52322],[-73.90954,-11.51955],[-73.91105,-11.51745],[-73.91177,-11.51641],[-73.9117,-11.51133],[-73.91267,-11.50783],[-73.91223,-11.50548],[-73.90942,-11.50363],[-73.9097,-11.5011],[-73.91316,-11.50015],[-73.91511,-11.50007],[-73.91644,-11.49981],[-73.91883,-11.50087],[-73.92326,-11.5001],[-73.92582,-11.50877],[-73.9288,-11.51055],[-73.93178,-11.51115],[-73.93482,-11.51562],[-73.93996,-11.51555],[-73.94237,-11.5159],[-73.94312,-11.51487],[-73.94089,-11.50506],[-73.94046,-11.50078],[-73.93888,-11.49198],[-73.93953,-11.47905],[-73.93971,-11.46933],[-73.94345,-11.46654],[-73.94823,-11.4673],[-73.95226,-11.4679],[-73.95853,-11.47353],[-73.95886,-11.47409],[-73.95871,-11.47039],[-73.95731,-11.46436],[-73.95464,-11.45556],[-73.95243,-11.4521],[-73.95196,-11.44911],[-73.9559,-11.45027],[-73.96071,-11.4504],[-73.96611,-11.45168],[-73.97263,-11.45342],[-73.97392,-11.44825],[-73.9782,-11.44509],[-73.97818,-11.44108],[-73.98204,-11.43628],[-73.99107,-11.43416],[-73.99263,-11.43223],[-73.99774,-11.43094],[-73.99863,-11.43501],[-74.00226,-11.43573],[-74.00321,-11.43165],[-74.00674,-11.4292],[-74.0105,-11.41816],[-74.01196,-11.41463],[-74.01273,-11.40651],[-74.01388,-11.40386],[-74.02262,-11.39632],[-74.02694,-11.3931],[-74.02823,-11.38957],[-74.03078,-11.38886],[-74.03213,-11.38443],[-74.04079,-11.38042],[-74.04494,-11.37831],[-74.04625,-11.37834],[-74.04558,-11.37487],[-74.04876,-11.36905],[-74.05229,-11.36343],[-74.05427,-11.35823],[-74.0597,-11.35321],[-74.06991,-11.35175],[-74.0731,-11.3532],[-74.0783,-11.35779],[-74.08335,-11.35612],[-74.08783,-11.35694],[-74.08954,-11.35783],[-74.09059,-11.35759],[-74.09109,-11.35446],[-74.08594,-11.34881],[-74.0855,-11.34616],[-74.07925,-11.34028],[-74.07168,-11.34001],[-74.07025,-11.33849],[-74.07252,-11.3299],[-74.07204,-11.31558],[-74.07044,-11.31295],[-74.06348,-11.31035],[-74.05268,-11.30537],[-74.0482,-11.30548],[-74.04397,-11.30925],[-74.04159,-11.31015],[-74.03705,-11.31057],[-74.02492,-11.31583],[-74.01997,-11.31756],[-74.01295,-11.32116],[-74.00378,-11.31752],[-73.99966,-11.31696],[-73.99543,-11.31479],[-73.99274,-11.31404],[-73.99186,-11.31376],[-73.98911,-11.31422],[-73.98398,-11.31242],[-73.97751,-11.30923],[-73.97655,-11.30606],[-73.97547,-11.30468],[-73.97406,-11.31248],[-73.97232,-11.31539],[-73.97454,-11.32271],[-73.97374,-11.32836],[-73.97173,-11.33248],[-73.96921,-11.33173],[-73.96786,-11.32953],[-73.9661,-11.32935],[-73.96268,-11.33382],[-73.9617,-11.33269],[-73.95941,-11.3359],[-73.95707,-11.33634],[-73.95442,-11.33603],[-73.95032,-11.33751],[-73.94305,-11.3383],[-73.94019,-11.34315],[-73.9366,-11.34294],[-73.93163,-11.34155],[-73.92727,-11.34087],[-73.92606,-11.34045],[-73.92725,-11.34542],[-73.92664,-11.34661],[-73.92325,-11.34654],[-73.92064,-11.34839],[-73.90924,-11.34804],[-73.90644,-11.34522],[-73.90502,-11.3458],[-73.90319,-11.34819],[-73.89772,-11.34804],[-73.89597,-11.3467],[-73.89291,-11.35136],[-73.89069,-11.35359],[-73.89112,-11.35656],[-73.88965,-11.36104],[-73.88695,-11.36773],[-73.885,-11.36999],[-73.88318,-11.38009],[-73.88081,-11.38181],[-73.87836,-11.38031],[-73.8784,-11.38432],[-73.87457,-11.38784],[-73.8731,-11.39094],[-73.87036,-11.39524],[-73.86526,-11.39534],[-73.85689,-11.39793],[-73.85428,-11.39948],[-73.8501,-11.40281],[-73.84208,-11.40045],[-73.83956,-11.39625],[-73.83616,-11.39594],[-73.83379,-11.39701],[-73.83155,-11.39664],[-73.82743,-11.40192],[-73.82613,-11.40074],[-73.82676,-11.39788],[-73.82889,-11.39465],[-73.83109,-11.39245],[-73.83256,-11.38845],[-73.83406,-11.38484],[-73.83244,-11.37999],[-73.83141,-11.37867],[-73.83098,-11.37254],[-73.83054,-11.3719],[-73.82926,-11.37256],[-73.82436,-11.37861],[-73.81993,-11.37925],[-73.81543,-11.38614],[-73.80866,-11.3917],[-73.8069,-11.39319],[-73.79981,-11.3925],[-73.79805,-11.39214],[-73.79373,-11.39631],[-73.79032,-11.39982],[-73.78619,-11.40094],[-73.78139,-11.40487],[-73.7813,-11.41031],[-73.77941,-11.41311],[-73.77527,-11.41657],[-73.77472,-11.41824],[-73.77496,-11.41967],[-73.77063,-11.42576],[-73.7665,-11.42634],[-73.76522,-11.42813],[-73.76337,-11.42912],[-73.76313,-11.43308],[-73.75428,-11.4381],[-73.75178,-11.43794],[-73.75039,-11.43969],[-73.74697,-11.4387],[-73.74579,-11.43685],[-73.74164,-11.43575],[-73.74055,-11.43585],[-73.73987,-11.4336],[-73.73622,-11.43281],[-73.73442,-11.43039],[-73.73114,-11.43025],[-73.73049,-11.42726],[-73.72879,-11.42779],[-73.72704,-11.42581],[-73.72383,-11.42502],[-73.72142,-11.42255],[-73.71974,-11.4189],[-73.71653,-11.41649],[-73.71587,-11.41482],[-73.71207,-11.41169],[-73.71162,-11.40897],[-73.70725,-11.41161],[-73.70445,-11.41341],[-73.70276,-11.41462],[-73.69597,-11.41097],[-73.69719,-11.41427],[-73.69902,-11.41621],[-73.6984,-11.41851],[-73.69559,-11.42175],[-73.69441,-11.42337],[-73.69381,-11.42513],[-73.69133,-11.42651],[-73.69063,-11.43124],[-73.68811,-11.43378],[-73.68102,-11.43665],[-73.67359,-11.43637],[-73.67022,-11.43578],[-73.66735,-11.43592],[-73.6638,-11.4382],[-73.65993,-11.44262],[-73.65631,-11.44257],[-73.65039,-11.44243],[-73.65178,-11.44389],[-73.65393,-11.44456],[-73.65577,-11.4472],[-73.65939,-11.45021],[-73.66125,-11.4544],[-73.66,-11.45714],[-73.6574,-11.45692],[-73.65546,-11.45856],[-73.65428,-11.46351],[-73.649,-11.4779],[-73.64951,-11.47905],[-73.65398,-11.4805],[-73.65656,-11.4838],[-73.65577,-11.48524],[-73.64813,-11.48604],[-73.64198,-11.48902],[-73.64052,-11.48794],[-73.63955,-11.48542],[-73.63957,-11.48313],[-73.63543,-11.48584],[-73.63414,-11.48813],[-73.63015,-11.491],[-73.62893,-11.49324],[-73.62781,-11.49461],[-73.62772,-11.49758],[-73.62749,-11.49937],[-73.62762,-11.50362],[-73.62232,-11.51153],[-73.61612,-11.52208],[-73.61731,-11.52528],[-73.61723,-11.52947],[-73.61986,-11.53347],[-73.62051,-11.54109],[-73.62024,-11.54629],[-73.62078,-11.54725],[-73.61865,-11.54993],[-73.61877,-11.55363],[-73.61772,-11.55508],[-73.61587,-11.56435],[-73.61202,-11.56644],[-73.60598,-11.56813],[-73.6035,-11.56929],[-73.60275,-11.57015],[-73.59047,-11.56745],[-73.58696,-11.56627],[-73.5833,-11.56625],[-73.57935,-11.56998],[-73.57908,-11.57246],[-73.58343,-11.58098],[-73.58322,-11.58462],[-73.58136,-11.58753],[-73.58042,-11.59279],[-73.58058,-11.59602],[-73.58001,-11.59784],[-73.58036,-11.60017],[-73.57384,-11.59529],[-73.56708,-11.58874],[-73.55668,-11.58405],[-73.54983,-11.57057],[-73.54707,-11.56824],[-73.53963,-11.56685],[-73.53729,-11.56386],[-73.53963,-11.55485],[-73.53801,-11.54762],[-73.53471,-11.54317],[-73.53138,-11.54163],[-73.52564,-11.54174],[-73.52246,-11.5388],[-73.51901,-11.53262],[-73.51489,-11.52848],[-73.51286,-11.52529],[-73.51145,-11.52191],[-73.50281,-11.52052],[-73.49571,-11.52657],[-73.49193,-11.52978],[-73.48908,-11.52952],[-73.48009,-11.52062],[-73.47399,-11.51748],[-73.46902,-11.51248],[-73.46408,-11.51013],[-73.4569,-11.50412],[-73.45765,-11.50035],[-73.4607,-11.4966],[-73.46287,-11.49153],[-73.46828,-11.48301],[-73.47494,-11.47899],[-73.47878,-11.47274],[-73.47886,-11.46897],[-73.47807,-11.46577],[-73.47596,-11.46189],[-73.47601,-11.4574],[-73.47312,-11.45313],[-73.47144,-11.45229],[-73.47102,-11.4498],[-73.47446,-11.44779],[-73.47698,-11.45004],[-73.47983,-11.45366],[-73.4834,-11.45501],[-73.48911,-11.45927],[-73.48747,-11.45997],[-73.48645,-11.46652],[-73.49434,-11.47132],[-73.49465,-11.47281],[-73.49865,-11.47316],[-73.49981,-11.47442],[-73.49952,-11.47556],[-73.49699,-11.47542],[-73.49468,-11.47852],[-73.496,-11.479],[-73.50178,-11.48731],[-73.50047,-11.48831],[-73.49962,-11.49039],[-73.49641,-11.49335],[-73.50497,-11.49698],[-73.51151,-11.50068],[-73.51418,-11.5004],[-73.51653,-11.49845],[-73.52362,-11.49706],[-73.5263,-11.4943],[-73.53342,-11.49356],[-73.53197,-11.49767],[-73.5305,-11.50048],[-73.52932,-11.50138],[-73.53143,-11.50758],[-73.53886,-11.51185],[-73.5399,-11.51314],[-73.54292,-11.51132],[-73.54568,-11.50982],[-73.54962,-11.50809],[-73.55308,-11.50571],[-73.55553,-11.50459],[-73.55627,-11.50544],[-73.55819,-11.50433],[-73.56107,-11.50822],[-73.56846,-11.50241],[-73.57658,-11.49994],[-73.58108,-11.49976],[-73.59838,-11.48837],[-73.6021,-11.48681],[-73.60062,-11.48343],[-73.5997,-11.48241],[-73.60709,-11.47869],[-73.61438,-11.47473],[-73.6191,-11.47552],[-73.62135,-11.47705],[-73.63227,-11.46967],[-73.63322,-11.45836],[-73.63464,-11.45324],[-73.63485,-11.45013],[-73.63591,-11.44951],[-73.63291,-11.44233],[-73.63409,-11.44049],[-73.6327,-11.43485],[-73.63355,-11.4317],[-73.63143,-11.42873],[-73.63028,-11.42661],[-73.62874,-11.42246],[-73.62788,-11.41376],[-73.625,-11.40786],[-73.62105,-11.40753],[-73.6242,-11.40617],[-73.62643,-11.40641],[-73.62992,-11.40284],[-73.6341,-11.40395],[-73.63659,-11.40574],[-73.63627,-11.40875],[-73.66189,-11.40531],[-73.66413,-11.40287],[-73.66809,-11.40376],[-73.67061,-11.40177],[-73.69699,-11.39788],[-73.74267,-11.37675],[-73.74349,-11.37444],[-73.74317,-11.37329],[-73.82667,-11.35862],[-73.90832,-11.32574],[-73.91138,-11.32485],[-73.91438,-11.32591],[-73.91788,-11.32499],[-73.92021,-11.32297],[-73.92265,-11.32399],[-73.92737,-11.32122],[-73.93128,-11.32059],[-73.93639,-11.31822],[-73.93948,-11.31893],[-73.94729,-11.31586],[-73.95039,-11.3168],[-73.95934,-11.31129],[-73.96135,-11.30846],[-73.9623,-11.30556],[-73.96337,-11.30421],[-73.96464,-11.29896],[-73.97079,-11.29562],[-73.97285,-11.29532],[-73.97324,-11.29358],[-73.97536,-11.2931],[-73.97562,-11.29177],[-73.979,-11.29049],[-73.98131,-11.29197],[-73.98482,-11.29056],[-73.98933,-11.28836],[-73.99083,-11.28929],[-73.99145,-11.29091],[-73.99727,-11.29019],[-74.00787,-11.28481],[-74.01224,-11.27834],[-74.01158,-11.27056],[-74.04614,-11.25222],[-74.05867,-11.25778],[-74.09566,-11.28902],[-74.09889,-11.2897],[-74.1051,-11.29462],[-74.10832,-11.29586],[-74.11001,-11.29541],[-74.11877,-11.30944],[-74.12585,-11.32167],[-74.12733,-11.32487],[-74.1306,-11.32986],[-74.11804,-11.34158]]]}]},"id":"00320000000000000839","properties":{"DESIG":"Reserva Comunal","IUCN_CAT":"VI","NAME":"Ashaninka","STATUS":"Designated"}},{"type":"Feature","geometry":{"type":"GeometryCollection","geometries":[{"type":"LineString","coordinates":[[-73.38047,-11.90981],[-73.381,-11.91014]]},{"type":"LineString","coordinates":[[-72.92897,-12.17184],[-72.9285,-12.17194]]},{"type":"Polygon","coordinates":[[[-73.58035,-11.60037],[-73.57854,-11.6036],[-73.57829,-11.60766],[-73.57652,-11.61077],[-73.56654,-11.61634],[-73.56459,-11.61848],[-73.5542,-11.62142],[-73.55281,-11.62069],[-73.55147,-11.62111],[-73.55358,-11.62489],[-73.55581,-11.62753],[-73.55561,-11.63045],[-73.55496,-11.63829],[-73.54898,-11.64573],[-73.54624,-11.64686],[-73.54525,-11.65181],[-73.5395,-11.65896],[-73.53776,-11.66096],[-73.53484,-11.6631],[-73.53264,-11.66595],[-73.53259,-11.67248],[-73.53557,-11.67573],[-73.53653,-11.6786],[-73.53931,-11.68017],[-73.54064,-11.68197],[-73.54201,-11.68394],[-73.54414,-11.69508],[-73.54594,-11.69867],[-73.54623,-11.70604],[-73.54202,-11.70785],[-73.53883,-11.71018],[-73.53945,-11.71376],[-73.54148,-11.71672],[-73.53931,-11.71801],[-73.5326,-11.71785],[-73.52649,-11.7164],[-73.52372,-11.71804],[-73.52154,-11.72229],[-73.51804,-11.72641],[-73.51825,-11.73173],[-73.51365,-11.73891],[-73.5092,-11.74255],[-73.50663,-11.75223],[-73.50012,-11.75787],[-73.49982,-11.76036],[-73.4931,-11.76049],[-73.4913,-11.7611],[-73.48941,-11.76075],[-73.48876,-11.7632],[-73.48173,-11.76833],[-73.48077,-11.77423],[-73.48153,-11.77835],[-73.48039,-11.78089],[-73.47902,-11.78227],[-73.47824,-11.78406],[-73.46797,-11.78387],[-73.46878,-11.78684],[-73.47085,-11.7889],[-73.47407,-11.79466],[-73.47392,-11.80221],[-73.47399,-11.80445],[-73.4747,-11.80801],[-73.47392,-11.81189],[-73.47577,-11.81503],[-73.47932,-11.8187],[-73.48145,-11.8197],[-73.48376,-11.82681],[-73.48564,-11.82932],[-73.48618,-11.83405],[-73.48616,-11.83719],[-73.48058,-11.83517],[-73.47697,-11.83952],[-73.47377,-11.84251],[-73.4677,-11.84376],[-73.46197,-11.84438],[-73.46079,-11.84525],[-73.46026,-11.8471],[-73.45699,-11.84896],[-73.45457,-11.85164],[-73.44741,-11.85408],[-73.44407,-11.85753],[-73.44168,-11.86254],[-73.43535,-11.86642],[-73.43248,-11.86704],[-73.42702,-11.86573],[-73.42434,-11.86713],[-73.42334,-11.87103],[-73.42317,-11.87467],[-73.4208,-11.87898],[-73.41708,-11.88536],[-73.41855,-11.90266],[-73.42039,-11.91023],[-73.4213,-11.91455],[-73.42098,-11.91563],[-73.41127,-11.91527],[-73.40766,-11.91648],[-73.39337,-11.92103],[-73.3907,-11.92117],[-73.38772,-11.91277],[-73.38408,-11.91138],[-73.38222,-11.90909],[-73.38035,-11.90932],[-73.38047,-11.90981],[-73.37804,-11.91022],[-73.37563,-11.90689],[-73.37086,-11.91006],[-73.36993,-11.91049],[-73.36837,-11.9102],[-73.36659,-11.91107],[-73.3659,-11.91321],[-73.36369,-11.91454],[-73.36275,-11.91598],[-73.36102,-11.91596],[-73.36019,-11.91731],[-73.35776,-11.91644],[-73.35624,-11.91812],[-73.35262,-11.91871],[-73.35124,-11.91821],[-73.34985,-11.92067],[-73.34182,-11.93242],[-73.34043,-11.93475],[-73.34003,-11.93771],[-73.33801,-11.94017],[-73.33812,-11.94227],[-73.34589,-11.94256],[-73.34776,-11.94504],[-73.35138,-11.94778],[-73.35353,-11.95538],[-73.35825,-11.9627],[-73.36103,-11.97962],[-73.36392,-11.98452],[-73.36722,-11.99637],[-73.36623,-11.99814],[-73.36798,-12.00525],[-73.3684,-12.009],[-73.36973,-12.01464],[-73.36828,-12.02024],[-73.36394,-12.0246],[-73.35604,-12.02618],[-73.35076,-12.02859],[-73.34349,-12.02829],[-73.34001,-12.0287],[-73.33235,-12.02803],[-73.32714,-12.02478],[-73.32647,-12.02233],[-73.31922,-12.0167],[-73.31674,-12.01614],[-73.31374,-12.01685],[-73.31236,-12.01991],[-73.31296,-12.02212],[-73.31653,-12.02993],[-73.31369,-12.03573],[-73.31411,-12.03776],[-73.31802,-12.04097],[-73.32531,-12.04515],[-73.32972,-12.04947],[-73.32882,-12.05224],[-73.32671,-12.05481],[-73.32726,-12.05587],[-73.33047,-12.06083],[-73.33509,-12.06528],[-73.33647,-12.06897],[-73.33761,-12.07439],[-73.33922,-12.08358],[-73.33993,-12.09554],[-73.33816,-12.09743],[-73.33435,-12.09676],[-73.3327,-12.09866],[-73.33257,-12.10076],[-73.32868,-12.1031],[-73.32612,-12.10481],[-73.32214,-12.11645],[-73.32108,-12.12109],[-73.31898,-12.12355],[-73.31313,-12.1287],[-73.31,-12.13411],[-73.30604,-12.13784],[-73.30462,-12.14171],[-73.30392,-12.14737],[-73.30756,-12.14691],[-73.31191,-12.14867],[-73.31257,-12.14962],[-73.31783,-12.15156],[-73.32312,-12.15371],[-73.32384,-12.15479],[-73.32556,-12.15525],[-73.32628,-12.15692],[-73.33398,-12.15566],[-73.33653,-12.15621],[-73.33997,-12.1582],[-73.35217,-12.15955],[-73.35441,-12.1601],[-73.35611,-12.16005],[-73.35828,-12.16108],[-73.3608,-12.16401],[-73.36086,-12.16497],[-73.36383,-12.16535],[-73.36734,-12.16638],[-73.37011,-12.1692],[-73.37249,-12.17044],[-73.37944,-12.17398],[-73.38962,-12.17496],[-73.39591,-12.18361],[-73.39822,-12.18789],[-73.39799,-12.19188],[-73.39618,-12.20234],[-73.39688,-12.205],[-73.39481,-12.20712],[-73.39244,-12.20957],[-73.39294,-12.2127],[-73.39968,-12.21501],[-73.41266,-12.21721],[-73.42021,-12.2203],[-73.42206,-12.22213],[-73.42464,-12.23036],[-73.4297,-12.23555],[-73.43738,-12.2345],[-73.44837,-12.23675],[-73.45766,-12.23547],[-73.46867,-12.23638],[-73.47715,-12.24134],[-73.48584,-12.24586],[-73.49106,-12.24948],[-73.49164,-12.25204],[-73.4891,-12.25905],[-73.48607,-12.26377],[-73.47856,-12.26556],[-73.47092,-12.26674],[-73.46496,-12.27128],[-73.459,-12.27878],[-73.45725,-12.27966],[-73.45333,-12.28007],[-73.45019,-12.282],[-73.44992,-12.28388],[-73.44869,-12.28525],[-73.44514,-12.28679],[-73.44221,-12.2893],[-73.43369,-12.29399],[-73.42274,-12.29083],[-73.415,-12.29223],[-73.40505,-12.298],[-73.39365,-12.30064],[-73.39012,-12.29959],[-73.38826,-12.29973],[-73.38756,-12.30145],[-73.38805,-12.31296],[-73.38585,-12.31622],[-73.37918,-12.31988],[-73.37161,-12.32865],[-73.36707,-12.33197],[-73.36476,-12.33495],[-73.35702,-12.3376],[-73.35388,-12.33967],[-73.35143,-12.34681],[-73.3521,-12.35425],[-73.35138,-12.36012],[-73.35466,-12.3689],[-73.35793,-12.37067],[-73.35832,-12.3719],[-73.35946,-12.37212],[-73.35433,-12.37404],[-73.34971,-12.37184],[-73.34647,-12.37005],[-73.33948,-12.37247],[-73.33864,-12.37248],[-73.33286,-12.37895],[-73.32569,-12.39053],[-73.32035,-12.39399],[-73.31623,-12.39047],[-73.31225,-12.36604],[-73.30935,-12.35789],[-73.30883,-12.34627],[-73.29794,-12.33389],[-73.29818,-12.33108],[-73.29905,-12.32852],[-73.29815,-12.32266],[-73.29754,-12.31919],[-73.29865,-12.31404],[-73.29713,-12.30916],[-73.28884,-12.3031],[-73.2793,-12.29656],[-73.27633,-12.29061],[-73.27013,-12.28663],[-73.26826,-12.28919],[-73.26573,-12.28936],[-73.25937,-12.28563],[-73.25372,-12.2855],[-73.25002,-12.28531],[-73.24436,-12.28375],[-73.23687,-12.27523],[-73.23499,-12.27488],[-73.23322,-12.27543],[-73.22791,-12.27319],[-73.22304,-12.2706],[-73.22103,-12.27076],[-73.21911,-12.274],[-73.21819,-12.27942],[-73.21616,-12.28263],[-73.21248,-12.28697],[-73.21002,-12.28761],[-73.19903,-12.28486],[-73.19153,-12.28589],[-73.18502,-12.29928],[-73.18466,-12.30462],[-73.18146,-12.31147],[-73.17888,-12.31404],[-73.17706,-12.31446],[-73.1687,-12.30692],[-73.16322,-12.30579],[-73.15359,-12.3056],[-73.14614,-12.30386],[-73.14129,-12.30066],[-73.13239,-12.29791],[-73.12491,-12.29918],[-73.12068,-12.29832],[-73.1106,-12.29337],[-73.10898,-12.29012],[-73.10993,-12.28275],[-73.10609,-12.27879],[-73.09929,-12.27537],[-73.09175,-12.2757],[-73.08773,-12.27409],[-73.07832,-12.26531],[-73.07693,-12.26373],[-73.06913,-12.26421],[-73.06444,-12.26183],[-73.05606,-12.25445],[-73.0524,-12.25148],[-73.04132,-12.24824],[-73.03526,-12.24171],[-73.03369,-12.23927],[-73.01761,-12.24042],[-73.00872,-12.23893],[-73.00316,-12.23518],[-72.99989,-12.23172],[-72.99177,-12.22945],[-72.98211,-12.23117],[-72.97224,-12.22183],[-72.95395,-12.21621],[-72.94815,-12.21659],[-72.94334,-12.22071],[-72.94234,-12.2194],[-72.94385,-12.21769],[-72.941,-12.21683],[-72.94218,-12.21406],[-72.94252,-12.21309],[-72.94387,-12.21309],[-72.9446,-12.20828],[-72.94203,-12.20585],[-72.94384,-12.20438],[-72.94297,-12.20238],[-72.94465,-12.20127],[-72.94618,-12.20131],[-72.95223,-12.1975],[-72.95307,-12.19291],[-72.95129,-12.19035],[-72.95046,-12.18666],[-72.95026,-12.1826],[-72.94988,-12.18114],[-72.95118,-12.1801],[-72.94926,-12.17804],[-72.94766,-12.17693],[-72.94762,-12.17583],[-72.94575,-12.17449],[-72.94488,-12.1709],[-72.94103,-12.16941],[-72.92897,-12.17184],[-72.92877,-12.16994],[-72.92753,-12.16911],[-72.92916,-12.16768],[-72.92845,-12.16221],[-72.92678,-12.16114],[-72.92475,-12.15974],[-72.92519,-12.15842],[-72.92352,-12.15745],[-72.92199,-12.15572],[-72.92105,-12.14926],[-72.92186,-12.14847],[-72.92742,-12.14888],[-72.93257,-12.14537],[-72.93291,-12.14469],[-72.98827,-12.14305],[-72.99049,-12.14462],[-72.99229,-12.14471],[-72.99243,-12.14409],[-72.99305,-12.14372],[-72.99567,-12.14488],[-72.9969,-12.14432],[-72.99923,-12.14489],[-73.00123,-12.14539],[-73.00334,-12.14645],[-73.00495,-12.14815],[-73.00796,-12.1497],[-73.01059,-12.14962],[-73.0127,-12.15064],[-73.01603,-12.15634],[-73.01864,-12.15595],[-73.02,-12.15419],[-73.02324,-12.15416],[-73.02371,-12.15268],[-73.02629,-12.15308],[-73.02859,-12.15012],[-73.02596,-12.14694],[-73.0273,-12.14454],[-73.02907,-12.14409],[-73.02939,-12.14138],[-73.03097,-12.13861],[-73.03026,-12.13918],[-73.03018,-12.13822],[-73.03388,-12.13535],[-73.03613,-12.13623],[-73.03657,-12.13339],[-73.03691,-12.13072],[-73.03872,-12.12833],[-73.03776,-12.12338],[-73.04074,-12.1237],[-73.04133,-12.12117],[-73.0406,-12.11864],[-73.04719,-12.12096],[-73.04725,-12.12142],[-73.04422,-12.12161],[-73.04399,-12.12326],[-73.04582,-12.124],[-73.04698,-12.12415],[-73.04585,-12.12806],[-73.0461,-12.13221],[-73.04325,-12.13485],[-73.04013,-12.13925],[-73.03773,-12.14195],[-73.03684,-12.14925],[-73.03892,-12.14891],[-73.20466,-12.02443],[-73.21166,-12.02991],[-73.21535,-12.0293],[-73.21708,-12.02686],[-73.21979,-12.02625],[-73.22467,-12.02576],[-73.22708,-12.0274],[-73.23279,-12.02536],[-73.23504,-12.02463],[-73.23713,-12.02705],[-73.23959,-12.0262],[-73.24209,-12.02633],[-73.24855,-12.02438],[-73.25241,-12.02084],[-73.2553,-12.01937],[-73.25605,-11.92044],[-73.378,-11.8203],[-73.37554,-11.76188],[-73.32168,-11.60682],[-73.3804,-11.49442],[-73.37915,-11.49268],[-73.37465,-11.49117],[-73.37106,-11.48977],[-73.36489,-11.48771],[-73.36129,-11.48427],[-73.36118,-11.48174],[-73.35851,-11.47911],[-73.35705,-11.47634],[-73.33242,-11.4514],[-73.33142,-11.44997],[-73.33247,-11.44905],[-73.33234,-11.4485],[-73.33508,-11.44913],[-73.33552,-11.44821],[-73.33661,-11.4482],[-73.33745,-11.44602],[-73.33846,-11.44805],[-73.33968,-11.44789],[-73.34031,-11.44946],[-73.34217,-11.4486],[-73.34488,-11.44849],[-73.34576,-11.4494],[-73.34687,-11.44896],[-73.3485,-11.44882],[-73.34922,-11.44808],[-73.34976,-11.44559],[-73.35217,-11.44554],[-73.35231,-11.44386],[-73.35334,-11.44361],[-73.35261,-11.4418],[-73.35487,-11.4415],[-73.35484,-11.44051],[-73.35611,-11.44005],[-73.35765,-11.43828],[-73.36114,-11.43621],[-73.36501,-11.4321],[-73.36549,-11.43186],[-73.36588,-11.41266],[-73.35396,-11.40722],[-73.35306,-11.40515],[-73.34615,-11.40591],[-73.34655,-11.40265],[-73.34469,-11.40047],[-73.34489,-11.39707],[-73.34237,-11.39594],[-73.3461,-11.39013],[-73.34273,-11.39028],[-73.33973,-11.39194],[-73.33562,-11.38814],[-73.33722,-11.38594],[-73.3358,-11.38416],[-73.33745,-11.37816],[-73.33342,-11.37469],[-73.33194,-11.37425],[-73.33065,-11.37493],[-73.3306,-11.37127],[-73.32755,-11.3718],[-73.31902,-11.37394],[-73.31591,-11.37268],[-73.31442,-11.36997],[-73.31167,-11.36991],[-73.30633,-11.36665],[-73.30043,-11.36836],[-73.29723,-11.36961],[-73.29053,-11.36895],[-73.28612,-11.36891],[-73.28161,-11.36592],[-73.27994,-11.36811],[-73.27893,-11.37181],[-73.27723,-11.37216],[-73.27659,-11.37048],[-73.27591,-11.36819],[-73.27195,-11.36699],[-73.26792,-11.36835],[-73.26694,-11.36669],[-73.26749,-11.36482],[-73.26941,-11.36136],[-73.26943,-11.36005],[-73.2707,-11.35643],[-73.27252,-11.355],[-73.27656,-11.34841],[-73.27936,-11.34607],[-73.27471,-11.33508],[-73.2746,-11.32717],[-73.27551,-11.3251],[-73.27697,-11.32384],[-73.27769,-11.32604],[-73.28088,-11.32466],[-73.28404,-11.32317],[-73.28638,-11.32271],[-73.28747,-11.32214],[-73.29097,-11.32278],[-73.29145,-11.32388],[-73.29454,-11.32337],[-73.29597,-11.32465],[-73.29882,-11.32345],[-73.2992,-11.32385],[-73.30192,-11.30733],[-73.30956,-11.30976],[-73.31292,-11.30843],[-73.31448,-11.30629],[-73.31557,-11.30639],[-73.3175,-11.30895],[-73.32212,-11.3105],[-73.33292,-11.31101],[-73.34103,-11.31423],[-73.34864,-11.31741],[-73.34972,-11.31867],[-73.35152,-11.3293],[-73.35619,-11.33676],[-73.36063,-11.34001],[-73.36471,-11.3403],[-73.36827,-11.34565],[-73.37434,-11.34694],[-73.37958,-11.35207],[-73.38092,-11.35602],[-73.3817,-11.36275],[-73.38551,-11.3698],[-73.39084,-11.37502],[-73.40064,-11.37588],[-73.40354,-11.37707],[-73.40799,-11.38556],[-73.41198,-11.38656],[-73.41424,-11.38738],[-73.41694,-11.38504],[-73.41869,-11.3845],[-73.41949,-11.38561],[-73.42288,-11.3881],[-73.42496,-11.39403],[-73.4287,-11.39715],[-73.4307,-11.4009],[-73.43158,-11.40069],[-73.43517,-11.40254],[-73.43969,-11.40637],[-73.44271,-11.40828],[-73.44558,-11.41435],[-73.44615,-11.4157],[-73.44538,-11.41898],[-73.44657,-11.42133],[-73.44906,-11.42258],[-73.45338,-11.42686],[-73.45499,-11.43111],[-73.45335,-11.43289],[-73.45563,-11.43934],[-73.45918,-11.44154],[-73.46699,-11.44391],[-73.46952,-11.44608],[-73.46945,-11.44883],[-73.47101,-11.45043],[-73.47144,-11.45229],[-73.47312,-11.45313],[-73.47637,-11.45813],[-73.47596,-11.46189],[-73.47826,-11.46669],[-73.47915,-11.47089],[-73.47762,-11.47447],[-73.47494,-11.47899],[-73.46828,-11.48301],[-73.46132,-11.49433],[-73.45917,-11.49887],[-73.45703,-11.50202],[-73.4569,-11.50412],[-73.46493,-11.51079],[-73.47013,-11.51316],[-73.47399,-11.51748],[-73.48106,-11.52164],[-73.48999,-11.53],[-73.49333,-11.52901],[-73.50229,-11.52068],[-73.50589,-11.52099],[-73.51145,-11.52191],[-73.51489,-11.52848],[-73.5202,-11.53405],[-73.5227,-11.53928],[-73.52564,-11.54174],[-73.53323,-11.54199],[-73.53718,-11.54598],[-73.53951,-11.55296],[-73.53903,-11.55665],[-73.53729,-11.56386],[-73.53963,-11.56685],[-73.54707,-11.56824],[-73.54983,-11.57057],[-73.55668,-11.58405],[-73.56854,-11.58987],[-73.57865,-11.59933],[-73.58035,-11.60037]],[[-73.46983,-11.55751],[-73.46354,-11.56041],[-73.46244,-11.56431],[-73.4608,-11.56438],[-73.46001,-11.5655],[-73.45868,-11.56558],[-73.45446,-11.56679],[-73.45176,-11.56907],[-73.44984,-11.57472],[-73.44545,-11.57983],[-73.4435,-11.58124],[-73.44312,-11.58526],[-73.44168,-11.58885],[-73.44001,-11.59369],[-73.43831,-11.6016],[-73.43915,-11.60629],[-73.43799,-11.61276],[-73.43734,-11.62247],[-73.42895,-11.62913],[-73.42675,-11.63271],[-73.42247,-11.64276],[-73.41895,-11.64752],[-73.41559,-11.65313],[-73.40919,-11.65866],[-73.40578,-11.66039],[-73.40066,-11.66689],[-73.39557,-11.67092],[-73.39161,-11.67109],[-73.3893,-11.66932],[-73.38695,-11.66957],[-73.38438,-11.66822],[-73.38168,-11.66624],[-73.38218,-11.66524],[-73.38385,-11.65804],[-73.38021,-11.65113],[-73.38091,-11.64946],[-73.3827,-11.64258],[-73.38403,-11.63437],[-73.38682,-11.62252],[-73.38808,-11.61819],[-73.38968,-11.61554],[-73.38711,-11.6072],[-73.38873,-11.6034],[-73.38894,-11.60142],[-73.38572,-11.5994],[-73.38353,-11.59993],[-73.38094,-11.60066],[-73.37635,-11.59658],[-73.3784,-11.5966],[-73.38245,-11.5957],[-73.38912,-11.58878],[-73.39271,-11.58843],[-73.3956,-11.58601],[-73.39572,-11.58297],[-73.39774,-11.57835],[-73.40378,-11.57668],[-73.41186,-11.56901],[-73.41429,-11.56835],[-73.41728,-11.56495],[-73.42044,-11.56232],[-73.42148,-11.56012],[-73.42573,-11.55586],[-73.42857,-11.55185],[-73.43343,-11.54894],[-73.44076,-11.54662],[-73.44515,-11.5471],[-73.4482,-11.54639],[-73.45037,-11.54649],[-73.45318,-11.54591],[-73.45622,-11.5448],[-73.46102,-11.54355],[-73.46942,-11.54686],[-73.4725,-11.55091],[-73.47179,-11.55626],[-73.46983,-11.55751]]]}]},"id":"0032000000000000083d","properties":{"DESIG":"Reserva Comunal","IUCN_CAT":"VI","NAME":"Machiguenga","STATUS":"Designated"}},{"type":"Feature","geometry":{"type":"Polygon","coordinates":[[[-76.26309,-10.9213],[-76.25437,-10.9296],[-76.25062,-10.93574],[-76.25041,-10.93832],[-76.24795,-10.94068],[-76.24641,-10.94502],[-76.24664,-10.95304],[-76.24286,-10.95695],[-76.23841,-10.95909],[-76.2346,-10.96183],[-76.22476,-10.97585],[-76.20974,-11.00007],[-76.20703,-11.00402],[-76.19577,-11.01938],[-76.19138,-11.03212],[-76.1859,-11.03953],[-76.18374,-11.04166],[-76.17973,-11.04573],[-76.17367,-11.04835],[-76.1711,-11.04767],[-76.16854,-11.04969],[-76.16652,-11.05352],[-76.16223,-11.05512],[-76.15772,-11.05706],[-76.15634,-11.05976],[-76.15436,-11.0619],[-76.1524,-11.06851],[-76.14791,-11.08206],[-76.1454,-11.0886],[-76.14312,-11.09056],[-76.12633,-11.09818],[-76.11896,-11.10592],[-76.11702,-11.10704],[-76.11614,-11.11004],[-76.11249,-11.11319],[-76.10625,-11.11564],[-76.1014,-11.12075],[-76.09717,-11.12511],[-76.09455,-11.12976],[-76.09367,-11.13343],[-76.08699,-11.13735],[-76.07407,-11.14549],[-76.05287,-11.15248],[-76.04764,-11.15593],[-76.04288,-11.16602],[-76.03713,-11.16756],[-76.02762,-11.16853],[-76.02365,-11.16768],[-76.02243,-11.16818],[-75.99241,-11.13529],[-75.99596,-11.10206],[-76.00042,-11.09933],[-76.00487,-11.05566],[-76.00095,-11.0469],[-76.00181,-11.04209],[-76.04418,-10.98077],[-76.04468,-10.94918],[-76.04903,-10.94278],[-76.05546,-10.94354],[-76.05947,-10.942],[-76.065,-10.93848],[-76.06908,-10.93707],[-76.07403,-10.93194],[-76.07539,-10.92571],[-76.07493,-10.92471],[-76.07581,-10.92243],[-76.07462,-10.91672],[-76.07328,-10.91544],[-76.07392,-10.91407],[-76.08503,-10.90528],[-76.14839,-10.85517],[-76.15367,-10.84995],[-76.18745,-10.86507],[-76.23056,-10.90038],[-76.26309,-10.9213]]]},"id":"00320000000000000ef7","properties":{"DESIG":"Reserva Nacional","IUCN_CAT":"VI","NAME":"Junín","STATUS":"Designated"}},{"type":"Feature","geometry":{"type":"Polygon","coordinates":[[[-76.08804,-12.03054],[-76.0873,-12.0321],[-76.08217,-12.03697],[-76.08062,-12.03931],[-76.08006,-12.04282],[-76.07588,-12.04603],[-76.07605,-12.05114],[-76.07664,-12.05381],[-76.07537,-12.06374],[-76.07446,-12.06523],[-76.07123,-12.06423],[-76.06877,-12.06507],[-76.06663,-12.06631],[-76.06643,-12.07007],[-76.06417,-12.07261],[-76.06263,-12.08411],[-76.06128,-12.08669],[-76.06302,-12.09251],[-76.06647,-12.09896],[-76.06632,-12.10145],[-76.0691,-12.10365],[-76.07176,-12.1079],[-76.07265,-12.10893],[-76.06941,-12.11296],[-76.06327,-12.12359],[-76.05571,-12.13225],[-76.04968,-12.13326],[-76.04677,-12.13088],[-76.04453,-12.13126],[-76.04189,-12.13455],[-76.03913,-12.13914],[-76.03849,-12.14692],[-76.04011,-12.14761],[-76.04037,-12.15161],[-76.04138,-12.15251],[-76.03914,-12.15928],[-76.03802,-12.16165],[-76.03757,-12.16317],[-76.0354,-12.16449],[-76.03318,-12.16482],[-76.02968,-12.16869],[-76.0309,-12.17297],[-76.033,-12.17647],[-76.0317,-12.18004],[-76.03213,-12.18303],[-76.03192,-12.18729],[-76.03429,-12.1966],[-76.03514,-12.20091],[-76.03573,-12.20387],[-76.04084,-12.20395],[-76.04396,-12.20657],[-76.04523,-12.20767],[-76.043,-12.2103],[-76.04286,-12.21259],[-76.04339,-12.21539],[-76.04299,-12.21633],[-76.0437,-12.21868],[-76.04106,-12.22154],[-76.04348,-12.22534],[-76.04266,-12.22978],[-76.03885,-12.23223],[-76.03465,-12.2328],[-76.03382,-12.23465],[-76.03364,-12.23828],[-76.02909,-12.24367],[-76.02684,-12.24821],[-76.02567,-12.24837],[-76.02226,-12.24636],[-76.01743,-12.24383],[-76.01144,-12.24795],[-76.00948,-12.25012],[-76.00069,-12.25245],[-75.99792,-12.25258],[-75.99079,-12.25665],[-75.98686,-12.26044],[-75.98573,-12.26204],[-75.98411,-12.26471],[-75.98021,-12.2616],[-75.9704,-12.25773],[-75.96569,-12.25855],[-75.96144,-12.25915],[-75.95833,-12.26118],[-75.95218,-12.26761],[-75.948,-12.2727],[-75.94762,-12.27714],[-75.94975,-12.28144],[-75.94938,-12.28314],[-75.94737,-12.28411],[-75.94554,-12.28497],[-75.94549,-12.28784],[-75.94367,-12.29232],[-75.94434,-12.29775],[-75.94408,-12.30126],[-75.94536,-12.30723],[-75.94279,-12.31198],[-75.94272,-12.31574],[-75.94198,-12.31905],[-75.94317,-12.32125],[-75.94389,-12.32287],[-75.94876,-12.32477],[-75.94983,-12.33302],[-75.9475,-12.33543],[-75.9401,-12.33785],[-75.9362,-12.33951],[-75.93089,-12.33724],[-75.92883,-12.33767],[-75.92623,-12.33592],[-75.92217,-12.33609],[-75.91918,-12.3343],[-75.91131,-12.33376],[-75.91047,-12.33477],[-75.90777,-12.33597],[-75.90404,-12.34021],[-75.90321,-12.34296],[-75.89996,-12.34545],[-75.90034,-12.34986],[-75.89867,-12.3517],[-75.89541,-12.35327],[-75.88943,-12.35348],[-75.88794,-12.35541],[-75.88813,-12.35752],[-75.8791,-12.36342],[-75.87694,-12.36489],[-75.87605,-12.36812],[-75.87386,-12.37142],[-75.86753,-12.37614],[-75.86557,-12.37679],[-75.86444,-12.38109],[-75.85938,-12.38757],[-75.85688,-12.38775],[-75.85329,-12.38729],[-75.85039,-12.39149],[-75.85008,-12.39341],[-75.84555,-12.39672],[-75.84279,-12.39667],[-75.83639,-12.39357],[-75.8331,-12.39293],[-75.82388,-12.38838],[-75.82238,-12.3865],[-75.81849,-12.38517],[-75.8167,-12.38564],[-75.8128,-12.38119],[-75.80628,-12.37938],[-75.80208,-12.37436],[-75.80078,-12.37481],[-75.80109,-12.37717],[-75.79475,-12.38535],[-75.79515,-12.38797],[-75.79305,-12.38759],[-75.78845,-12.39307],[-75.78544,-12.39384],[-75.78204,-12.3982],[-75.7777,-12.40889],[-75.77736,-12.41047],[-75.77095,-12.41174],[-75.76913,-12.4117],[-75.76644,-12.41429],[-75.76649,-12.4154],[-75.76187,-12.4184],[-75.76156,-12.41956],[-75.757,-12.42121],[-75.75564,-12.42224],[-75.75493,-12.42594],[-75.75271,-12.42732],[-75.75239,-12.43095],[-75.74934,-12.43485],[-75.74562,-12.43668],[-75.74248,-12.44159],[-75.74258,-12.44378],[-75.7419,-12.44581],[-75.7431,-12.44887],[-75.74168,-12.44902],[-75.73298,-12.44375],[-75.73242,-12.43926],[-75.7278,-12.43727],[-75.72567,-12.43852],[-75.72283,-12.44111],[-75.71689,-12.43823],[-75.71418,-12.4398],[-75.71291,-12.44095],[-75.71038,-12.44194],[-75.70479,-12.44912],[-75.7038,-12.4517],[-75.70226,-12.45139],[-75.70175,-12.44979],[-75.6998,-12.4494],[-75.69579,-12.45364],[-75.69336,-12.45969],[-75.69273,-12.46116],[-75.69201,-12.46102],[-75.69069,-12.45867],[-75.68534,-12.45762],[-75.68817,-12.45094],[-75.68467,-12.44499],[-75.68462,-12.44404],[-75.68077,-12.44264],[-75.67584,-12.44096],[-75.67254,-12.44377],[-75.66905,-12.44445],[-75.66783,-12.44414],[-75.66583,-12.44121],[-75.66978,-12.43164],[-75.66773,-12.42906],[-75.6668,-12.42715],[-75.6661,-12.42016],[-75.66426,-12.42146],[-75.66163,-12.42104],[-75.65817,-12.41951],[-75.65494,-12.41579],[-75.64754,-12.41671],[-75.64696,-12.41538],[-75.647,-12.41212],[-75.64592,-12.41064],[-75.64553,-12.40902],[-75.64353,-12.40782],[-75.64522,-12.3994],[-75.64385,-12.39778],[-75.64205,-12.39682],[-75.64058,-12.39477],[-75.63624,-12.39382],[-75.63389,-12.38871],[-75.63651,-12.38473],[-75.64074,-12.38127],[-75.64034,-12.3785],[-75.64219,-12.3761],[-75.64477,-12.37433],[-75.64942,-12.36877],[-75.65224,-12.36699],[-75.65471,-12.36243],[-75.65968,-12.36415],[-75.66143,-12.36347],[-75.66274,-12.3607],[-75.66575,-12.36035],[-75.66658,-12.35939],[-75.67006,-12.35865],[-75.6763,-12.35339],[-75.68234,-12.35399],[-75.68531,-12.35652],[-75.68518,-12.36116],[-75.68534,-12.36624],[-75.68622,-12.36772],[-75.68603,-12.36906],[-75.68471,-12.37021],[-75.68531,-12.3748],[-75.68697,-12.37733],[-75.68873,-12.37771],[-75.69296,-12.37718],[-75.69686,-12.37889],[-75.69952,-12.37453],[-75.70244,-12.37313],[-75.70169,-12.36744],[-75.70242,-12.36452],[-75.70528,-12.36241],[-75.70566,-12.35977],[-75.70375,-12.35576],[-75.70482,-12.35284],[-75.70734,-12.34871],[-75.70977,-12.34622],[-75.70888,-12.34254],[-75.71228,-12.33995],[-75.71651,-12.33917],[-75.71806,-12.33563],[-75.71893,-12.33366],[-75.72291,-12.32843],[-75.72677,-12.32497],[-75.72618,-12.32201],[-75.72875,-12.31841],[-75.73063,-12.31717],[-75.73073,-12.31539],[-75.72903,-12.31406],[-75.72834,-12.31066],[-75.73178,-12.30502],[-75.7303,-12.30307],[-75.73131,-12.30051],[-75.73067,-12.29499],[-75.73192,-12.29293],[-75.73013,-12.28257],[-75.72791,-12.27979],[-75.72801,-12.27455],[-75.72426,-12.27033],[-75.72788,-12.26787],[-75.73155,-12.26391],[-75.73058,-12.25962],[-75.73498,-12.2527],[-75.73694,-12.24706],[-75.7371,-12.24372],[-75.73981,-12.23943],[-75.73776,-12.23553],[-75.73621,-12.2289],[-75.73457,-12.22779],[-75.73042,-12.2224],[-75.72457,-12.21779],[-75.72219,-12.21707],[-75.72077,-12.21446],[-75.71951,-12.20939],[-75.71712,-12.20756],[-75.71446,-12.20678],[-75.71287,-12.20456],[-75.71648,-12.19998],[-75.71874,-12.19853],[-75.72065,-12.19367],[-75.7228,-12.19284],[-75.72524,-12.19227],[-75.73055,-12.18847],[-75.73722,-12.18104],[-75.73817,-12.17708],[-75.74066,-12.17507],[-75.73883,-12.16995],[-75.73841,-12.16254],[-75.73833,-12.15374],[-75.7357,-12.14499],[-75.73438,-12.14004],[-75.73126,-12.13699],[-75.72973,-12.13643],[-75.72695,-12.13438],[-75.72621,-12.13154],[-75.72597,-12.12892],[-75.72422,-12.12792],[-75.72353,-12.12463],[-75.72267,-12.11996],[-75.72305,-12.11478],[-75.72078,-12.11311],[-75.71919,-12.10976],[-75.71295,-12.10683],[-75.71068,-12.10623],[-75.70795,-12.09972],[-75.70822,-12.09498],[-75.7128,-12.09218],[-75.71533,-12.09409],[-75.71818,-12.09387],[-75.72159,-12.08711],[-75.72269,-12.08431],[-75.72347,-12.08051],[-75.72462,-12.07755],[-75.73296,-12.07675],[-75.73556,-12.07581],[-75.73583,-12.06854],[-75.73451,-12.06586],[-75.73517,-12.05696],[-75.7321,-12.05367],[-75.72957,-12.05439],[-75.72762,-12.05344],[-75.72441,-12.04842],[-75.72159,-12.04583],[-75.72055,-12.04578],[-75.72231,-12.04246],[-75.71777,-12.03699],[-75.71666,-12.03229],[-75.71947,-12.03144],[-75.72032,-12.02903],[-75.72344,-12.0283],[-75.73158,-12.02713],[-75.73505,-12.02345],[-75.73919,-12.01452],[-75.73545,-12.00772],[-75.73096,-12.00443],[-75.71859,-11.99985],[-75.71355,-11.99182],[-75.70672,-11.98246],[-75.70204,-11.97772],[-75.69852,-11.97637],[-75.69716,-11.97343],[-75.69623,-11.96771],[-75.69414,-11.96211],[-75.6933,-11.95922],[-75.69363,-11.9559],[-75.6922,-11.95335],[-75.69105,-11.9485],[-75.68823,-11.94767],[-75.68706,-11.94466],[-75.68608,-11.94357],[-75.68405,-11.94287],[-75.68068,-11.93877],[-75.6779,-11.93891],[-75.67382,-11.93619],[-75.67019,-11.93707],[-75.66732,-11.93465],[-75.66678,-11.93061],[-75.66671,-11.92604],[-75.66673,-11.92171],[-75.67022,-11.91251],[-75.66709,-11.91042],[-75.66335,-11.91118],[-75.6569,-11.90971],[-75.65209,-11.9057],[-75.65215,-11.90474],[-75.6504,-11.9045],[-75.64781,-11.90408],[-75.64688,-11.90162],[-75.64382,-11.90018],[-75.64155,-11.89994],[-75.64052,-11.89563],[-75.64086,-11.88904],[-75.64115,-11.88301],[-75.64312,-11.88066],[-75.64487,-11.87951],[-75.64659,-11.87987],[-75.65007,-11.87679],[-75.65012,-11.87318],[-75.64908,-11.87125],[-75.65225,-11.86877],[-75.65149,-11.86237],[-75.65521,-11.85455],[-75.65972,-11.8478],[-75.66332,-11.84302],[-75.66509,-11.84133],[-75.66983,-11.82711],[-75.67238,-11.82017],[-75.67297,-11.81469],[-75.67285,-11.81069],[-75.67394,-11.80999],[-75.67216,-11.80638],[-75.66939,-11.80353],[-75.68014,-11.79538],[-75.69157,-11.79369],[-75.69273,-11.79385],[-75.71005,-11.777],[-75.71193,-11.77314],[-75.71866,-11.77155],[-75.72225,-11.76649],[-75.72615,-11.76099],[-75.73568,-11.75506],[-75.7418,-11.75668],[-75.74309,-11.75776],[-75.74296,-11.76083],[-75.74696,-11.7654],[-75.75076,-11.7681],[-75.75186,-11.77101],[-75.75469,-11.77333],[-75.75652,-11.77587],[-75.76012,-11.7753],[-75.76497,-11.77395],[-75.7693,-11.77377],[-75.77446,-11.77602],[-75.7805,-11.77651],[-75.78307,-11.7782],[-75.78894,-11.78537],[-75.79306,-11.78708],[-75.79637,-11.78889],[-75.79949,-11.78941],[-75.80462,-11.79024],[-75.81465,-11.78957],[-75.81836,-11.78785],[-75.81867,-11.78395],[-75.82294,-11.78296],[-75.82375,-11.7797],[-75.82593,-11.77428],[-75.83018,-11.7721],[-75.83296,-11.76888],[-75.83663,-11.76853],[-75.84104,-11.76869],[-75.84454,-11.76735],[-75.86839,-11.77183],[-75.87279,-11.77093],[-75.88094,-11.77182],[-75.88687,-11.77833],[-75.89157,-11.78096],[-75.89337,-11.78414],[-75.89398,-11.7922],[-75.89093,-11.79624],[-75.89258,-11.7994],[-75.89749,-11.80115],[-75.89843,-11.80456],[-75.89666,-11.81187],[-75.90209,-11.82472],[-75.89875,-11.8329],[-75.89591,-11.83803],[-75.8961,-11.84169],[-75.90084,-11.84638],[-75.89975,-11.84976],[-75.89851,-11.85228],[-75.90159,-11.85642],[-75.9047,-11.85916],[-75.90522,-11.86652],[-75.90214,-11.86838],[-75.90261,-11.87296],[-75.90396,-11.87355],[-75.90915,-11.87272],[-75.91356,-11.8734],[-75.91999,-11.87614],[-75.92881,-11.87455],[-75.9322,-11.87322],[-75.9344,-11.87364],[-75.93521,-11.87235],[-75.94335,-11.87163],[-75.9516,-11.87084],[-75.95667,-11.87074],[-75.95619,-11.87453],[-75.96099,-11.87691],[-75.96537,-11.87771],[-75.97151,-11.88152],[-75.97575,-11.88593],[-75.97884,-11.89195],[-75.9836,-11.89379],[-75.98634,-11.89441],[-75.99454,-11.89925],[-75.99973,-11.89863],[-76.00125,-11.89858],[-76.0033,-11.89967],[-76.00993,-11.90002],[-76.01281,-11.90352],[-76.01603,-11.90396],[-76.01956,-11.9014],[-76.02073,-11.89829],[-76.02371,-11.89753],[-76.02506,-11.89875],[-76.02692,-11.90188],[-76.02777,-11.90423],[-76.02911,-11.90654],[-76.03211,-11.90629],[-76.03648,-11.90373],[-76.04313,-11.90288],[-76.04722,-11.90082],[-76.04999,-11.90212],[-76.05111,-11.90612],[-76.05149,-11.90925],[-76.05461,-11.91184],[-76.05788,-11.91211],[-76.05844,-11.91397],[-76.058,-11.91846],[-76.05697,-11.92199],[-76.05713,-11.92501],[-76.05429,-11.92906],[-76.05395,-11.93335],[-76.05526,-11.9349],[-76.05512,-11.9383],[-76.05289,-11.93994],[-76.05272,-11.94803],[-76.04412,-11.95351],[-76.03932,-11.95876],[-76.0384,-11.96415],[-76.03423,-11.96614],[-76.02551,-11.97099],[-76.02327,-11.97119],[-76.02233,-11.97311],[-76.02284,-11.974],[-76.02394,-11.97428],[-76.026,-11.97581],[-76.02932,-11.98283],[-76.02719,-11.98636],[-76.02851,-11.98973],[-76.03195,-11.9949],[-76.03244,-11.99676],[-76.03551,-12.00036],[-76.03593,-12.00417],[-76.03419,-12.00884],[-76.03411,-12.01288],[-76.04038,-12.01432],[-76.04339,-12.01567],[-76.05342,-12.01697],[-76.05412,-12.02042],[-76.05432,-12.02196],[-76.05891,-12.03028],[-76.06246,-12.03223],[-76.07104,-12.03211],[-76.07894,-12.02819],[-76.08704,-12.03019],[-76.08804,-12.03054]]]},"id":"00320000000000000836","properties":{"DESIG":"Reserva Paisajistica","IUCN_CAT":"V","NAME":"Nor Yauyos-Cochas","STATUS":"Designated"}},{"type":"Feature","geometry":{"type":"Polygon","coordinates":[[[-76.00321,-11.23701],[-76.00239,-11.23701],[-75.93855,-11.237],[-75.94049,-11.22934],[-75.9479,-11.22523],[-75.9596,-11.19988],[-75.96388,-11.20005],[-75.97223,-11.19813],[-75.97484,-11.19838],[-75.97956,-11.19779],[-75.9816,-11.1972],[-76.00313,-11.19712],[-76.00321,-11.23701]]]},"id":"00320000000000000f03","properties":{"DESIG":"Santuario Histórico","IUCN_CAT":"III","NAME":"Chacamarca","STATUS":"Designated"}},{"type":"Feature","geometry":{"type":"GeometryCollection","geometries":[{"type":"LineString","coordinates":[[-75.45641,-11.07895],[-75.45582,-11.07926]]},{"type":"Polygon","coordinates":[[[-75.57569,-11.05389],[-75.57064,-11.05632],[-75.56597,-11.0656],[-75.56303,-11.07051],[-75.56185,-11.07335],[-75.55824,-11.07581],[-75.55559,-11.07656],[-75.55466,-11.07623],[-75.55321,-11.07691],[-75.55085,-11.07658],[-75.55065,-11.07798],[-75.5516,-11.0796],[-75.54822,-11.08292],[-75.54788,-11.0842],[-75.54513,-11.08426],[-75.54182,-11.08632],[-75.53967,-11.08937],[-75.53485,-11.08932],[-75.53342,-11.09114],[-75.52942,-11.09202],[-75.52832,-11.09355],[-75.52636,-11.09269],[-75.52495,-11.09118],[-75.52034,-11.09268],[-75.5151,-11.09612],[-75.51267,-11.09563],[-75.51075,-11.09406],[-75.50898,-11.0946],[-75.50725,-11.0965],[-75.50227,-11.09782],[-75.4985,-11.10016],[-75.49617,-11.10134],[-75.49361,-11.10124],[-75.48901,-11.09941],[-75.48471,-11.09803],[-75.4834,-11.09459],[-75.48161,-11.0939],[-75.48035,-11.0903],[-75.4763,-11.08908],[-75.47167,-11.09081],[-75.47055,-11.08832],[-75.46842,-11.0864],[-75.46659,-11.08401],[-75.46618,-11.08124],[-75.463,-11.07866],[-75.46197,-11.07697],[-75.45946,-11.07589],[-75.45823,-11.07847],[-75.45708,-11.07927],[-75.45641,-11.07895],[-75.45755,-11.0752],[-75.44953,-11.06498],[-75.44934,-11.06247],[-75.45067,-11.05861],[-75.45137,-11.04986],[-75.45601,-11.04073],[-75.45704,-11.03237],[-75.45487,-11.03214],[-75.45088,-11.03405],[-75.44625,-11.03227],[-75.4432,-11.0284],[-75.44128,-11.02539],[-75.43904,-11.02452],[-75.43365,-11.02647],[-75.43269,-11.02831],[-75.42775,-11.02836],[-75.42614,-11.02019],[-75.42703,-10.99864],[-75.4206,-10.99677],[-75.42655,-10.98994],[-75.4308,-10.98726],[-75.43763,-10.98573],[-75.45856,-10.99319],[-75.46684,-10.99139],[-75.46905,-10.98741],[-75.47385,-10.98872],[-75.47523,-10.98792],[-75.4808,-10.99004],[-75.48514,-10.98929],[-75.49031,-10.99219],[-75.49834,-10.99221],[-75.50313,-10.99149],[-75.50484,-10.99463],[-75.50476,-10.99649],[-75.50873,-10.9984],[-75.51079,-11.00292],[-75.51373,-11.00272],[-75.5172,-11.00325],[-75.5257,-11.00123],[-75.53713,-11.00802],[-75.53794,-11.00944],[-75.53449,-11.01529],[-75.53166,-11.0181],[-75.52882,-11.01975],[-75.52691,-11.02011],[-75.52415,-11.02444],[-75.52031,-11.02964],[-75.51958,-11.02746],[-75.51809,-11.02661],[-75.51368,-11.03115],[-75.51117,-11.03314],[-75.50704,-11.03351],[-75.51099,-11.03755],[-75.5139,-11.04041],[-75.51496,-11.04313],[-75.51975,-11.04434],[-75.52452,-11.04297],[-75.52577,-11.04425],[-75.52805,-11.05025],[-75.53098,-11.05073],[-75.53332,-11.05072],[-75.53736,-11.05051],[-75.54048,-11.04666],[-75.54687,-11.04776],[-75.55179,-11.05141],[-75.55469,-11.0533],[-75.55749,-11.0527],[-75.55889,-11.0503],[-75.56311,-11.05044],[-75.56365,-11.04572],[-75.56815,-11.04757],[-75.57093,-11.04716],[-75.57521,-11.05038],[-75.57569,-11.05389]]]}]},"id":"00320000000000001041","properties":{"DESIG":"Santuario Nacional","IUCN_CAT":"III","NAME":"Pampa Hermosa","STATUS":"Designated"}},{"type":"Feature","geometry":{"type":"Polygon","coordinates":[[[-75.43267,-11.10653],[-75.43206,-11.1061],[-75.42918,-11.10819],[-75.42491,-11.10536],[-75.42635,-11.10369],[-75.42617,-11.10279],[-75.42393,-11.10453],[-75.42074,-11.10082],[-75.42207,-11.09931],[-75.42054,-11.09765],[-75.42046,-11.09645],[-75.422,-11.09715],[-75.42474,-11.1],[-75.43179,-11.10291],[-75.4338,-11.10509],[-75.43267,-11.10653]]]},"id":"003200000000000006de","properties":{"DESIG":"Área de Conservación Privada","IUCN_CAT":"VI","NAME":"La Niebla Forest","STATUS":"Designated"}},{"type":"Feature","geometry":{"type":"GeometryCollection","geometries":[{"type":"LineString","coordinates":[[-74.66947,-11.4008],[-74.66872,-11.40089]]},{"type":"LineString","coordinates":[[-74.67105,-11.39896],[-74.67105,-11.39944]]},{"type":"Polygon","coordinates":[[[-74.69216,-11.40451],[-74.68717,-11.40358],[-74.68872,-11.40006],[-74.68839,-11.39682],[-74.68772,-11.3973],[-74.68643,-11.4026],[-74.68577,-11.40332],[-74.67888,-11.40202],[-74.672,-11.40268],[-74.66631,-11.40457],[-74.66577,-11.40186],[-74.66803,-11.40124],[-74.67063,-11.40202],[-74.66947,-11.4008],[-74.67368,-11.39796],[-74.67753,-11.3949],[-74.67974,-11.39476],[-74.67767,-11.39424],[-74.67918,-11.39266],[-74.67869,-11.39208],[-74.67105,-11.39896],[-74.67067,-11.39776],[-74.67289,-11.39331],[-74.67272,-11.39234],[-74.66994,-11.39831],[-74.67033,-11.39943],[-74.66563,-11.40121],[-74.66488,-11.3977],[-74.66693,-11.39271],[-74.66625,-11.39263],[-74.66396,-11.39901],[-74.66039,-11.39886],[-74.6604,-11.39405],[-74.66676,-11.39154],[-74.68857,-11.39117],[-74.69003,-11.39718],[-74.69186,-11.39882],[-74.69264,-11.40343],[-74.69216,-11.40451]]]}]},"id":"003200000000000008bc","properties":{"DESIG":"Área de Conservación Privada","IUCN_CAT":"VI","NAME":"Paraje Capiro Llaylla","STATUS":"Designated"}},{"type":"Feature","geometry":{"type":"Polygon","coordinates":[[[-75.24396,-11.94201],[-75.24205,-11.94337],[-75.24133,-11.94313],[-75.24159,-11.94499],[-75.24321,-11.94524],[-75.24389,-11.94798],[-75.24294,-11.94848],[-75.24143,-11.94793],[-75.24001,-11.94576],[-75.2375,-11.94611],[-75.23704,-11.94553],[-75.23705,-11.94774],[-75.23892,-11.94949],[-75.23592,-11.95028],[-75.23618,-11.95269],[-75.22995,-11.95108],[-75.22272,-11.94533],[-75.21469,-11.94203],[-75.22083,-11.93269],[-75.22407,-11.93708],[-75.22779,-11.93878],[-75.2348,-11.93896],[-75.24235,-11.93678],[-75.24362,-11.93771],[-75.24155,-11.9415],[-75.24396,-11.94201]]]},"id":"003200000000000009ed","properties":{"DESIG":"Área de Conservación Privada","IUCN_CAT":"VI","NAME":"Ilish Pichacoto","STATUS":"Designated"}},{"type":"Feature","geometry":{"type":"GeometryCollection","geometries":[{"type":"LineString","coordinates":[[-75.05676,-11.77524],[-75.05713,-11.77478]]},{"type":"Polygon","coordinates":[[[-75.10304,-11.82648],[-75.10305,-11.85559],[-75.0982,-11.8717],[-75.08469,-11.87171],[-75.0847,-11.90788],[-75.07552,-11.90788],[-75.07549,-11.97356],[-75.06425,-11.97175],[-75.05717,-11.9675],[-75.05717,-11.96215],[-75.02487,-11.96243],[-75.02077,-11.96576],[-75.00434,-11.96937],[-75.00246,-11.97077],[-74.99927,-11.97134],[-74.99746,-11.973],[-74.99526,-11.97337],[-74.99166,-11.97568],[-74.9906,-11.97595],[-74.99244,-11.97285],[-74.98992,-11.9644],[-74.986,-11.95541],[-74.984,-11.9511],[-74.98328,-11.94588],[-74.98035,-11.94414],[-74.97883,-11.9427],[-74.97515,-11.94122],[-74.9741,-11.93884],[-74.97717,-11.93637],[-74.97814,-11.93517],[-74.97719,-11.93392],[-74.97478,-11.93345],[-74.97043,-11.92744],[-74.96797,-11.9248],[-74.96801,-11.92],[-74.96721,-11.91718],[-74.96532,-11.91644],[-74.96533,-11.89885],[-74.95615,-11.89884],[-74.95652,-11.87002],[-74.9614,-11.86385],[-74.9656,-11.85934],[-74.9676,-11.85583],[-74.96964,-11.85406],[-74.97026,-11.84915],[-74.96798,-11.84551],[-74.97033,-11.84162],[-74.97169,-11.83884],[-74.9765,-11.83459],[-74.97724,-11.83184],[-74.98189,-11.82662],[-74.98369,-11.8265],[-74.98449,-11.8251],[-74.98897,-11.82063],[-74.9948,-11.81594],[-75.00011,-11.81693],[-75.00366,-11.81961],[-75.01214,-11.82023],[-75.01719,-11.82205],[-75.01786,-11.82366],[-75.02139,-11.82595],[-75.0262,-11.8326],[-75.02737,-11.8342],[-75.02923,-11.83464],[-75.0296,-11.83554],[-75.01124,-11.83555],[-75.01124,-11.84302],[-75.00833,-11.84313],[-75.00943,-11.86548],[-75.03878,-11.84459],[-75.04796,-11.83554],[-75.04796,-11.8265],[-75.03806,-11.8265],[-75.03555,-11.8224],[-75.03646,-11.82008],[-75.03909,-11.81676],[-75.04014,-11.80768],[-75.0392,-11.80476],[-75.04012,-11.80021],[-75.04151,-11.79647],[-75.04202,-11.79219],[-75.04631,-11.78645],[-75.05112,-11.78078],[-75.05579,-11.77607],[-75.05676,-11.77524],[-75.05713,-11.78128],[-75.06631,-11.78128],[-75.06631,-11.79032],[-75.07549,-11.79032],[-75.07549,-11.78054],[-75.08539,-11.78326],[-75.09143,-11.78835],[-75.09701,-11.79163],[-75.09969,-11.79265],[-75.10303,-11.79572],[-75.10303,-11.8084],[-75.11221,-11.8084],[-75.11222,-11.82648],[-75.10304,-11.82648]]]}]},"id":"00320000000000000e8b","properties":{"DESIG":"Área de Conservación Regional","IUCN_CAT":"VI","NAME":"Huaytapallana","STATUS":"Designated"}},{"type":"Feature","geometry":{"type":"Polygon","coordinates":[[[-76.26286,-10.92121],[-76.25913,-10.92488],[-76.25736,-10.92529],[-76.25172,-10.9335],[-76.25032,-10.93502],[-76.25027,-10.93801],[-76.24733,-10.94126],[-76.24597,-10.94476],[-76.24604,-10.95331],[-76.24264,-10.95661],[-76.23635,-10.95986],[-76.23034,-10.96715],[-76.22095,-10.98115],[-76.20984,-10.99957],[-76.20788,-11.00301],[-76.20679,-11.00337],[-76.19977,-11.01371],[-76.19619,-11.01766],[-76.19192,-11.03084],[-76.18652,-11.03829],[-76.18336,-11.04113],[-76.17969,-11.04527],[-76.17286,-11.04784],[-76.17142,-11.04706],[-76.16891,-11.04835],[-76.16649,-11.05317],[-76.16221,-11.05459],[-76.16035,-11.05565],[-76.15816,-11.05588],[-76.15719,-11.05831],[-76.15403,-11.06143],[-76.15347,-11.06515],[-76.14761,-11.08215],[-76.14505,-11.08843],[-76.14245,-11.09064],[-76.13091,-11.09583],[-76.12622,-11.09799],[-76.12041,-11.10488],[-76.11658,-11.10688],[-76.11639,-11.10898],[-76.11333,-11.11246],[-76.10609,-11.11533],[-76.10143,-11.12072],[-76.09789,-11.12376],[-76.09431,-11.12852],[-76.09384,-11.1333],[-76.09147,-11.13551],[-76.08286,-11.13969],[-76.07621,-11.14465],[-76.05495,-11.15149],[-76.04797,-11.1553],[-76.04351,-11.1654],[-76.04272,-11.16637],[-76.03755,-11.16719],[-76.035,-11.16797],[-76.02708,-11.16875],[-76.02332,-11.16778],[-76.02235,-11.16816],[-75.99258,-11.13386],[-75.99654,-11.10231],[-76.00083,-11.09932],[-76.00556,-11.05611],[-76.00082,-11.04485],[-76.04501,-10.9816],[-76.04534,-10.94934],[-76.0488,-10.94441],[-76.05687,-10.9443],[-76.06281,-10.94149],[-76.0695,-10.93795],[-76.07346,-10.93288],[-76.07509,-10.92602],[-76.07437,-10.91715],[-76.07353,-10.91541],[-76.14915,-10.85528],[-76.15327,-10.85078],[-76.18745,-10.86507],[-76.23045,-10.90049],[-76.26286,-10.92121]]]},"id":"00320000000000000739","properties":{"DESIG":"Wetland of International Importance (Ramsar Site)","IUCN_CAT":"Not Reported","NAME":"Reserva Nacional de Junín","STATUS":"Designated"}}]}