{"type":"FeatureCollection","columns":{"ADM0_CODE":"Integer","ADM0_NAME":"String","ADM1_CODE":"Integer","ADM1_NAME":"String","DISP_AREA":"String","EXP1_YEAR":"Integer","STATUS":"String","STR1_YEAR":"Integer","Shape_Area":"Float","Shape_Leng":"Float","system:index":"String"},"version":1701682593235039,"id":"FAO/GAUL/2015/level1","properties":{"system:asset_size":187606160},"features":[{"type":"Feature","geometry":{"type":"Polygon","coordinates":[[[-73.99528,-12.23313],[-73.98652,-12.22714],[-73.98089,-12.22619],[-73.9734,-12.22724],[-73.97098,-12.22592],[-73.96876,-12.21918],[-73.9612,-12.21187],[-73.9593,-12.21227],[-73.95879,-12.2142],[-73.95281,-12.21728],[-73.95018,-12.22039],[-73.94267,-12.22312],[-73.93778,-12.22366],[-73.9271,-12.22707],[-73.92345,-12.23033],[-73.91962,-12.23104],[-73.9162,-12.23379],[-73.91401,-12.23684],[-73.91109,-12.23896],[-73.90696,-12.24507],[-73.90366,-12.25979],[-73.89169,-12.27261],[-73.88554,-12.27793],[-73.87874,-12.28724],[-73.87375,-12.29218],[-73.87099,-12.29285],[-73.86822,-12.29606],[-73.86648,-12.29916],[-73.85683,-12.30657],[-73.8567,-12.30881],[-73.85872,-12.31122],[-73.85867,-12.31393],[-73.85647,-12.31656],[-73.85577,-12.32026],[-73.854,-12.32212],[-73.84853,-12.32399],[-73.84496,-12.3314],[-73.83978,-12.3358],[-73.83696,-12.34257],[-73.83598,-12.34722],[-73.82782,-12.36054],[-73.82612,-12.36524],[-73.82466,-12.36622],[-73.81805,-12.36767],[-73.8133,-12.36611],[-73.8088,-12.36212],[-73.80646,-12.36097],[-73.80424,-12.36104],[-73.802,-12.36235],[-73.79724,-12.36826],[-73.79757,-12.37025],[-73.80147,-12.37656],[-73.80135,-12.38033],[-73.79804,-12.38432],[-73.79208,-12.38727],[-73.78525,-12.38759],[-73.77744,-12.39044],[-73.76941,-12.39739],[-73.76633,-12.40249],[-73.76204,-12.40504],[-73.76045,-12.40684],[-73.75964,-12.41325],[-73.76001,-12.41763],[-73.75758,-12.42167],[-73.75207,-12.42559],[-73.74546,-12.42844],[-73.74358,-12.4271],[-73.74179,-12.4243],[-73.74178,-12.41918],[-73.73891,-12.41399],[-73.73776,-12.40972],[-73.73984,-12.40085],[-73.73893,-12.39517],[-73.73637,-12.39122],[-73.72679,-12.38595],[-73.72537,-12.38414],[-73.72562,-12.37854],[-73.72836,-12.37215],[-73.72742,-12.36775],[-73.72283,-12.36172],[-73.72066,-12.3554],[-73.71795,-12.35291],[-73.71149,-12.35162],[-73.70721,-12.3516],[-73.70218,-12.34596],[-73.69386,-12.34408],[-73.68527,-12.34585],[-73.68082,-12.34556],[-73.67621,-12.34734],[-73.67457,-12.34655],[-73.67244,-12.34379],[-73.66909,-12.34215],[-73.65806,-12.34236],[-73.65732,-12.34458],[-73.6599,-12.34891],[-73.65969,-12.35179],[-73.65543,-12.35663],[-73.6543,-12.36243],[-73.6505,-12.3656],[-73.64898,-12.36578],[-73.64486,-12.36344],[-73.6431,-12.36349],[-73.6404,-12.36609],[-73.63999,-12.36982],[-73.63817,-12.37131],[-73.63434,-12.37142],[-73.62838,-12.37489],[-73.62037,-12.37597],[-73.61087,-12.37988],[-73.6065,-12.38404],[-73.60268,-12.39212],[-73.59806,-12.39575],[-73.59472,-12.39551],[-73.58931,-12.39212],[-73.58717,-12.38815],[-73.58971,-12.3833],[-73.58811,-12.36846],[-73.59102,-12.36168],[-73.58958,-12.34952],[-73.59086,-12.34051],[-73.59042,-12.33253],[-73.58759,-12.31577],[-73.58757,-12.31023],[-73.5907,-12.30348],[-73.59045,-12.29932],[-73.58719,-12.29713],[-73.58188,-12.29676],[-73.58039,-12.29458],[-73.57951,-12.28725],[-73.578,-12.2845],[-73.57808,-12.28128],[-73.57482,-12.2773],[-73.5702,-12.27673],[-73.56619,-12.27724],[-73.56484,-12.27638],[-73.55999,-12.27585],[-73.55939,-12.27504],[-73.559,-12.26811],[-73.5517,-12.26234],[-73.548,-12.26216],[-73.54452,-12.2609],[-73.5399,-12.26183],[-73.53809,-12.26037],[-73.53513,-12.25924],[-73.53101,-12.25359],[-73.52672,-12.2525],[-73.52344,-12.24999],[-73.52159,-12.24932],[-73.51661,-12.24976],[-73.51397,-12.2509],[-73.50933,-12.25485],[-73.50229,-12.25484],[-73.49961,-12.25291],[-73.48569,-12.24608],[-73.47266,-12.23802],[-73.47283,-12.22618],[-73.46936,-12.2225],[-73.46525,-12.2041],[-73.45911,-12.1892],[-73.44959,-12.17319],[-73.43754,-12.16209],[-73.41616,-12.15014],[-73.40805,-12.1474],[-73.38428,-12.14399],[-73.38084,-12.14298],[-73.37601,-12.14039],[-73.37074,-12.13918],[-73.36156,-12.1401],[-73.3538,-12.14309],[-73.35118,-12.14193],[-73.3496,-12.1394],[-73.34957,-12.13723],[-73.35177,-12.13361],[-73.35548,-12.1303],[-73.35823,-12.12592],[-73.35818,-12.12394],[-73.35539,-12.11593],[-73.35525,-12.11336],[-73.35642,-12.1107],[-73.35977,-12.10966],[-73.36522,-12.11102],[-73.37041,-12.10896],[-73.37279,-12.10659],[-73.37415,-12.10652],[-73.37547,-12.10489],[-73.37695,-12.10473],[-73.38077,-12.10299],[-73.38489,-12.10363],[-73.38843,-12.10124],[-73.39192,-12.09969],[-73.39695,-12.09361],[-73.40044,-12.09054],[-73.40267,-12.08014],[-73.40166,-12.06037],[-73.40295,-12.05708],[-73.40041,-12.04577],[-73.39877,-12.02122],[-73.40007,-12.01711],[-73.40134,-12.0158],[-73.40724,-12.01305],[-73.40875,-12.01111],[-73.41784,-12.01298],[-73.4203,-12.01416],[-73.42341,-12.01379],[-73.42626,-12.00931],[-73.42738,-12.00005],[-73.43478,-11.99855],[-73.43778,-11.99511],[-73.43803,-11.99071],[-73.4311,-11.98352],[-73.43182,-11.97957],[-73.43377,-11.97726],[-73.4365,-11.97566],[-73.43956,-11.97218],[-73.44349,-11.96495],[-73.44529,-11.95691],[-73.445,-11.9494],[-73.4496,-11.93422],[-73.44943,-11.93193],[-73.44695,-11.92633],[-73.44481,-11.91734],[-73.44628,-11.91075],[-73.44884,-11.90682],[-73.45304,-11.89709],[-73.4566,-11.88234],[-73.4551,-11.87514],[-73.45572,-11.86958],[-73.45897,-11.86704],[-73.46534,-11.86445],[-73.46991,-11.86041],[-73.48067,-11.84637],[-73.48349,-11.8365],[-73.48524,-11.83565],[-73.49683,-11.83935],[-73.51131,-11.83932],[-73.51637,-11.83815],[-73.52657,-11.8326],[-73.53421,-11.82636],[-73.54578,-11.81284],[-73.55305,-11.80179],[-73.56447,-11.79474],[-73.57165,-11.79133],[-73.57744,-11.78564],[-73.57972,-11.7771],[-73.57903,-11.76881],[-73.57768,-11.76666],[-73.57287,-11.76382],[-73.57001,-11.75807],[-73.56938,-11.74976],[-73.57015,-11.7398],[-73.57248,-11.73492],[-73.58366,-11.71771],[-73.58856,-11.71183],[-73.59173,-11.70601],[-73.59694,-11.70003],[-73.60454,-11.68647],[-73.60874,-11.68041],[-73.61215,-11.66621],[-73.61513,-11.65878],[-73.61455,-11.64979],[-73.61349,-11.64723],[-73.60436,-11.63749],[-73.60318,-11.63461],[-73.60421,-11.62179],[-73.60169,-11.61756],[-73.59454,-11.612],[-73.58826,-11.60282],[-73.58462,-11.59412],[-73.57159,-11.58203],[-73.56297,-11.57267],[-73.54802,-11.56513],[-73.54485,-11.56207],[-73.54351,-11.55895],[-73.53619,-11.55016],[-73.5249,-11.53936],[-73.52036,-11.53219],[-73.51049,-11.52044],[-73.50293,-11.5199],[-73.5009,-11.51619],[-73.49323,-11.51578],[-73.47844,-11.51904],[-73.47414,-11.51834],[-73.4725,-11.51735],[-73.46988,-11.51404],[-73.46576,-11.50606],[-73.46012,-11.50351],[-73.45568,-11.50246],[-73.45524,-11.50149],[-73.45581,-11.49687],[-73.45953,-11.49265],[-73.4616,-11.48723],[-73.46427,-11.48418],[-73.46726,-11.47869],[-73.47394,-11.4741],[-73.47753,-11.46671],[-73.47586,-11.462],[-73.4731,-11.45745],[-73.47456,-11.45583],[-73.47309,-11.45193],[-73.46783,-11.44556],[-73.46769,-11.44299],[-73.46492,-11.43982],[-73.45981,-11.43631],[-73.45697,-11.43623],[-73.45404,-11.43119],[-73.45156,-11.42887],[-73.45328,-11.42655],[-73.45078,-11.42137],[-73.44759,-11.41988],[-73.44379,-11.41429],[-73.44329,-11.41014],[-73.43979,-11.40654],[-73.43795,-11.40303],[-73.43385,-11.40046],[-73.43281,-11.39852],[-73.42687,-11.39532],[-73.42386,-11.39184],[-73.4221,-11.38538],[-73.41695,-11.38109],[-73.42163,-11.3767],[-73.4275,-11.37588],[-73.43333,-11.37118],[-73.43692,-11.36974],[-73.44106,-11.37044],[-73.44445,-11.37359],[-73.446,-11.37293],[-73.44708,-11.37136],[-73.44807,-11.36652],[-73.45104,-11.36207],[-73.45221,-11.35841],[-73.45784,-11.35407],[-73.46048,-11.35357],[-73.46354,-11.34805],[-73.46449,-11.34188],[-73.46564,-11.34057],[-73.46822,-11.34017],[-73.4729,-11.34419],[-73.47729,-11.34998],[-73.47838,-11.35049],[-73.48069,-11.34925],[-73.48334,-11.34185],[-73.48312,-11.33702],[-73.47861,-11.32781],[-73.4782,-11.32347],[-73.47768,-11.32048],[-73.47932,-11.31847],[-73.48224,-11.31527],[-73.48118,-11.31319],[-73.4782,-11.31099],[-73.47613,-11.30829],[-73.47131,-11.30473],[-73.46905,-11.3039],[-73.46215,-11.30369],[-73.4563,-11.3007],[-73.45567,-11.29856],[-73.45816,-11.29364],[-73.46146,-11.29095],[-73.46005,-11.28451],[-73.46117,-11.27984],[-73.4596,-11.2766],[-73.45869,-11.27137],[-73.45291,-11.26097],[-73.4528,-11.24452],[-73.44742,-11.23302],[-73.4476,-11.22904],[-73.44864,-11.22469],[-73.44635,-11.21881],[-73.44744,-11.21745],[-73.45091,-11.21907],[-73.45227,-11.21776],[-73.45329,-11.2159],[-73.45527,-11.21395],[-73.45471,-11.20958],[-73.45795,-11.20409],[-73.45809,-11.20124],[-73.45576,-11.1948],[-73.45687,-11.19093],[-73.45949,-11.18608],[-73.45953,-11.18446],[-73.46157,-11.18172],[-73.46119,-11.17874],[-73.45969,-11.17604],[-73.46179,-11.17252],[-73.46235,-11.16837],[-73.4636,-11.16309],[-73.45911,-11.15359],[-73.45814,-11.14598],[-73.45971,-11.14273],[-73.46949,-11.13372],[-73.47403,-11.12499],[-73.47356,-11.12182],[-73.46995,-11.11884],[-73.46523,-11.11626],[-73.46488,-11.10704],[-73.46671,-11.10277],[-73.4719,-11.09669],[-73.47213,-11.09417],[-73.46894,-11.08964],[-73.4687,-11.08477],[-73.47087,-11.07873],[-73.47473,-11.07465],[-73.47668,-11.06902],[-73.48069,-11.06186],[-73.48835,-11.05792],[-73.49124,-11.05849],[-73.49641,-11.06183],[-73.49951,-11.06125],[-73.50358,-11.05798],[-73.50708,-11.05736],[-73.51333,-11.05938],[-73.51922,-11.05919],[-73.52218,-11.05687],[-73.52596,-11.05636],[-73.5323,-11.04921],[-73.53896,-11.04372],[-73.54082,-11.04024],[-73.54173,-11.0331],[-73.54224,-11.02121],[-73.54659,-11.01453],[-73.54737,-11.00731],[-73.54953,-11.00533],[-73.54829,-11.00317],[-73.54949,-11.00219],[-73.55366,-11.00198],[-73.55533,-11.00046],[-73.55459,-10.99638],[-73.55345,-10.99387],[-73.55755,-10.98948],[-73.55907,-10.98529],[-73.55901,-10.9747],[-73.56633,-10.968],[-73.56956,-10.96094],[-73.57189,-10.95753],[-73.57271,-10.9525],[-73.57056,-10.94563],[-73.56441,-10.93437],[-73.56619,-10.92118],[-73.56547,-10.9154],[-73.56721,-10.91064],[-73.56669,-10.90281],[-73.56416,-10.89795],[-73.56426,-10.89263],[-73.56377,-10.89071],[-73.56774,-10.88418],[-73.57643,-10.87969],[-73.58342,-10.86385],[-73.58798,-10.85492],[-73.59064,-10.85255],[-73.59697,-10.85174],[-73.60928,-10.84802],[-73.61567,-10.84355],[-73.62901,-10.83029],[-73.63284,-10.82787],[-73.6372,-10.82306],[-73.63988,-10.82209],[-73.64291,-10.81913],[-73.64823,-10.81599],[-73.65107,-10.81282],[-73.65454,-10.81155],[-73.65756,-10.80845],[-73.66047,-10.80704],[-73.66156,-10.80503],[-73.66155,-10.80313],[-73.66219,-10.80255],[-73.66743,-10.80211],[-73.66834,-10.79899],[-73.66624,-10.79416],[-73.66724,-10.79258],[-73.67139,-10.78943],[-73.6724,-10.78836],[-73.67719,-10.78972],[-73.68065,-10.78805],[-73.68484,-10.78312],[-73.68914,-10.77964],[-73.69705,-10.77333],[-73.70503,-10.77118],[-73.71048,-10.76377],[-73.71649,-10.75909],[-73.72618,-10.75697],[-73.73193,-10.75384],[-73.73423,-10.75072],[-73.73554,-10.74581],[-73.73596,-10.73868],[-73.73899,-10.73518],[-73.74312,-10.73397],[-73.75466,-10.73612],[-73.76134,-10.73754],[-73.76921,-10.74378],[-73.77002,-10.75022],[-73.77248,-10.75429],[-73.77318,-10.75806],[-73.7756,-10.75951],[-73.78045,-10.75917],[-73.78198,-10.76006],[-73.78168,-10.76548],[-73.77878,-10.77397],[-73.78062,-10.77958],[-73.78116,-10.78373],[-73.78716,-10.79292],[-73.78909,-10.7958],[-73.79202,-10.79692],[-73.7909,-10.80729],[-73.7944,-10.81377],[-73.79918,-10.81629],[-73.80322,-10.81548],[-73.8083,-10.81079],[-73.81113,-10.8091],[-73.81435,-10.80957],[-73.81717,-10.81228],[-73.81842,-10.82411],[-73.81724,-10.82993],[-73.82281,-10.8347],[-73.82203,-10.84338],[-73.8176,-10.84907],[-73.81673,-10.85889],[-73.81798,-10.86254],[-73.81841,-10.86768],[-73.81908,-10.87304],[-73.82098,-10.87864],[-73.81867,-10.88153],[-73.81608,-10.88195],[-73.81412,-10.8838],[-73.81313,-10.88834],[-73.81524,-10.89164],[-73.81727,-10.89302],[-73.81866,-10.89479],[-73.82013,-10.89496],[-73.82095,-10.89595],[-73.81776,-10.90116],[-73.82091,-10.90477],[-73.82498,-10.90784],[-73.827,-10.91103],[-73.82701,-10.91297],[-73.82369,-10.91947],[-73.82393,-10.92189],[-73.82999,-10.92791],[-73.83202,-10.93316],[-73.83425,-10.93432],[-73.83726,-10.93439],[-73.84088,-10.9387],[-73.84353,-10.9404],[-73.84341,-10.94316],[-73.84615,-10.94978],[-73.85026,-10.95241],[-73.85665,-10.959],[-73.85821,-10.97089],[-73.85966,-10.9732],[-73.86191,-10.97437],[-73.86324,-10.97795],[-73.86174,-10.98491],[-73.86391,-10.99143],[-73.8632,-10.994],[-73.86466,-10.99867],[-73.86436,-11.00215],[-73.86361,-11.00327],[-73.86348,-11.00739],[-73.86451,-11.01234],[-73.86481,-11.01887],[-73.86686,-11.02496],[-73.86653,-11.03091],[-73.86717,-11.03589],[-73.86556,-11.04568],[-73.86447,-11.06208],[-73.8629,-11.0701],[-73.86334,-11.09195],[-73.8648,-11.09788],[-73.86404,-11.11297],[-73.86235,-11.11783],[-73.86112,-11.13094],[-73.8623,-11.13763],[-73.8608,-11.14837],[-73.8603,-11.15436],[-73.86277,-11.15977],[-73.86558,-11.16257],[-73.87348,-11.16657],[-73.8756,-11.16922],[-73.87889,-11.17652],[-73.88605,-11.18077],[-73.88695,-11.18206],[-73.88947,-11.18201],[-73.89895,-11.1709],[-73.90654,-11.16571],[-73.91441,-11.16331],[-73.92328,-11.16197],[-73.92743,-11.16322],[-73.9342,-11.16241],[-73.94515,-11.15532],[-73.94788,-11.15309],[-73.95618,-11.15002],[-73.96028,-11.14023],[-73.96544,-11.1353],[-73.96831,-11.13083],[-73.97411,-11.12761],[-73.97734,-11.12146],[-73.98125,-11.10188],[-73.98069,-11.09611],[-73.9834,-11.09305],[-73.97823,-11.08454],[-73.97858,-11.0703],[-73.98045,-11.06661],[-73.98785,-11.05682],[-73.99003,-11.05059],[-73.99286,-11.02654],[-73.99521,-11.01917],[-73.99731,-11.01548],[-74.00174,-11.00982],[-74.00409,-10.9971],[-74.00546,-10.99368],[-74.00884,-10.99179],[-74.01219,-10.99232],[-74.0152,-10.9938],[-74.02074,-10.99385],[-74.02523,-10.99133],[-74.03364,-10.98876],[-74.0375,-10.98506],[-74.0414,-10.98429],[-74.04574,-10.98735],[-74.04996,-10.99189],[-74.05626,-10.99256],[-74.0591,-10.99373],[-74.06558,-10.99238],[-74.07117,-10.99313],[-74.07899,-10.99209],[-74.08383,-10.98975],[-74.08954,-10.9892],[-74.09937,-10.98639],[-74.10502,-10.98629],[-74.11825,-10.99082],[-74.12421,-10.98874],[-74.13026,-10.98644],[-74.13857,-10.98848],[-74.14093,-10.9937],[-74.14427,-10.99738],[-74.15333,-10.99844],[-74.15899,-10.99815],[-74.16468,-10.9935],[-74.16988,-10.99245],[-74.1746,-10.99253],[-74.17972,-10.98929],[-74.1827,-10.98621],[-74.1888,-10.98523],[-74.19407,-10.98692],[-74.19416,-10.99305],[-74.19195,-10.99941],[-74.19356,-11.0031],[-74.19746,-11.00313],[-74.19933,-11.00511],[-74.20277,-11.02404],[-74.20456,-11.02487],[-74.21761,-11.02436],[-74.22224,-11.02142],[-74.23244,-11.02043],[-74.2398,-11.01766],[-74.24967,-11.01774],[-74.25686,-11.02053],[-74.26319,-11.02497],[-74.26567,-11.02568],[-74.27205,-11.02589],[-74.27745,-11.02918],[-74.28232,-11.02761],[-74.28827,-11.0243],[-74.29453,-11.02955],[-74.29802,-11.03104],[-74.30403,-11.03208],[-74.31297,-11.03459],[-74.31849,-11.03496],[-74.33152,-11.04611],[-74.33328,-11.04849],[-74.33724,-11.05087],[-74.34022,-11.05392],[-74.34791,-11.05563],[-74.35361,-11.05547],[-74.3588,-11.05309],[-74.36212,-11.05327],[-74.36674,-11.05193],[-74.37183,-11.05142],[-74.37537,-11.04968],[-74.38096,-11.04894],[-74.38222,-11.04736],[-74.38252,-11.04608],[-74.38622,-11.04591],[-74.39004,-11.04472],[-74.39565,-11.04456],[-74.4043,-11.03939],[-74.40789,-11.03611],[-74.41289,-11.03367],[-74.41412,-11.03188],[-74.41442,-11.02963],[-74.42049,-11.0226],[-74.42106,-11.02108],[-74.4177,-11.01512],[-74.42028,-11.01178],[-74.42008,-11.008],[-74.41761,-11.00421],[-74.41325,-11.00076],[-74.41364,-10.99764],[-74.41565,-10.99564],[-74.42406,-10.9938],[-74.43399,-10.9883],[-74.4366,-10.98357],[-74.44017,-10.97552],[-74.44975,-10.96893],[-74.4558,-10.96032],[-74.46024,-10.95885],[-74.47117,-10.9623],[-74.47592,-10.96183],[-74.48126,-10.95438],[-74.48304,-10.95119],[-74.49136,-10.94307],[-74.50205,-10.93033],[-74.50732,-10.93006],[-74.51585,-10.93101],[-74.52353,-10.93076],[-74.53418,-10.9295],[-74.54043,-10.93011],[-74.54203,-10.9289],[-74.54927,-10.91952],[-74.55147,-10.91881],[-74.55524,-10.91881],[-74.55979,-10.91629],[-74.56877,-10.9149],[-74.57425,-10.91163],[-74.59049,-10.91071],[-74.59596,-10.91235],[-74.60095,-10.90954],[-74.60709,-10.90778],[-74.61504,-10.90365],[-74.61738,-10.90032],[-74.61892,-10.89649],[-74.62414,-10.89159],[-74.63139,-10.88798],[-74.63338,-10.88534],[-74.63411,-10.88305],[-74.63425,-10.87727],[-74.63891,-10.87105],[-74.64614,-10.86803],[-74.65282,-10.86855],[-74.65983,-10.87429],[-74.66733,-10.87369],[-74.6746,-10.87788],[-74.67887,-10.87975],[-74.67921,-10.8855],[-74.68141,-10.8885],[-74.68954,-10.88881],[-74.69361,-10.89011],[-74.69679,-10.89218],[-74.69907,-10.89015],[-74.7008,-10.885],[-74.70261,-10.88258],[-74.70254,-10.88055],[-74.69982,-10.87661],[-74.69983,-10.87503],[-74.70247,-10.8709],[-74.70653,-10.86625],[-74.71039,-10.85549],[-74.71456,-10.8524],[-74.71654,-10.85164],[-74.71972,-10.84831],[-74.72653,-10.84723],[-74.72949,-10.84389],[-74.7323,-10.83671],[-74.73605,-10.83275],[-74.73705,-10.83272],[-74.74049,-10.83618],[-74.74672,-10.83208],[-74.75023,-10.83097],[-74.75448,-10.8276],[-74.75892,-10.82615],[-74.76488,-10.82779],[-74.76786,-10.82965],[-74.771,-10.82947],[-74.77795,-10.82525],[-74.79093,-10.83075],[-74.79477,-10.82968],[-74.7999,-10.82286],[-74.80595,-10.81697],[-74.81221,-10.80958],[-74.81369,-10.80551],[-74.8179,-10.79992],[-74.82119,-10.79386],[-74.82461,-10.78998],[-74.82786,-10.78434],[-74.83207,-10.77984],[-74.83391,-10.77446],[-74.83687,-10.77035],[-74.83853,-10.76596],[-74.84058,-10.76326],[-74.84147,-10.75753],[-74.8468,-10.74546],[-74.84981,-10.73603],[-74.85608,-10.72837],[-74.85826,-10.72676],[-74.86153,-10.71925],[-74.86561,-10.71503],[-74.86774,-10.71484],[-74.87065,-10.73109],[-74.8688,-10.73993],[-74.86952,-10.75034],[-74.86638,-10.75713],[-74.86573,-10.76151],[-74.86699,-10.76213],[-74.87171,-10.76214],[-74.87662,-10.76354],[-74.88188,-10.76349],[-74.88597,-10.76865],[-74.88868,-10.76958],[-74.89281,-10.76855],[-74.89827,-10.76406],[-74.90202,-10.75994],[-74.90369,-10.75669],[-74.90764,-10.75328],[-74.91127,-10.75166],[-74.91369,-10.74879],[-74.91477,-10.7492],[-74.91925,-10.75413],[-74.92368,-10.75224],[-74.92771,-10.75371],[-74.93044,-10.75321],[-74.93198,-10.75051],[-74.93835,-10.7498],[-74.94013,-10.74852],[-74.94447,-10.74245],[-74.9493,-10.74146],[-74.95352,-10.73703],[-74.95599,-10.73663],[-74.9659,-10.74249],[-74.96913,-10.74331],[-74.97403,-10.74593],[-74.97949,-10.74783],[-74.98287,-10.75034],[-74.98868,-10.74376],[-74.98786,-10.73608],[-74.99549,-10.7251],[-74.99571,-10.71885],[-74.99768,-10.71481],[-74.9977,-10.70993],[-74.99605,-10.70352],[-74.99621,-10.69689],[-74.99759,-10.69037],[-74.99824,-10.67823],[-75.00063,-10.67416],[-75.00401,-10.6723],[-75.01115,-10.67153],[-75.01807,-10.6766],[-75.02428,-10.6804],[-75.03219,-10.6808],[-75.03431,-10.68195],[-75.03747,-10.68094],[-75.03879,-10.6793],[-75.03809,-10.67604],[-75.0406,-10.67079],[-75.049,-10.66359],[-75.05164,-10.66154],[-75.05435,-10.65635],[-75.06053,-10.65473],[-75.06406,-10.65274],[-75.06533,-10.65278],[-75.06962,-10.65817],[-75.07137,-10.65895],[-75.07442,-10.66552],[-75.07301,-10.67408],[-75.0714,-10.67689],[-75.0745,-10.67947],[-75.07816,-10.68104],[-75.0804,-10.68298],[-75.08584,-10.68253],[-75.08852,-10.68351],[-75.08809,-10.68939],[-75.09069,-10.69214],[-75.09186,-10.69687],[-75.09622,-10.69949],[-75.09721,-10.70615],[-75.10166,-10.71314],[-75.10725,-10.71905],[-75.11131,-10.72456],[-75.11539,-10.72577],[-75.11955,-10.73006],[-75.125,-10.72848],[-75.13138,-10.72814],[-75.13596,-10.72563],[-75.14066,-10.72517],[-75.14555,-10.72324],[-75.15097,-10.72297],[-75.1547,-10.72113],[-75.15931,-10.72082],[-75.16213,-10.71923],[-75.17517,-10.72035],[-75.1785,-10.71826],[-75.18693,-10.71827],[-75.19267,-10.71517],[-75.19772,-10.71614],[-75.20397,-10.71628],[-75.20857,-10.71481],[-75.21117,-10.71479],[-75.2133,-10.7161],[-75.21621,-10.72105],[-75.21579,-10.72457],[-75.21914,-10.73206],[-75.22738,-10.74503],[-75.22909,-10.74659],[-75.23017,-10.74912],[-75.23183,-10.74905],[-75.23526,-10.74543],[-75.24034,-10.74516],[-75.24461,-10.74689],[-75.24704,-10.75026],[-75.24593,-10.75426],[-75.24366,-10.75652],[-75.24462,-10.76291],[-75.24426,-10.76755],[-75.24556,-10.77549],[-75.24382,-10.77962],[-75.24309,-10.78887],[-75.24698,-10.79634],[-75.24818,-10.80305],[-75.25536,-10.80895],[-75.25768,-10.80985],[-75.25845,-10.81336],[-75.26085,-10.81654],[-75.26073,-10.81982],[-75.26283,-10.82618],[-75.26685,-10.82948],[-75.26987,-10.82926],[-75.27189,-10.82992],[-75.27574,-10.83353],[-75.28066,-10.83708],[-75.28326,-10.84085],[-75.28568,-10.84175],[-75.28865,-10.84177],[-75.2907,-10.83865],[-75.29174,-10.83947],[-75.29545,-10.84837],[-75.30019,-10.85194],[-75.30169,-10.85422],[-75.31172,-10.85985],[-75.31378,-10.86275],[-75.3164,-10.86298],[-75.32258,-10.86108],[-75.32773,-10.86108],[-75.33144,-10.86476],[-75.33552,-10.86436],[-75.34016,-10.86562],[-75.35025,-10.86515],[-75.35353,-10.86366],[-75.36283,-10.85],[-75.36639,-10.84885],[-75.37895,-10.85554],[-75.38081,-10.86049],[-75.38418,-10.86375],[-75.38524,-10.8676],[-75.38679,-10.86865],[-75.39109,-10.86842],[-75.39384,-10.86611],[-75.40003,-10.86632],[-75.40471,-10.86486],[-75.40932,-10.86488],[-75.41054,-10.86341],[-75.41489,-10.86774],[-75.41553,-10.87064],[-75.41842,-10.87116],[-75.4204,-10.87375],[-75.42309,-10.8797],[-75.42496,-10.88008],[-75.43029,-10.87858],[-75.43577,-10.87876],[-75.43814,-10.88001],[-75.44417,-10.88547],[-75.44824,-10.88818],[-75.44982,-10.89595],[-75.45364,-10.90009],[-75.46311,-10.90116],[-75.46497,-10.90071],[-75.46633,-10.90482],[-75.46868,-10.90462],[-75.47599,-10.90034],[-75.48576,-10.89259],[-75.48925,-10.88395],[-75.48673,-10.878],[-75.48895,-10.86708],[-75.48799,-10.86525],[-75.48926,-10.8551],[-75.48997,-10.8533],[-75.49307,-10.85054],[-75.49332,-10.84777],[-75.49075,-10.84498],[-75.48929,-10.84033],[-75.48956,-10.8373],[-75.49135,-10.83162],[-75.49075,-10.8239],[-75.48716,-10.81475],[-75.48116,-10.80609],[-75.47631,-10.8015],[-75.47355,-10.79905],[-75.47007,-10.79778],[-75.46905,-10.79572],[-75.46094,-10.78692],[-75.45909,-10.7854],[-75.45963,-10.77904],[-75.46093,-10.7745],[-75.46796,-10.76648],[-75.46918,-10.76991],[-75.46941,-10.77532],[-75.47279,-10.77924],[-75.47707,-10.78066],[-75.48084,-10.77912],[-75.48223,-10.7762],[-75.48169,-10.76956],[-75.48248,-10.76509],[-75.48354,-10.76518],[-75.48577,-10.76394],[-75.48658,-10.76185],[-75.48892,-10.75999],[-75.48924,-10.75665],[-75.49363,-10.75484],[-75.49478,-10.75538],[-75.49683,-10.75812],[-75.4983,-10.75756],[-75.499,-10.75565],[-75.50015,-10.75493],[-75.50179,-10.75813],[-75.50256,-10.75831],[-75.50903,-10.75409],[-75.51334,-10.75643],[-75.51635,-10.75426],[-75.5211,-10.75445],[-75.52612,-10.74993],[-75.52948,-10.74826],[-75.53103,-10.7435],[-75.53242,-10.74376],[-75.53583,-10.74209],[-75.53911,-10.74211],[-75.54127,-10.74077],[-75.54459,-10.74145],[-75.54914,-10.74563],[-75.5528,-10.74534],[-75.55679,-10.74359],[-75.55721,-10.7423],[-75.55931,-10.74036],[-75.55911,-10.738],[-75.56099,-10.73536],[-75.5625,-10.73019],[-75.56739,-10.72709],[-75.56912,-10.73777],[-75.57161,-10.74149],[-75.57385,-10.74886],[-75.57427,-10.76017],[-75.57346,-10.76781],[-75.57564,-10.77254],[-75.57536,-10.78111],[-75.57878,-10.7896],[-75.57939,-10.79361],[-75.58161,-10.79684],[-75.5834,-10.80212],[-75.58919,-10.80604],[-75.58999,-10.80862],[-75.59341,-10.81176],[-75.60067,-10.81452],[-75.60646,-10.8233],[-75.60841,-10.82412],[-75.61493,-10.82369],[-75.63276,-10.82676],[-75.64953,-10.82499],[-75.66193,-10.82683],[-75.66527,-10.82797],[-75.67174,-10.83332],[-75.6728,-10.83633],[-75.67506,-10.83823],[-75.67891,-10.83966],[-75.69024,-10.83679],[-75.69294,-10.83502],[-75.69326,-10.83285],[-75.68903,-10.82798],[-75.68922,-10.82551],[-75.69161,-10.81898],[-75.69337,-10.81692],[-75.70736,-10.81575],[-75.7157,-10.81099],[-75.72383,-10.80881],[-75.73292,-10.80911],[-75.74017,-10.81727],[-75.74168,-10.82027],[-75.74659,-10.82366],[-75.75203,-10.82544],[-75.76039,-10.83018],[-75.76284,-10.83019],[-75.76822,-10.82838],[-75.77133,-10.82637],[-75.78755,-10.82502],[-75.79228,-10.82783],[-75.79955,-10.83409],[-75.80474,-10.83732],[-75.80819,-10.84116],[-75.81498,-10.84712],[-75.81849,-10.85429],[-75.819,-10.85885],[-75.81666,-10.86158],[-75.81307,-10.86345],[-75.81341,-10.86633],[-75.81912,-10.87367],[-75.82135,-10.87407],[-75.82367,-10.87297],[-75.82622,-10.87357],[-75.83367,-10.88123],[-75.8366,-10.88502],[-75.83798,-10.88543],[-75.84121,-10.88483],[-75.84968,-10.88091],[-75.85045,-10.87995],[-75.85107,-10.87489],[-75.8602,-10.86765],[-75.86311,-10.87259],[-75.86439,-10.87642],[-75.86587,-10.87664],[-75.8746,-10.86823],[-75.87878,-10.86844],[-75.88136,-10.87028],[-75.88792,-10.86811],[-75.89358,-10.86998],[-75.89471,-10.86923],[-75.90708,-10.86949],[-75.91631,-10.87404],[-75.91794,-10.87635],[-75.91897,-10.88096],[-75.92271,-10.88302],[-75.93115,-10.88296],[-75.93543,-10.88578],[-75.938,-10.88306],[-75.93842,-10.87622],[-75.93801,-10.87024],[-75.94775,-10.86524],[-75.95728,-10.85583],[-75.95828,-10.85405],[-75.95802,-10.84963],[-75.95873,-10.84759],[-75.96181,-10.84523],[-75.96772,-10.84426],[-75.97105,-10.84271],[-75.97323,-10.84048],[-75.97826,-10.83234],[-75.99118,-10.82123],[-75.99421,-10.82074],[-75.99646,-10.82154],[-75.99828,-10.82442],[-76.00101,-10.826],[-76.00207,-10.82754],[-76.00462,-10.8274],[-76.0071,-10.82906],[-76.00777,-10.83067],[-76.00837,-10.83838],[-76.01339,-10.84098],[-76.02347,-10.85403],[-76.03105,-10.85999],[-76.03536,-10.86432],[-76.04289,-10.87487],[-76.04489,-10.87932],[-76.05152,-10.88271],[-76.05755,-10.88232],[-76.06189,-10.88339],[-76.06472,-10.88526],[-76.0677,-10.88547],[-76.07318,-10.89103],[-76.08205,-10.89421],[-76.08226,-10.8966],[-76.08459,-10.89787],[-76.08483,-10.89927],[-76.08656,-10.90004],[-76.08821,-10.90443],[-76.09146,-10.90648],[-76.0923,-10.91017],[-76.09174,-10.91214],[-76.09325,-10.91639],[-76.0942,-10.91713],[-76.09473,-10.92018],[-76.09599,-10.92223],[-76.09795,-10.9226],[-76.09885,-10.92453],[-76.09869,-10.92972],[-76.10346,-10.93249],[-76.1056,-10.93823],[-76.10951,-10.94162],[-76.1096,-10.94591],[-76.11417,-10.94836],[-76.11851,-10.95298],[-76.12198,-10.96026],[-76.12342,-10.96111],[-76.1244,-10.96061],[-76.12042,-10.95531],[-76.12254,-10.95147],[-76.12606,-10.95008],[-76.12724,-10.95099],[-76.13,-10.94887],[-76.13255,-10.94826],[-76.13261,-10.94689],[-76.13631,-10.94593],[-76.13963,-10.9498],[-76.14259,-10.94812],[-76.14484,-10.9454],[-76.14758,-10.94595],[-76.15146,-10.94886],[-76.15721,-10.94863],[-76.16008,-10.94931],[-76.16784,-10.94699],[-76.16937,-10.94787],[-76.16961,-10.95021],[-76.168,-10.95241],[-76.16839,-10.95304],[-76.16934,-10.95226],[-76.17043,-10.95297],[-76.17207,-10.95171],[-76.17287,-10.95378],[-76.17469,-10.95352],[-76.1753,-10.95427],[-76.17734,-10.95429],[-76.18169,-10.95806],[-76.18563,-10.95885],[-76.18752,-10.96015],[-76.18973,-10.95897],[-76.19149,-10.95914],[-76.19155,-10.95625],[-76.19453,-10.95628],[-76.19452,-10.95215],[-76.19555,-10.95123],[-76.19834,-10.9508],[-76.19865,-10.94663],[-76.1996,-10.94469],[-76.20345,-10.94296],[-76.20709,-10.94324],[-76.20992,-10.93948],[-76.20818,-10.93624],[-76.21236,-10.93246],[-76.21241,-10.93084],[-76.20865,-10.92888],[-76.20798,-10.92683],[-76.2089,-10.92518],[-76.20903,-10.91995],[-76.21052,-10.91808],[-76.21439,-10.91743],[-76.21673,-10.91801],[-76.22394,-10.91446],[-76.22814,-10.91582],[-76.22978,-10.91526],[-76.2298,-10.91821],[-76.23117,-10.91902],[-76.23487,-10.91752],[-76.24314,-10.92096],[-76.24594,-10.92148],[-76.24674,-10.92318],[-76.24914,-10.92302],[-76.24959,-10.92404],[-76.25552,-10.9221],[-76.25644,-10.9229],[-76.26082,-10.91975],[-76.26334,-10.92072],[-76.26697,-10.92053],[-76.2696,-10.92192],[-76.27522,-10.91871],[-76.2768,-10.91847],[-76.2769,-10.91967],[-76.27855,-10.92164],[-76.27865,-10.927],[-76.27627,-10.93315],[-76.27767,-10.93593],[-76.27837,-10.94316],[-76.27715,-10.94989],[-76.27612,-10.95054],[-76.27317,-10.94969],[-76.2718,-10.95077],[-76.27161,-10.95199],[-76.27306,-10.95558],[-76.27258,-10.95591],[-76.26953,-10.95455],[-76.26566,-10.95829],[-76.26626,-10.96012],[-76.27049,-10.96138],[-76.27014,-10.96309],[-76.2681,-10.9641],[-76.26821,-10.96567],[-76.27107,-10.96711],[-76.27102,-10.96947],[-76.2733,-10.96952],[-76.272,-10.97333],[-76.26876,-10.97572],[-76.26978,-10.97885],[-76.26623,-10.97961],[-76.26707,-10.9846],[-76.26584,-10.98844],[-76.26679,-10.99204],[-76.2632,-10.99463],[-76.26414,-10.99785],[-76.26131,-10.99959],[-76.25859,-10.99874],[-76.2563,-11.00174],[-76.25674,-11.00368],[-76.25935,-11.00522],[-76.25909,-11.00676],[-76.25662,-11.00963],[-76.25637,-11.0111],[-76.25976,-11.01336],[-76.25891,-11.01601],[-76.25372,-11.02124],[-76.25413,-11.02284],[-76.25903,-11.02486],[-76.25957,-11.02676],[-76.25664,-11.03029],[-76.25112,-11.03162],[-76.25208,-11.03507],[-76.25036,-11.03964],[-76.24346,-11.04139],[-76.2432,-11.04214],[-76.24468,-11.0444],[-76.24461,-11.04561],[-76.24356,-11.0464],[-76.24037,-11.04612],[-76.24,-11.05006],[-76.24166,-11.05131],[-76.23985,-11.05382],[-76.24172,-11.05537],[-76.24178,-11.06073],[-76.2434,-11.06658],[-76.24461,-11.06848],[-76.24469,-11.07038],[-76.24393,-11.07229],[-76.24455,-11.07712],[-76.24581,-11.07982],[-76.24815,-11.08245],[-76.24804,-11.08514],[-76.25024,-11.08901],[-76.25162,-11.10101],[-76.25024,-11.10609],[-76.24451,-11.11338],[-76.24262,-11.11494],[-76.23864,-11.11484],[-76.23506,-11.11951],[-76.23179,-11.12192],[-76.22915,-11.12826],[-76.22565,-11.12827],[-76.22468,-11.13029],[-76.22464,-11.13508],[-76.22366,-11.1362],[-76.22098,-11.13659],[-76.21854,-11.13873],[-76.21854,-11.14262],[-76.21732,-11.14571],[-76.21516,-11.14776],[-76.21477,-11.14978],[-76.21919,-11.14999],[-76.22611,-11.15476],[-76.2273,-11.15496],[-76.22927,-11.15403],[-76.23407,-11.14924],[-76.23672,-11.14825],[-76.24207,-11.14277],[-76.24516,-11.14287],[-76.24982,-11.14646],[-76.25265,-11.14998],[-76.25473,-11.15099],[-76.26076,-11.15031],[-76.27337,-11.14134],[-76.27674,-11.14023],[-76.28111,-11.13788],[-76.2865,-11.13816],[-76.29059,-11.13629],[-76.29407,-11.13331],[-76.30482,-11.1332],[-76.30785,-11.13254],[-76.30894,-11.13133],[-76.31152,-11.12399],[-76.31629,-11.11389],[-76.31842,-11.10738],[-76.31945,-11.09441],[-76.31801,-11.09152],[-76.32024,-11.08956],[-76.33185,-11.08347],[-76.33668,-11.08236],[-76.34134,-11.08455],[-76.34648,-11.09197],[-76.34967,-11.09396],[-76.35141,-11.09385],[-76.35348,-11.09122],[-76.35926,-11.08742],[-76.37208,-11.08382],[-76.37893,-11.0804],[-76.38284,-11.07982],[-76.38367,-11.0785],[-76.38281,-11.07477],[-76.3861,-11.07203],[-76.39229,-11.0703],[-76.39379,-11.07077],[-76.39716,-11.07564],[-76.41332,-11.07569],[-76.42213,-11.07676],[-76.42585,-11.07551],[-76.43012,-11.07736],[-76.43206,-11.07949],[-76.43482,-11.07976],[-76.44328,-11.07304],[-76.44632,-11.07172],[-76.44839,-11.07379],[-76.45186,-11.07968],[-76.45316,-11.07983],[-76.45528,-11.07812],[-76.45621,-11.07813],[-76.45869,-11.08026],[-76.46114,-11.084],[-76.47376,-11.08426],[-76.47746,-11.08298],[-76.48156,-11.08575],[-76.48521,-11.08611],[-76.49115,-11.08932],[-76.49316,-11.09565],[-76.49198,-11.09837],[-76.49252,-11.10124],[-76.49448,-11.1038],[-76.49496,-11.10726],[-76.49725,-11.10968],[-76.50517,-11.11079],[-76.51834,-11.11595],[-76.51916,-11.11797],[-76.518,-11.12123],[-76.51098,-11.12737],[-76.50942,-11.13496],[-76.50749,-11.13631],[-76.50735,-11.14022],[-76.50576,-11.14186],[-76.50417,-11.14645],[-76.50446,-11.15354],[-76.50301,-11.1592],[-76.50378,-11.16475],[-76.50634,-11.16822],[-76.50609,-11.17059],[-76.50288,-11.17502],[-76.50059,-11.1756],[-76.49941,-11.17724],[-76.49876,-11.17966],[-76.49329,-11.18486],[-76.4916,-11.19736],[-76.49405,-11.20139],[-76.49368,-11.20713],[-76.49446,-11.21084],[-76.49274,-11.21457],[-76.48976,-11.21789],[-76.4878,-11.22189],[-76.48544,-11.22457],[-76.48535,-11.22687],[-76.48394,-11.22918],[-76.48416,-11.23348],[-76.48314,-11.23681],[-76.48478,-11.24233],[-76.48478,-11.24382],[-76.49053,-11.24448],[-76.49066,-11.24647],[-76.48864,-11.25059],[-76.48537,-11.25364],[-76.48388,-11.25733],[-76.47987,-11.25963],[-76.47943,-11.26083],[-76.47604,-11.26295],[-76.46664,-11.26378],[-76.46211,-11.2657],[-76.45775,-11.26951],[-76.45782,-11.27234],[-76.45877,-11.2724],[-76.46226,-11.26967],[-76.46385,-11.27036],[-76.46518,-11.27288],[-76.46936,-11.27557],[-76.472,-11.28186],[-76.47668,-11.28766],[-76.4781,-11.29119],[-76.47729,-11.29321],[-76.47396,-11.29651],[-76.47047,-11.30372],[-76.46336,-11.31256],[-76.46265,-11.31596],[-76.46449,-11.31912],[-76.46383,-11.32123],[-76.45953,-11.32633],[-76.45922,-11.32892],[-76.45781,-11.33039],[-76.45696,-11.33429],[-76.45295,-11.34157],[-76.44975,-11.34471],[-76.44362,-11.3469],[-76.4367,-11.3469],[-76.43265,-11.34532],[-76.43033,-11.34625],[-76.42811,-11.34899],[-76.42734,-11.35153],[-76.42282,-11.35421],[-76.42247,-11.35903],[-76.42034,-11.36437],[-76.41982,-11.37493],[-76.41425,-11.37908],[-76.41139,-11.38675],[-76.40747,-11.38998],[-76.40396,-11.39652],[-76.40349,-11.39917],[-76.40067,-11.40285],[-76.40109,-11.40422],[-76.40363,-11.40548],[-76.40485,-11.40842],[-76.41185,-11.40992],[-76.41399,-11.41237],[-76.41279,-11.41484],[-76.40576,-11.42319],[-76.39962,-11.43639],[-76.39396,-11.4448],[-76.38793,-11.4463],[-76.38355,-11.44526],[-76.37924,-11.44296],[-76.37715,-11.44366],[-76.37615,-11.45866],[-76.37225,-11.47151],[-76.3722,-11.47716],[-76.37437,-11.47973],[-76.3793,-11.48088],[-76.38054,-11.48325],[-76.37985,-11.48907],[-76.37654,-11.49885],[-76.3766,-11.50085],[-76.36817,-11.50811],[-76.36233,-11.51416],[-76.3613,-11.51451],[-76.36169,-11.51886],[-76.35782,-11.52295],[-76.35463,-11.52024],[-76.35052,-11.5199],[-76.34932,-11.52157],[-76.3495,-11.52561],[-76.34837,-11.52865],[-76.34922,-11.53128],[-76.34856,-11.53785],[-76.34722,-11.54166],[-76.34446,-11.54296],[-76.33908,-11.54462],[-76.33811,-11.54437],[-76.33667,-11.54243],[-76.33034,-11.54293],[-76.32724,-11.5452],[-76.32567,-11.54881],[-76.32529,-11.55261],[-76.32092,-11.55539],[-76.31967,-11.55922],[-76.31549,-11.5637],[-76.30972,-11.56331],[-76.30474,-11.56669],[-76.3002,-11.57412],[-76.30019,-11.57769],[-76.30095,-11.58084],[-76.30016,-11.58621],[-76.29743,-11.59179],[-76.2972,-11.59629],[-76.29631,-11.59655],[-76.29379,-11.5896],[-76.29221,-11.58875],[-76.28619,-11.59112],[-76.28158,-11.58758],[-76.27919,-11.58466],[-76.27304,-11.58187],[-76.27163,-11.57847],[-76.26969,-11.57222],[-76.2659,-11.56792],[-76.26226,-11.56683],[-76.25353,-11.56946],[-76.24969,-11.56763],[-76.2411,-11.56726],[-76.23721,-11.56871],[-76.23214,-11.56234],[-76.2312,-11.5555],[-76.22803,-11.55367],[-76.22534,-11.55612],[-76.22508,-11.56006],[-76.22109,-11.56355],[-76.2189,-11.56417],[-76.21726,-11.56747],[-76.21784,-11.57027],[-76.21663,-11.57141],[-76.21391,-11.57091],[-76.20952,-11.57367],[-76.20528,-11.57467],[-76.20494,-11.57968],[-76.20056,-11.5863],[-76.19805,-11.58885],[-76.1951,-11.58864],[-76.18886,-11.58655],[-76.18558,-11.58705],[-76.1841,-11.59514],[-76.18719,-11.60003],[-76.18772,-11.6033],[-76.18548,-11.60603],[-76.18137,-11.60753],[-76.17972,-11.60976],[-76.17986,-11.61398],[-76.18355,-11.6146],[-76.18726,-11.61526],[-76.19235,-11.61962],[-76.19732,-11.62247],[-76.19879,-11.62603],[-76.19866,-11.6277],[-76.18999,-11.63565],[-76.19012,-11.638],[-76.18802,-11.64211],[-76.1882,-11.6437],[-76.19156,-11.64828],[-76.19559,-11.6518],[-76.1964,-11.65342],[-76.20155,-11.6582],[-76.20335,-11.65935],[-76.20198,-11.66791],[-76.19894,-11.67109],[-76.19709,-11.67736],[-76.19512,-11.68068],[-76.19451,-11.68842],[-76.19609,-11.69105],[-76.19546,-11.69308],[-76.19688,-11.69422],[-76.20155,-11.69315],[-76.20574,-11.69437],[-76.20722,-11.6994],[-76.20823,-11.70152],[-76.20322,-11.71182],[-76.20329,-11.71397],[-76.20201,-11.71621],[-76.20246,-11.71867],[-76.20079,-11.72194],[-76.20174,-11.72738],[-76.2014,-11.72993],[-76.19724,-11.73807],[-76.1905,-11.73772],[-76.18431,-11.73961],[-76.17995,-11.74694],[-76.17413,-11.75095],[-76.17149,-11.75692],[-76.17165,-11.75908],[-76.17283,-11.76243],[-76.1669,-11.76813],[-76.16424,-11.76982],[-76.16331,-11.77238],[-76.15738,-11.77723],[-76.15269,-11.7828],[-76.15064,-11.78378],[-76.14822,-11.7832],[-76.1421,-11.77669],[-76.13534,-11.78034],[-76.13528,-11.79012],[-76.12988,-11.79304],[-76.12395,-11.79517],[-76.12238,-11.80022],[-76.11548,-11.80827],[-76.11065,-11.81276],[-76.11072,-11.81669],[-76.10513,-11.82506],[-76.10412,-11.82884],[-76.09906,-11.83453],[-76.09674,-11.83622],[-76.0967,-11.83738],[-76.09798,-11.83935],[-76.09752,-11.84191],[-76.09567,-11.84343],[-76.09345,-11.84958],[-76.09162,-11.8507],[-76.09013,-11.85047],[-76.08818,-11.84908],[-76.08599,-11.85657],[-76.08454,-11.86025],[-76.07838,-11.86297],[-76.06783,-11.8736],[-76.05913,-11.87932],[-76.05084,-11.89266],[-76.05146,-11.89969],[-76.04904,-11.90202],[-76.05046,-11.90576],[-76.05062,-11.90916],[-76.05165,-11.91071],[-76.05514,-11.9121],[-76.05777,-11.91219],[-76.0582,-11.91366],[-76.05715,-11.91552],[-76.05722,-11.91837],[-76.05565,-11.92131],[-76.05693,-11.92462],[-76.05495,-11.92723],[-76.05277,-11.93059],[-76.05296,-11.93244],[-76.0548,-11.93499],[-76.05503,-11.93849],[-76.05351,-11.93955],[-76.05241,-11.94734],[-76.04669,-11.95262],[-76.0446,-11.95266],[-76.04066,-11.9557],[-76.03751,-11.96387],[-76.0344,-11.96499],[-76.02391,-11.97286],[-76.01978,-11.97538],[-76.01557,-11.98266],[-76.0115,-11.98613],[-76.0045,-11.98416],[-76.00092,-11.98449],[-75.9949,-11.9886],[-75.99376,-11.99323],[-75.99217,-11.99386],[-75.98053,-11.98732],[-75.97536,-11.98341],[-75.97038,-11.98402],[-75.96598,-11.9874],[-75.96152,-11.98735],[-75.95911,-11.98456],[-75.95393,-11.98571],[-75.95089,-11.98751],[-75.94884,-11.9938],[-75.94641,-11.9944],[-75.93556,-11.98881],[-75.92897,-11.98396],[-75.92191,-11.98365],[-75.91884,-11.98526],[-75.91239,-11.98733],[-75.90959,-11.99172],[-75.90765,-11.99345],[-75.9072,-11.99592],[-75.90363,-11.99778],[-75.90142,-11.99693],[-75.90074,-11.99435],[-75.89612,-11.99286],[-75.89126,-11.99372],[-75.88718,-11.99273],[-75.88383,-11.99384],[-75.87609,-11.99944],[-75.86815,-12.00014],[-75.86645,-12.0013],[-75.86174,-12.00267],[-75.85564,-12.00698],[-75.84959,-12.00797],[-75.84357,-12.00666],[-75.83833,-12.01743],[-75.83639,-12.0197],[-75.83584,-12.02345],[-75.83395,-12.02479],[-75.83014,-12.02461],[-75.82841,-12.02382],[-75.82634,-12.02082],[-75.82561,-12.01603],[-75.82483,-12.01492],[-75.82252,-12.01468],[-75.82026,-12.01343],[-75.81549,-12.02052],[-75.80722,-12.02778],[-75.80346,-12.02999],[-75.80097,-12.03399],[-75.79602,-12.03655],[-75.79338,-12.03601],[-75.79132,-12.0377],[-75.78767,-12.03881],[-75.78618,-12.04019],[-75.7854,-12.04344],[-75.7814,-12.04535],[-75.77496,-12.05348],[-75.76653,-12.05899],[-75.76114,-12.05566],[-75.75278,-12.05486],[-75.74528,-12.04689],[-75.74374,-12.04387],[-75.74269,-12.03927],[-75.74183,-12.03841],[-75.73668,-12.03887],[-75.72821,-12.04298],[-75.72219,-12.04288],[-75.72007,-12.0441],[-75.71796,-12.04689],[-75.71525,-12.04666],[-75.71063,-12.04461],[-75.70714,-12.04723],[-75.70132,-12.04813],[-75.69825,-12.0446],[-75.69428,-12.04255],[-75.69019,-12.04653],[-75.68682,-12.05163],[-75.68287,-12.05321],[-75.682,-12.05456],[-75.67793,-12.0564],[-75.67709,-12.05747],[-75.67528,-12.05807],[-75.67955,-12.0621],[-75.68136,-12.06617],[-75.68322,-12.06788],[-75.68326,-12.07113],[-75.6842,-12.07285],[-75.6836,-12.07575],[-75.68157,-12.07893],[-75.68198,-12.08218],[-75.67812,-12.08395],[-75.675,-12.08448],[-75.66814,-12.08959],[-75.66038,-12.09405],[-75.65466,-12.10327],[-75.65006,-12.10632],[-75.64224,-12.11039],[-75.63813,-12.11411],[-75.63519,-12.1145],[-75.639,-12.119],[-75.6391,-12.12035],[-75.63612,-12.12488],[-75.62911,-12.13107],[-75.62769,-12.1341],[-75.62846,-12.13669],[-75.62985,-12.13814],[-75.6291,-12.14194],[-75.63226,-12.14527],[-75.63889,-12.14837],[-75.64197,-12.14909],[-75.64503,-12.15774],[-75.64913,-12.16279],[-75.64892,-12.16722],[-75.65017,-12.16923],[-75.64984,-12.17285],[-75.65293,-12.17488],[-75.65821,-12.17491],[-75.65994,-12.17908],[-75.65846,-12.18342],[-75.66199,-12.18665],[-75.66545,-12.19358],[-75.66382,-12.196],[-75.65893,-12.19981],[-75.65685,-12.2033],[-75.65373,-12.20592],[-75.65321,-12.20745],[-75.65351,-12.21258],[-75.65197,-12.2152],[-75.64692,-12.21903],[-75.64589,-12.22094],[-75.64487,-12.22691],[-75.64277,-12.23032],[-75.63387,-12.23888],[-75.63408,-12.24188],[-75.62746,-12.24915],[-75.6248,-12.25017],[-75.61739,-12.2563],[-75.61661,-12.25988],[-75.61764,-12.26266],[-75.61605,-12.26536],[-75.61103,-12.26779],[-75.60443,-12.2762],[-75.60293,-12.28036],[-75.59741,-12.28686],[-75.59424,-12.29515],[-75.59005,-12.29776],[-75.58775,-12.29816],[-75.5868,-12.30088],[-75.59016,-12.30492],[-75.59347,-12.31352],[-75.59245,-12.3154],[-75.5922,-12.31996],[-75.58975,-12.32231],[-75.58916,-12.32474],[-75.58683,-12.32591],[-75.58385,-12.32876],[-75.57063,-12.33055],[-75.56759,-12.3325],[-75.56529,-12.33587],[-75.56286,-12.34287],[-75.55747,-12.35033],[-75.55618,-12.35453],[-75.55453,-12.35684],[-75.55423,-12.35974],[-75.549,-12.36521],[-75.55076,-12.37513],[-75.55581,-12.38045],[-75.55675,-12.38687],[-75.56189,-12.39161],[-75.56029,-12.3973],[-75.56023,-12.41085],[-75.55804,-12.41459],[-75.55989,-12.41788],[-75.55924,-12.42291],[-75.55542,-12.43206],[-75.55615,-12.43941],[-75.55535,-12.44149],[-75.55695,-12.44459],[-75.55806,-12.4552],[-75.55559,-12.45868],[-75.55423,-12.46499],[-75.55024,-12.47025],[-75.55034,-12.4738],[-75.54617,-12.48034],[-75.54161,-12.49688],[-75.53969,-12.50002],[-75.5415,-12.50557],[-75.53843,-12.50934],[-75.53843,-12.51366],[-75.53618,-12.51713],[-75.53583,-12.51906],[-75.53858,-12.52227],[-75.54372,-12.52402],[-75.54534,-12.52546],[-75.54625,-12.52996],[-75.54583,-12.53258],[-75.54879,-12.53529],[-75.54915,-12.53795],[-75.55222,-12.54317],[-75.55257,-12.54507],[-75.55503,-12.54612],[-75.55784,-12.54556],[-75.56217,-12.54936],[-75.56686,-12.55423],[-75.56728,-12.55993],[-75.57192,-12.56284],[-75.57161,-12.56696],[-75.56934,-12.56939],[-75.56687,-12.57064],[-75.56623,-12.57273],[-75.56799,-12.57862],[-75.57231,-12.58485],[-75.57256,-12.58953],[-75.57863,-12.59287],[-75.57951,-12.59548],[-75.57934,-12.60622],[-75.58133,-12.61704],[-75.58291,-12.62212],[-75.58051,-12.6278],[-75.58028,-12.63975],[-75.57959,-12.64134],[-75.57442,-12.63696],[-75.56941,-12.63696],[-75.56761,-12.63282],[-75.56319,-12.63272],[-75.56047,-12.63146],[-75.55139,-12.62306],[-75.54813,-12.62527],[-75.54196,-12.62256],[-75.5294,-12.62105],[-75.52631,-12.61843],[-75.52529,-12.61849],[-75.52194,-12.6222],[-75.52161,-12.62482],[-75.51957,-12.62471],[-75.51498,-12.62879],[-75.51134,-12.6338],[-75.50588,-12.63638],[-75.4998,-12.63777],[-75.49863,-12.64305],[-75.49341,-12.64541],[-75.48883,-12.65195],[-75.48826,-12.65634],[-75.48984,-12.66065],[-75.48968,-12.66281],[-75.48662,-12.66566],[-75.4832,-12.6755],[-75.48142,-12.67677],[-75.4771,-12.67747],[-75.47059,-12.68087],[-75.46798,-12.68346],[-75.46097,-12.67685],[-75.45928,-12.67441],[-75.45607,-12.66262],[-75.45274,-12.65706],[-75.45667,-12.65153],[-75.45693,-12.6498],[-75.45608,-12.64533],[-75.45792,-12.64211],[-75.45898,-12.63778],[-75.46139,-12.63506],[-75.45908,-12.63059],[-75.45748,-12.62912],[-75.45686,-12.62704],[-75.45445,-12.62506],[-75.45362,-12.62225],[-75.44975,-12.61989],[-75.44865,-12.62002],[-75.44171,-12.6177],[-75.43952,-12.61731],[-75.43251,-12.62451],[-75.42792,-12.62717],[-75.42297,-12.62577],[-75.42075,-12.62646],[-75.41793,-12.62853],[-75.41536,-12.62827],[-75.41345,-12.62329],[-75.41132,-12.62062],[-75.4104,-12.61767],[-75.41086,-12.60563],[-75.41225,-12.60068],[-75.40987,-12.59774],[-75.41023,-12.59364],[-75.40918,-12.58893],[-75.40357,-12.58545],[-75.39869,-12.58382],[-75.39564,-12.58024],[-75.3956,-12.57783],[-75.39131,-12.5734],[-75.38871,-12.56886],[-75.38027,-12.56382],[-75.38002,-12.56105],[-75.37773,-12.55533],[-75.37586,-12.55455],[-75.3719,-12.55467],[-75.36941,-12.55162],[-75.36806,-12.54368],[-75.36114,-12.53879],[-75.35894,-12.53886],[-75.35647,-12.54022],[-75.35021,-12.53823],[-75.34643,-12.53316],[-75.34311,-12.5328],[-75.34204,-12.53128],[-75.34041,-12.5239],[-75.3361,-12.52096],[-75.33183,-12.51999],[-75.32805,-12.51691],[-75.32284,-12.51593],[-75.32163,-12.51629],[-75.31963,-12.51408],[-75.31762,-12.51386],[-75.31761,-12.51197],[-75.31965,-12.50649],[-75.31803,-12.50348],[-75.31987,-12.50007],[-75.32001,-12.49729],[-75.32366,-12.49128],[-75.32378,-12.48555],[-75.32139,-12.48474],[-75.31389,-12.48419],[-75.3118,-12.48265],[-75.30968,-12.47901],[-75.30743,-12.47998],[-75.30104,-12.48062],[-75.30235,-12.4836],[-75.30203,-12.48626],[-75.29995,-12.48675],[-75.29812,-12.48559],[-75.29469,-12.48041],[-75.28881,-12.47536],[-75.2794,-12.4734],[-75.27808,-12.47104],[-75.27807,-12.46734],[-75.27748,-12.46663],[-75.27408,-12.46608],[-75.2659,-12.4662],[-75.25314,-12.46276],[-75.24603,-12.46273],[-75.23798,-12.47009],[-75.23402,-12.46996],[-75.23276,-12.47112],[-75.23162,-12.47514],[-75.22772,-12.47444],[-75.22314,-12.46763],[-75.21551,-12.46327],[-75.21322,-12.45872],[-75.21308,-12.45616],[-75.21523,-12.45113],[-75.22052,-12.44426],[-75.22449,-12.43645],[-75.22401,-12.43506],[-75.21902,-12.42952],[-75.21499,-12.41967],[-75.21455,-12.41086],[-75.21822,-12.40543],[-75.21764,-12.40133],[-75.21477,-12.39844],[-75.21455,-12.39629],[-75.21929,-12.39113],[-75.21981,-12.39121],[-75.21963,-12.39028],[-75.20557,-12.38163],[-75.20093,-12.37551],[-75.19478,-12.36834],[-75.19083,-12.36593],[-75.18857,-12.36684],[-75.18602,-12.36552],[-75.18354,-12.36148],[-75.182,-12.3606],[-75.18055,-12.36197],[-75.17775,-12.3691],[-75.17608,-12.37124],[-75.17614,-12.37283],[-75.16895,-12.37881],[-75.16854,-12.38144],[-75.16653,-12.38399],[-75.16498,-12.38828],[-75.15732,-12.39309],[-75.1561,-12.39299],[-75.15353,-12.39537],[-75.14571,-12.39465],[-75.14003,-12.38761],[-75.13896,-12.38527],[-75.13395,-12.37927],[-75.13108,-12.37835],[-75.13097,-12.37652],[-75.13307,-12.37337],[-75.13275,-12.36718],[-75.13497,-12.35791],[-75.13485,-12.35393],[-75.13631,-12.34903],[-75.13942,-12.34338],[-75.1393,-12.34036],[-75.13407,-12.33505],[-75.12993,-12.33551],[-75.12895,-12.33502],[-75.12977,-12.32787],[-75.1266,-12.32381],[-75.12005,-12.30958],[-75.11127,-12.30434],[-75.10834,-12.3015],[-75.10683,-12.29833],[-75.10314,-12.29495],[-75.09814,-12.28242],[-75.09879,-12.28091],[-75.10343,-12.27744],[-75.10492,-12.272],[-75.10447,-12.26705],[-75.1001,-12.2536],[-75.10001,-12.25104],[-75.09194,-12.24976],[-75.09174,-12.24845],[-75.09295,-12.24589],[-75.09274,-12.24415],[-75.08797,-12.2398],[-75.0855,-12.23658],[-75.0791,-12.23416],[-75.07662,-12.23426],[-75.07333,-12.23554],[-75.07168,-12.2354],[-75.0703,-12.22954],[-75.06321,-12.22102],[-75.06169,-12.21831],[-75.05881,-12.20931],[-75.05855,-12.20507],[-75.05195,-12.2048],[-75.04921,-12.20245],[-75.0496,-12.19758],[-75.05167,-12.19052],[-75.05368,-12.18699],[-75.05449,-12.17939],[-75.05344,-12.16699],[-75.05219,-12.1647],[-75.05699,-12.16356],[-75.06368,-12.16079],[-75.0672,-12.15847],[-75.07269,-12.15703],[-75.07368,-12.15592],[-75.07366,-12.15015],[-75.07776,-12.14618],[-75.07578,-12.14245],[-75.07314,-12.14211],[-75.06875,-12.14342],[-75.06587,-12.14054],[-75.06289,-12.13382],[-75.06788,-12.12851],[-75.06686,-12.12567],[-75.06705,-12.12113],[-75.06474,-12.11673],[-75.06617,-12.11467],[-75.07087,-12.11342],[-75.0687,-12.10592],[-75.07193,-12.10245],[-75.07153,-12.09903],[-75.06885,-12.09552],[-75.06734,-12.08502],[-75.06901,-12.08226],[-75.06934,-12.07627],[-75.07104,-12.07163],[-75.07413,-12.06778],[-75.07384,-12.06195],[-75.07259,-12.05936],[-75.08049,-12.05765],[-75.08493,-12.0546],[-75.08602,-12.05207],[-75.08518,-12.05048],[-75.08346,-12.05003],[-75.07944,-12.04628],[-75.07738,-12.04192],[-75.07295,-12.03666],[-75.07071,-12.03622],[-75.06876,-12.03686],[-75.06737,-12.036],[-75.06745,-12.02935],[-75.06605,-12.02796],[-75.06374,-12.02413],[-75.06251,-12.02408],[-75.06003,-12.02105],[-75.05315,-12.01442],[-75.04742,-12.01052],[-75.04823,-12.00291],[-75.04961,-11.99958],[-75.04896,-11.99867],[-75.0426,-11.99856],[-75.03846,-12.00006],[-75.03627,-11.99927],[-75.03206,-12.00176],[-75.02648,-12.00208],[-75.02418,-12.00408],[-75.02125,-12.0055],[-75.02139,-12.00973],[-75.02254,-12.01301],[-75.02077,-12.01301],[-75.01687,-12.0111],[-75.01239,-12.01091],[-75.01147,-12.01417],[-75.0088,-12.01653],[-75.00223,-12.01774],[-75.00032,-12.01985],[-74.99728,-12.02093],[-74.99112,-12.01764],[-74.98604,-12.01725],[-74.97909,-12.01935],[-74.97363,-12.02299],[-74.971,-12.02281],[-74.96737,-12.02386],[-74.95943,-12.02264],[-74.95198,-12.0161],[-74.94757,-12.01814],[-74.94095,-12.01741],[-74.93092,-12.02245],[-74.92581,-12.02843],[-74.92105,-12.03236],[-74.91246,-12.03525],[-74.90884,-12.03573],[-74.90373,-12.04225],[-74.89478,-12.04983],[-74.88343,-12.05389],[-74.88087,-12.05355],[-74.87602,-12.05981],[-74.87315,-12.06187],[-74.87251,-12.06411],[-74.86989,-12.06622],[-74.8614,-12.0655],[-74.85879,-12.06689],[-74.85574,-12.06745],[-74.8513,-12.06969],[-74.84376,-12.06978],[-74.8407,-12.07091],[-74.83637,-12.0707],[-74.83312,-12.06745],[-74.82743,-12.06014],[-74.81839,-12.05427],[-74.81622,-12.05418],[-74.80901,-12.05668],[-74.80392,-12.05693],[-74.80021,-12.05843],[-74.7953,-12.05858],[-74.78812,-12.0569],[-74.77908,-12.05267],[-74.775,-12.05296],[-74.76063,-12.05118],[-74.75768,-12.04914],[-74.75412,-12.0448],[-74.74818,-12.04149],[-74.74196,-12.0412],[-74.72994,-12.04734],[-74.72476,-12.05256],[-74.72145,-12.05435],[-74.71998,-12.0588],[-74.71707,-12.05918],[-74.71132,-12.0569],[-74.70488,-12.05057],[-74.69978,-12.04438],[-74.69335,-12.04119],[-74.69043,-12.04047],[-74.68464,-12.03776],[-74.68353,-12.03622],[-74.68193,-12.0298],[-74.6797,-12.02461],[-74.67962,-12.01767],[-74.67877,-12.01686],[-74.67548,-12.01624],[-74.66705,-12.00809],[-74.6653,-12.0087],[-74.6632,-12.0078],[-74.66103,-12.00574],[-74.66039,-12.00174],[-74.65826,-11.996],[-74.65822,-11.99339],[-74.65736,-11.9918],[-74.65344,-11.99206],[-74.65077,-11.99513],[-74.6492,-11.99437],[-74.64664,-11.99104],[-74.64203,-11.98764],[-74.63418,-11.98605],[-74.63195,-11.98488],[-74.62348,-11.98504],[-74.6203,-11.98956],[-74.61762,-11.98979],[-74.61495,-11.98739],[-74.6136,-11.98732],[-74.60838,-11.99182],[-74.60796,-11.99593],[-74.60576,-11.99893],[-74.60233,-11.99936],[-74.59805,-11.99649],[-74.59316,-11.99561],[-74.5931,-11.99123],[-74.59514,-11.98761],[-74.59357,-11.98631],[-74.58498,-11.98605],[-74.58243,-11.98777],[-74.57477,-11.98474],[-74.57246,-11.98445],[-74.57139,-11.98505],[-74.57071,-11.99091],[-74.56733,-11.99741],[-74.56218,-11.99763],[-74.55854,-12.00057],[-74.55406,-11.99989],[-74.55288,-12.00104],[-74.5459,-12.00295],[-74.54228,-12.00679],[-74.53793,-12.0089],[-74.53384,-12.00988],[-74.53008,-12.01388],[-74.52499,-12.0159],[-74.52168,-12.01538],[-74.5181,-12.01755],[-74.51082,-12.02024],[-74.50859,-12.02146],[-74.50332,-12.01982],[-74.49997,-12.02131],[-74.49698,-12.027],[-74.4951,-12.028],[-74.4903,-12.02867],[-74.48834,-12.03129],[-74.4883,-12.03296],[-74.48734,-12.03382],[-74.48396,-12.03304],[-74.48122,-12.02679],[-74.47957,-12.02698],[-74.47694,-12.02955],[-74.47499,-12.02966],[-74.47237,-12.02706],[-74.47024,-12.027],[-74.46607,-12.03359],[-74.46331,-12.03511],[-74.4555,-12.03343],[-74.45464,-12.03373],[-74.45175,-12.03927],[-74.45139,-12.04098],[-74.45201,-12.0431],[-74.45349,-12.04481],[-74.45275,-12.04894],[-74.45126,-12.04957],[-74.44831,-12.04827],[-74.44519,-12.04495],[-74.44263,-12.04531],[-74.44322,-12.04706],[-74.43958,-12.05311],[-74.4407,-12.05547],[-74.43899,-12.05991],[-74.43522,-12.06603],[-74.43362,-12.0698],[-74.43185,-12.07147],[-74.43055,-12.07164],[-74.42277,-12.06707],[-74.41945,-12.06901],[-74.4181,-12.07271],[-74.41459,-12.07599],[-74.41489,-12.07969],[-74.41412,-12.08359],[-74.41709,-12.08647],[-74.41933,-12.08751],[-74.41932,-12.09431],[-74.41759,-12.09858],[-74.41268,-12.10107],[-74.40965,-12.10698],[-74.40778,-12.10765],[-74.40177,-12.1033],[-74.39887,-12.10373],[-74.39481,-12.10961],[-74.39047,-12.11189],[-74.37946,-12.12044],[-74.37472,-12.12662],[-74.36595,-12.13395],[-74.36456,-12.13675],[-74.36165,-12.13858],[-74.36054,-12.13849],[-74.35784,-12.13579],[-74.35366,-12.13559],[-74.35197,-12.13635],[-74.3517,-12.14094],[-74.35311,-12.1485],[-74.35797,-12.14821],[-74.36037,-12.15085],[-74.36134,-12.15305],[-74.36063,-12.15723],[-74.35845,-12.16146],[-74.35599,-12.1637],[-74.3538,-12.16448],[-74.34808,-12.1645],[-74.34438,-12.16704],[-74.34336,-12.17108],[-74.34581,-12.17371],[-74.35221,-12.17691],[-74.34659,-12.1883],[-74.3447,-12.19163],[-74.34471,-12.19524],[-74.34177,-12.19548],[-74.33764,-12.19241],[-74.33474,-12.1939],[-74.3333,-12.19684],[-74.33256,-12.20294],[-74.33258,-12.20713],[-74.33024,-12.2103],[-74.33114,-12.21218],[-74.33597,-12.21259],[-74.33663,-12.21565],[-74.32922,-12.22343],[-74.32518,-12.22652],[-74.32276,-12.22952],[-74.3173,-12.23136],[-74.31464,-12.23056],[-74.31369,-12.22521],[-74.31159,-12.22338],[-74.30946,-12.22362],[-74.30423,-12.226],[-74.29743,-12.2255],[-74.29274,-12.2226],[-74.29035,-12.2236],[-74.29224,-12.22985],[-74.28352,-12.24119],[-74.27667,-12.23968],[-74.27052,-12.23921],[-74.26316,-12.24644],[-74.25923,-12.25491],[-74.25649,-12.25725],[-74.25366,-12.25781],[-74.24904,-12.25742],[-74.24785,-12.25848],[-74.24736,-12.26793],[-74.24672,-12.26905],[-74.24139,-12.27066],[-74.23742,-12.26985],[-74.23408,-12.26733],[-74.23152,-12.26797],[-74.22858,-12.27036],[-74.22547,-12.27631],[-74.22452,-12.27685],[-74.22123,-12.27651],[-74.21842,-12.27858],[-74.22127,-12.2862],[-74.21959,-12.28843],[-74.21655,-12.28977],[-74.21611,-12.29134],[-74.21668,-12.29229],[-74.22096,-12.29455],[-74.22245,-12.29618],[-74.2216,-12.29934],[-74.21734,-12.30281],[-74.2141,-12.30356],[-74.21166,-12.30223],[-74.20834,-12.29839],[-74.20445,-12.29937],[-74.20088,-12.30221],[-74.19388,-12.30149],[-74.18979,-12.30221],[-74.18656,-12.30414],[-74.18804,-12.30644],[-74.18784,-12.31109],[-74.18859,-12.31301],[-74.18213,-12.31711],[-74.1792,-12.31666],[-74.17868,-12.31502],[-74.17596,-12.31322],[-74.16674,-12.31185],[-74.16223,-12.3171],[-74.16152,-12.31919],[-74.15964,-12.32121],[-74.14705,-12.32465],[-74.14473,-12.32342],[-74.14483,-12.31926],[-74.14064,-12.31554],[-74.13689,-12.31601],[-74.13136,-12.31412],[-74.13025,-12.31537],[-74.13021,-12.31838],[-74.13177,-12.32304],[-74.13142,-12.32863],[-74.12933,-12.33228],[-74.12487,-12.33404],[-74.12054,-12.33286],[-74.11698,-12.32559],[-74.11141,-12.3177],[-74.10532,-12.31413],[-74.10408,-12.31169],[-74.10381,-12.3069],[-74.10189,-12.30443],[-74.0988,-12.2855],[-74.09728,-12.2836],[-74.09387,-12.2826],[-74.08875,-12.28248],[-74.08281,-12.28096],[-74.07651,-12.28161],[-74.07063,-12.27688],[-74.0669,-12.27768],[-74.06537,-12.27846],[-74.06289,-12.2769],[-74.05868,-12.2761],[-74.05534,-12.26956],[-74.04985,-12.26704],[-74.04465,-12.26605],[-74.04101,-12.262],[-74.03837,-12.26214],[-74.03297,-12.26881],[-74.0244,-12.27451],[-74.02134,-12.27795],[-74.00899,-12.27866],[-74.00352,-12.28366],[-73.99898,-12.28273],[-73.99207,-12.27744],[-73.98761,-12.27112],[-73.98544,-12.26616],[-73.98404,-12.25884],[-73.98428,-12.25579],[-73.98772,-12.24523],[-73.98955,-12.24334],[-73.99528,-12.23313]]]},"id":"00030000000000000045","properties":{"ADM0_CODE":195,"ADM0_NAME":"Peru","ADM1_CODE":2339,"ADM1_NAME":"Junín","DISP_AREA":"NO","EXP1_YEAR":3000,"STATUS":"Member State","STR1_YEAR":1000,"Shape_Area":3.69870939623,"Shape_Leng":13.843983738}}]}