{"type":"FeatureCollection","columns":{"first":"Short","punto":"String","system:index":"String"},"features":[{"type":"Feature","geometry":{"type":"Point","coordinates":[-75.3228,-12.0383]},"id":"0","properties":{"first":3323,"punto":"huayao_igp"}},{"type":"Feature","geometry":{"type":"Point","coordinates":[-75.2049,-12.0651]},"id":"1","properties":{"first":3264,"punto":"huancayo"}},{"type":"Feature","geometry":{"type":"Point","coordinates":[-75.314,-11.918]},"id":"2","properties":{"first":3287,"punto":"concepcion"}},{"type":"Feature","geometry":{"type":"Point","coordinates":[-75.287,-12.056]},"id":"3","properties":{"first":3238,"punto":"chupaca"}},{"type":"Feature","geometry":{"type":"Point","coordinates":[-75.5,-11.775]},"id":"4","properties":{"first":3387,"punto":"jauja"}},{"type":"Feature","geometry":{"type":"Point","coordinates":[-75.689,-11.419]},"id":"5","properties":{"first":3053,"punto":"tarma"}},{"type":"Feature","geometry":{"type":"Point","coordinates":[-75.993,-11.159]},"id":"6","properties":{"first":4118,"punto":"junin"}},{"type":"Feature","geometry":{"type":"Point","coordinates":[-75.9,-11.519]},"id":"7","properties":{"first":3747,"punto":"la_oroya"}},{"type":"Feature","geometry":{"type":"Point","coordinates":[-75.329,-11.055]},"id":"8","properties":{"first":777,"punto":"la_merced"}},{"type":"Feature","geometry":{"type":"Point","coordinates":[-74.638,-11.254]},"id":"9","properties":{"first":631,"punto":"satipo"}}]}